locationName,centerType,address1,address2,city,state,zip,phoneNumber,phoneExtension,websiteUrl,latitude,longitude
Salem Health  Hospitals and Clinics,hospital-based,890 Oak St SE,,Salem,Oregon,97301,503 561-5200,,https://www.salemhealth.org/,44.932562,-123.034219
"OHSU Knight Cancer Institute Clinic, Beaverton",hospital-based,15700 SW Greystone Ct,,Beaverton,Oregon,97006,971 262-9000,,https://www.ohsu.edu/knight-cancer-institute/ohsu-knight-cancer-institute-beaverton?utm_source=gmb&utm_medium=organic&utm_content=975e13f4-8900-5d9f-8c59-26d99b75ba68,45.5139591,-122.8383402
Providence St. Vincent Medical Center,hospital-based,9205 SW Barnes Rd,,Portland,Oregon,97225,,,https://www.providence.org/locations/or/st-vincent-medical-center/family-maternity-center?y_source=1_OTU3NjM5Ny03MTUtbG9jYXRpb24ud2Vic2l0ZQ%3D%3D#llai,45.510153,-122.771881
Compass Oncology - West,stand-alone imaging center,12123 SW 69th Ave,,Tigard,Oregon,97223,,,https://www.compassoncology.com/locations-physicians/locations/west-cancer-center?utm_campaign=Rio-Listings&utm_source=local-listings&utm_medium=googl,45.432682,-122.748152
Legacy Meridian Park Medical Center,hospital-based,19260 SW 65th Ave,,Tualatin,Oregon,97062,,,https://www.legacyhealth.org/doctors-and-locations/hospitals/legacy-meridian-park-medical-center,45.378709,-122.743038
Legacy--Good Samaritan,hospital-based,1015 NW 22nd Ave,,Portland,Oregon,97210,503-413-7155,,https://www.legacyhealth.org/doctors-and-locations/hospitals/legacy-good-samaritan-medical-center?utm_campaign=website-link&utm_medium=organic&utm_sou,45.530092,-122.697588
OHSU - Lamfrom,hospital-based,3215 SW Pavilion Loop,,Portland,Oregon,97239,,,https://www.ohsu.edu/visit/lamfrom-biomedical-research-building?utm_source=gmb&utm_medium=organic&utm_content=building-lamfrom-marquamhill,45.500523,-122.686375
OHSU KNIGHT CANCER INSTITUTE,hospital-based,3181 SW Sam Jackson Park Rd,,Portland,Oregon,97239,503-494-8468,,https://www.ohsu.edu/,45.498368,-122.685346
Peter O. Kohler Pavilion,hospital-based,808 SW Campus Dr,,Portland,Oregon,97239,503 494-8311,,https://www.ohsu.edu/visit/peter-o-kohler-pavilion?utm_source=gmb&utm_medium=organic&utm_content=Building-KohlerPavilion,45.4991139,-122.6851334
VA Portland Health Care System,hospital-based,3710 SW US Veterans Hospital Rd,,Portland,Oregon,97239,503 220-8262,,,45.496528,-122.683036
Portland Adventist Medical Center,hospital-based,10201 SE Main St,Building 3,Portlan,Oregon,97216,503-261-4460,,https://www.adventisthealth.org/locations/adventist-health-primary-care-portland/,45.514643,-122.55818
Alliance - 24920 - Portland Adventist Medical Cent,hospital-based,0201 SE Main St,Building 3,Portland,Oregon,97216,503-261-4460,,https://www.adventisthealth.org/locations/adventist-health-portland-professional-building-/,45.514047,-122.559705
Providence Portland Medical Center,hospital-based,4805 NE Glisan St,,Portland,Oregon,97213,,,https://www.providence.org/locations/or/portland-medical-center?y_source=1_OTU3NjMxMy03MTUtbG9jYXRpb24ud2Vic2l0ZQ%3D%3D#llaid=5719,45.527387,-122.613666
Compass Oncology - Vancouver Cancer Center,stand-alone imaging center,210 SE 136th Ave,,Vancouver,Washington,98684,,,https://www.compassoncology.com/locations-physicians/locations/vancouver?utm_campaign=Rio-Listings&utm_source=local-listings&utm_medium=google,45.619831,-122.534444
Kadlec Outpatient Imaging Center,hospital-based,945 Goethals Dr,,Richland,Washington,99352,509 942-2655,,https://www.providence.org/locations/kadlec/outpatient-imaging-center?ls=location&y_source=1_Mjk0MDE5NTQtNzE1LWxvY2F0aW9uLndlYnNpdGU%3D,46.2791222,-119.2813503
Summit Cancer Centers,hospital-based,6001 N Mayfair St,,Spokane,Washington,99208,509 462-2273,,https://www.summitcancercenters.com/?utm_source=GMBSocialClimb&utm_medium=SummitCancerCenters,47.7124747,-117.4089363
Madigan Army Medical Center,hospital-based,9040A Jackson Ave,,Tacoma,Washington,98431,,,,47.109759,-122.55207
TACOMA RADIOLOGICAL ASSOCIATES,stand-alone imaging center,2502 South Union Ave,,Tacoma,Washington,98405,253-761-4200,,https://www.tranow.com/locations/tacoma/,47.237359,-122.482399
Olympic Medical Center,hospital-based,844 N. 5th Ave,,Sequim,Washington,98382,907-202-6485,,https://www.olympicmedical.org/,48.089437,-123.111723
"Sound Cancer Care, pllc",stand-alone imaging center,2940 S. Meridian,Suite 100,Puyallup,Washington,98373,2532003166,,https://www.soundcancercare.com/,47.162672,-122.293547
VIRGINIA MASON MEDICAL CENTER,hospital-based,1100 Ninth Avenue Buck Pavillion,Level  5,Seattle,Washington,98101,206-341-1700,,https://www.virginiamason.org/directory,47.609479,-122.327933
SWEDISH MEDICAL CENTER,hospital-based,1221 Madison St,Suite 150,Seattle,Washington,98104,206-215-6487,,https://www.swedish.org/locations/pet-ct-imaging-at-swedish-cancer-institute,47.60992,-122.323121
Seattle Radiology,stand-alone imaging center,1229 Madison,Suite 900,Seattle,Washington,98104,206-292-7734,,https://www.searad.com/,47.610087,-122.322114
SEATTLE CANCER CARE ALLIANCE,hospital-based,825  Eastlake Ave E,,Seattle,Washington,98109,206-606-7222,,https://www.seattlecca.org/,47.626455,-122.329495
Valley Diagnostic Imaging Services ? Medical Arts,hospital-based,"4033 Talbot Rd S, Suite 360",,Renton,Washington,98055,4256906290,,,47.444228,-122.214555
University of Washington,hospital-based,1959 NE Pacific St,,Seattle,Washington,98195,,,,47.649944,-122.308368
Overlake Medical Center,hospital-based,1035 116th Ave NE,,Bellevue,Washington,98004,425 688-5000,,https://www.overlakehospital.org/,47.6203863,-122.1876044
Swedish Issaquah Campus,hospital-based,751 NE Blakely Dr,,Issaquah,Washington,98029,425 313-5373,,https://www.swedish.org/locations/issaquah-campus?Is=location&y_source=1_OTU3NjYyNC03MTUtbG9jYXRpb24ud2Vic2l0ZQ%3D%3D,47.535856,-122.021493
Evergreen Radia,stand-alone imaging center,11521 NE 128th St.,#200,Kirkland,Washington,98034,,,https://evergreenradia.com/,47.714409,-122.187297
ALLIANCE-22179-MT. BAKER IMAGING,hospital-based,2930 Squalicum Pkway,Suite 201,Bellingham,Washington,98225,360-647-2422,,https://mtbakerimaging.com/,48.771974,-122.475319
Swedish Edmonds Campus,hospital-based,21601 76th Ave W,,Edmonds,Washington,98026,425 640-4000,,,47.803314,-122.334444
Providence Regional Cancer Partnership,hospital-based,1700 13th St,,Everett,Washington,98201,,,https://www.providence.org/locations/wa/providence-regional-medical-center-everett/cancer-partnership?y_source=1_OTU3NjU3My03MTUtbG9jYXRpb24ud2Vic2l0Z,47.999642,-122.204576
Lompoc Valley Medical Center,hospital-based,1515 E Ocean Ave,,Lompoc,California,93436,805 737-3300,,https://www.lompocvmc.com/locations/lompoc-valley-medical-center/,34.641138,-120.439519
RIDLEY-TREE CANCER CENTER/CANCER CENTER OF SANTA BARBARA,hospital-based,300 W. Pueblo St.,,Santa Barbara,California,93105,805-563-5870,,https://www.ridleytreecc.org/cancer-center/locations/location/details/cancer-center-of-santa-barbara-300-west-pueblo-st,34.430674,-119.721977
Marian Medical Center,hospital-based,1325 E Church St,,Santa Maria,California,93454,805 219-4673,,https://locations.dignityhealth.org/mission-hope-cancer-center-santa-maria?utm_source=LocalSearch&utm_medium=Facility&utm_campaign=CentralCoast&utm_te,34.952415,-120.415147
GROSSMAN IMAGING CENTER - VENTURA,stand-alone imaging center,2900 Loma Vista Rd,Suite 101,Ventura,California,93003,805-988-0616,,https://www.grossmanimaging.com/,34.275315,-119.25673
GROSSMAN IMAGING CENTER-OXNARD,stand-alone imaging center,2151  East Gozales,Suite 101,Oxnard,California,93036,805-988-0616,,https://www.grossmanimaging.com/,34.219438,-119.149876
PALMS IMAGING CENTER,stand-alone imaging center,1901 Outlet Center Dr,#120,Oxnard,California,93036,805-604-9500,,http://www.palmsimaging.com/,34.220037,-119.149558
Five Cities Medical Imaging,hospital-based,921 N Oak Park Blvd,#102,Pismo Beach,California,93449,,,https://rasloimaging.com/,35.136005,-120.605202
COMMONSPIRIT HEALTH - FRENCH HOSPITAL MED CTR,stand-alone imaging center,1100 Monterey St,#210,San Luis Obispo,California,93401,877-421-1270,,https://www.dignityhealth.org/central-coast/locations/frenchhospital/services/sanluisdiagnosticcenter,35.282917,-120.659849
RADNET - ROLLING OAKS RADIOLOGY THOUSAND OAKS,stand-alone imaging center,415 Rolling Oaks Radiology,Suite 125,Thousand Oaks,California,91361,805-778-1513,,https://www.radnet.com/rolling-oaks-radiology/locations/rolling-oaks-radiology-thousand-oaks,34.174973,-118.869108
PROVIDENCE OUTPATIENT IMAGING - TORRANCE,stand-alone imaging center,5215 Torrance Blvd,Suite 110,Torrance,California,90503,310-303-6500,,https://www.providence.org/locations/outpatient-imaging-center-torrance?y_source=1_OTU3NjAxNC03MTUtbG9jYXRpb24uZ29vZ2xlX3dlYnNpdGVfb3ZlcnJpZGU%3D#llaid=6045,33.838723,-118.369387
Torrance Medical Memorial,stand-alone imaging center,3275 Skypark Dr,,Torrance,California,90505,,,https://www.torrancememorial.org/medical-services/radiology-imaging/,33.808663,-118.342999
Harbor-UCLA Medical Center,hospital-based,1000 W Carson St,,Torrance,California,90502,310 222-2345,,https://dhs.lacounty.gov/harbor-ucla-medical-center/,33.830459,-118.292219
Imaging Healthcare Specialists - San Diego,hospital-based,150 W Washington St,,San Diego,California,92103,,,https://www.imaginghealthcare.com/locations/hillcrest/,32.750201,-117.164663
IMAGING HEALTH CARE SPECIALISTS- SAN DIEGO,stand-alone imaging center,150  West Washington St,,San Diego,California,92103,858-877-1023,,https://www.imaginghealthcare.com/locations/hillcrest/,32.750201,-117.164663
Naval Medical Center,hospital-based,34800 Bob Wilson Dr,,San Diego,California,92134,,,https://www.med.navy.mil/NMRTC-San-Diego-CA/,32.727424,-117.145341
Sharp Memorial Outpatient Pavilion,hospital-based,3075 Health Center Dr.,,San Diego,California,92123,,,,32.798834,-117.15506
UCSD- MEDICAL CENTER DRIVE,hospital-based,9436 Medical Center Dr,,La Jolla,California,92037,619-543-3405,,https://health.ucsd.edu/about/pages/contactus.aspx,32.876827,-117.225864
Scripps Center for Integrative Medicine,stand-alone imaging center,10820 N. Torrey Pines Rd,,La Jolla,California,92037,858-554-3336,,https://campaigns.scripps.org/locations/specialty-centers/scripps-shiley-pavilion/scripps-center-for-integrative-medicine?source_id=8492&utm_campaign=,32.900509,-117.243085
UCSD- HEALTH SCIENCES,hospital-based,3960 Health Sciences Dr,,La Jolla,California,92093,858-246-1515,,https://healthlocations.ucsd.edu/la-jolla/3960-health-sciences-drive,32.879074,-117.220715
CALIFORNIA PROTONS,stand-alone imaging center,9730 Summer Ridge Rd,,San Diego,California,92121,858-549-7400,,https://www.californiaprotons.com/?utm_source=yext&utm_medium=referral&utm_campaign=local&st-t=yext,32.893269,-117.17004
Sharp Grossmont Hospital Outpatient Imaging,hospital-based,8860 Center Dr,,La Mesa,California,91942,619 740-5100,,https://www.sharp.com/locations/sharp-grossmont-hospital-medical-terrace/outpatient-imaging-791?utm_source=google&utm_medium=organic&utm_campaign=yext,32.782492,-117.006626
IMAGING HEALTHCARE SPECIALISTS- ENCINITAS,hospital-based,477  North El Caminon Real,Suite A-102,Encinitas,California,92024,858-888-4548,,https://www.imaginghealthcare.com/locations/encinitas/,33.05712,-117.261289
cCARE,hospital-based,16918 Dove Canyon Rd,Suite 103,San Diego,California,92127,800 456-5860,,https://ccare.com/,33.017509,-117.11209
Southwest Oncology Centers,stand-alone imaging center,1385 S Pacific Ave,,Yuma,Arizona,85364,,,https://swoncology.net/,32.702363,-114.597647
Radiology Associates of San Luis Obispo,stand-alone imaging center,1310 Las Tablas Rd,,Templeton,California,93465,,,https://rasloimaging.com/,35.554835,-120.722861
UCLA Health Santa Monica Outpatient Imaging,hospital-based,1245 16th St,105,Santa Monica,California,90404,310-301-6800,,,34.027493,-118.485384
Hoag Health Center Newport Beach,stand-alone imaging center,510 Superior,Suite 200 BCDE,Newport Beach,California,92663,949 791-3002,,https://www.hoag.org/locations/hoag-medical-group-newport-beach-hoag-health-center/,33.615828,-117.930758
Memorial Care Imaging Center Newport Beach,stand-alone imaging center,3300 West Coast Hwy,Suite B,Newport Beach,California,92663,,,https://www.radnet.com/orange-county/locations/waveimaging-newport-beach,33.621731,-117.927372
HOAG HOSPITAL ADVANCED TECHNOLOGY PAVILLION,hospital-based,One Hoag Dr,BUILDING 47,Newport Beach,California,92663,949-764-5573,,https://www.hoag.org/,33.624397,-117.929636
Liberty Pacific Long Beach,stand-alone imaging center,2708 Willow St,,Signal Hill,California,90755,562-216-5120,,,33.803895,-118.159384
Tibor Rubin VA Medical Center,hospital-based,5901 East 7th St,,Long Beach,California,90822,562-826-5565,,https://www.va.gov/long-beach-health-care/locations/tibor-rubin-va-medical-center/,33.777569,-118.118943
NEWPORT DIAGNOSTIC CENTER,hospital-based,1605  Avocado Ave,,Newport Beach,California,92660,949-467-3100,,https://www.newportdiagnosticcenter.com/,33.615156,-117.868642
United Medical Imaging of Huntington Beach,hospital-based,16161 Gothard St,,Huntington Beach,California,92647,,,https://www.umih.com/,33.727448,-118.000585
Community Hospital of Monterey Peninsula,hospital-based,2 Upper Ragsdale Drive,Building D #100,Monterey,California,93940,,,https://www.montagehealth.org/care-treatment/radiology-imaging/,36.578659,-121.815202
TOWER ST. JOHN'S IMAGING,stand-alone imaging center,2202 Wilshire Blvd,,Santa Monica,California,90403,310-264-9000,,https://www.towersaintjohnsimaging.com/,34.032701,-118.481066
Medical Imaging Center of Southern California,stand-alone imaging center,2817 Wilshire Blvd,,Santa Monica,California,90403,,,https://www.micsc.com/?utm_source=gmb_auth,34.037964,-118.47549
Tri-City PETCT at Vista,hospital-based,902 Sycamore Ave,Suite 120,Vista,California,92081,,,https://tricitypetct.com/,33.1607,-117.219521
California Cancer Associates,hospital-based,838 Nordahl Rd,Suite 300,San Marcos,California,92069,800 456-5860,,https://ccare.com/,33.135418,-117.118583
Valley Radiology Consultants Medical Group,stand-alone imaging center,255 North Elm Street,Suite 102,Escondido,California,92025,,,https://www.valleyrad.com/,33.127,-117.072492
Providence Mission Hospital Mission Viejo,hospital-based,27799 Medical Center Rd,,Mission Viejo,California,92691,,,https://www.providence.org/locations/mission-hospital-mission-viejo?y_source=1_MTMyNjg2ODItNzE1LWxvY2F0aW9uLmdvb2dsZV93ZWJzaXRlX292ZXJyaWRl#llaid=2089,33.55981,-117.665657
HALO DIAGNOSTICS,stand-alone imaging center,74-785 Highway 111,Suite 101,Indian Wells,California,92210,760-776-8989,,https://www.halodx.com/,33.720754,-116.36013
Eisenhower Lucy Curci Cancer Center,stand-alone imaging center,39000 Bob Hope Dr,,Rancho Mirage,California,92270,,,,33.764028,-116.400531
RADNET - Desert Advanced Imaging Rancho Mirage,stand-alone imaging center,35-800 Bob Hope Dr Ste,,Rancho Mirage,California,92270,,,https://www.radnet.com/coachella-valley/locations/rancho-mirage-interventional-radiology-and-imaging-center,33.79053,-116.405464
Temecula Valley Advanced Imaging Temecula Parkway,hospital-based,31775 De Portola Rd,Ste. 100,Temecula,California,92592,,,https://www.radnet.com/temecula-valley/locations/temecula-valley-advanced-imaging-temecula-parkway,33.48346,-117.104
Havasu Regional M.C. Outpatient Radiology,hospital-based,1840 Mesquite Ave,Suite D,Lake Havasu City,Arizona,86403,928855-8185,,https://www.havasuregional.com/locations/hrmc-outpatient-diagnostic-center,34.478518,-114.336683
Sutter home Palo Alto medical foundation,hospital-based,2911 Chanticleer Ave,,Santa Cruz,California,95065,831 477-2350,,https://jobs.sutterhealth.org/our-locations,36.988267,-121.97837
El Camino Health - Los Gatos Hospital,hospital-based,815 Pollard Rd,,Los Gatos,California,95032,408 378-6131,,https://locations.elcaminohealth.org/los-gatos-hospital-campus/815-pollard-rd/hospital-lg?utm_campaign=listings&utm_source=google&utm_medium=location_link&utm_content=hospital-lg,37.2627564,-121.9696175
UCLA Health Santa Clarita Imaging and Intervention,hospital-based,"27235 Tourney Rd,",suite 1500,Valencia,California,91355,310-301-6800,,https://www.uclahealth.org/radiology/scic?utm_source=google&utm_medium=Yext,34.417876,-118.578294
Providence Holy Cross  Imaging Center,hospital-based,26357 McBean Pkwy,,Santa Clarita,California,91355,661-288-5951,,https://www.providence.org/locations/providence-holy-cross-health-center-at-santa-clarita?Is=location&y_source=1_OTU3NTkxNS03MTUtbG9jYXRpb24ud2Vic2l0Z,34.412573,-118.560465
LIBERTY PACIFIC ADVANCED IMAGING,stand-alone imaging center,18133  Ventura Blvd,Suite 100,Tarzana,California,91356,818-933-2020,,https://www.radnet.com/san-fernando-valley/locations/liberty-pacific-advanced-imaging-tarzana,34.166067,-118.52827
RADNET - LIBERTY PACIFIC ADVANCED IMAGING,stand-alone imaging center,16130 Ventura Blvd.,#100,Encino,California,91436,818-616-6538,,https://www.radnet.com/san-fernando-valley/locations/liberty-pacific-advanced-imaging-encino,34.156218,-118.485042
UCLA Health Nuclear Medicine,hospital-based,200 Medical Plaza Driveway,,Los Angeles,California,90095,,,https://www.uclahealth.org/nuc/?utm_source=google&utm_medium=Yext,34.064847,-118.447159
VA GREATER LOS ANGELES,hospital-based,11301 Wilshire Blvd,Basement 0072-500,Los Angeles,California,90073,310-268-3583,,https://www.losangeles.va.gov/,34.052616,-118.452705
THE ANGELES CLINIC AND RESEARCH INSTITUTE,stand-alone imaging center,11818 Wilshire Blvd,Suite 200,Los Angeles,California,90025,310-231-2156,,https://www.cedars-sinai.org/locations/angeles-clinic-research-institute-165.html,34.047307,-118.462978
Elite Advanced Imaging,stand-alone imaging center,17260 Bear Valley Rd,#109,Victorville,California,92395,,,https://www.radnet.com/high-desert/locations/elite-advanced-imaging,34.471606,-117.285522
Loma Linda University Medical Center,hospital-based,11234 Anderson St,,Loma Linda,California,92354,,,https://lluh.org/?utm_source=google-local&utm_medium=organic&utm_campaign=yext,34.050036,-117.263846
Healthcare Advanced Imaging,stand-alone imaging center,4500 Olivewood Ave,#100 & #200,Riverside,California,92501,,,https://www.radnet.com/inland-empire/locations/healthcare-advanced-imaging,33.972388,-117.375876
CITY OF HOPE - OUTPATIENT IMAGING CENTER,hospital-based,1500 East Duarte Rd Outpatient Imaging Center,#184,Durate,California,91010,800-826-4673,,https://www.cityofhope.org/location/duarte,34.129851,-117.970772
City of Hope Corona,hospital-based,320 W 6th St,,Corona,California,92882,,,,33.875413,-117.569902
United Medical Imaging Healthcare,stand-alone imaging center,1401 W Merced Ave,Suite 102,West Covina,California,91790,626 813-6100,,https://www.umih.com/locations/,34.062003,-117.94639
Pacific Medical Imaging,stand-alone imaging center,707 S Garfield Ave,Suite #B1,Alhambra,California,91801,626 227-2727,,https://www.pmioc.com/,34.0888002,-118.1235786
RADNET - IMAGING SPECIALISTS OF PASADENA,hospital-based,630  South Raymond Ave,#210,Pasadena,California,91105,626-356-0700,,https://www.radnet.com/san-fernando-valley/locations/imaging-specialists-pasadena,34.135126,-118.148383
Huntington Hill Imaging Center,stand-alone imaging center,625 S. Fair Oaks Avenue,,Pasadena,California,91105,626 229-8969,,https://hillmedical.com/locations/huntington-hill-imaging-center-fair-oaks/,34.13513,-118.150753
RADNET - ORANGE ADVANCED IMAGING,stand-alone imaging center,230 SOUTH MAIN ST,Suite 101,Orange,California,92868,310-445-2940,,https://www.radnet.com/orange-county/locations/waveimaging-orange,33.785104,-117.867681
Temecula Valley Advanced Imaging Temecula Parkway,stand-alone imaging center,25455 Medical Center Dr,Suite100,Temecula,California,92592,,,https://www.radnet.com/temecula-valley/locations/temecula-valley-advanced-imaging-temecula-parkway,33.556718,-117.186163
City of Hope Orange County Cancer Center,hospital-based,1000 FivePoint,,Irvine,California,92618,888 333-4673,,,33.651563,-117.731001
Southwest Oncology Centers,hospital-based,2755 Silver Creek Rd,Suite 115,Bullhead City,Arizona,86442,928 514-2222,,https://swoncology.net/,35.1105288,-114.5534517
Santa Clara Valley Medical Center,hospital-based,751 S Bascom Ave,,San Jose,California,95128,408 885-5000,,https://scvmc.scvh.org/home,37.3156102,-121.932964
PET Imaging of San Jose,stand-alone imaging center,2211 Moorpark Ave,,San Jose,California,95128,,,,37.316427,-121.932645
EL CAMINO HOSPITAL,hospital-based,2500 Grant Rd,,Mountain View,California,94040,650-694-3971,,https://www.elcaminohealth.org/,37.367816,-122.082457
Palo Alto VA Medical Center,hospital-based,3801 Miranda Ave,,Palo Alto,California,94304,,,,37.405407,-122.140009
Comprehensive Blood & Cancer Center,hospital-based,6501 Truxtun Ave,,Bakersfield,California,93309,,,https://www.cbccusa.com/,35.361467,-119.074633
Quest Imaging: Adventist Health Bakersfield,stand-alone imaging center,2700 Chester Ave,,Bakersfield,California,93301,661 633-5000,,,35.384172,-119.017905
Kern Radiology Memorial Medical Plaza,stand-alone imaging center,3838 San Dimas St a120,,BAKERSFIELD,California,93309,661-326-9600,,,35.394076,-119.007182
Kern Radiology Memorial Medical Plaza,hospital-based,3838 San Dimas St a120,,Bakersfield,California,93301,,,,35.394076,-119.007182
Kern Radiology Medical Group,stand-alone imaging center,4500 Morning Dr,#202,Bakersfield,California,93306,661 326-9600,,https://www.radnet.com/kern-radiology/,35.393823,-118.916744
Kern Radiology Medical Group,stand-alone imaging center,4500 Morning Dr,Suite 202,Bakersfield,California,93306,661 324-7000,,https://www.radnet.com/kern-radiology/locations/kern-radiology-rio-bravo,35.3938231,-118.9167441
Intermountain Healthcare,hospital-based,8285 West Arby Ave,Suite 100B,Las Vegas,Nevada,89113,7029687205,,https://intermountainnv.org/clinic/san-martin-oncology-clinic/,36.0583762,-115.2721363
Comprehensive Cancer Centers of Nevada - Northwest,hospital-based,7445 Peak drive,,Las Vegas,Nevada,89128,702-952-3461,,https://cccnevada.com/treatment-centers/northwest/,36.209298,-115.256624
Comprehensive Cancer Centers of Nevada Eastern Ave,hospital-based,3730 South Eastern Ave,,Las Vegas,Nevada,89169,702-952-3455,,,36.121088,-115.118327
SimonMed Imaging - Henderson,stand-alone imaging center,6301 Mountain Vista St.,#103,Henderson,Nevada,89015,702-433-7216,,https://www.simonmed.com/locations/all/simonmed_imaging___henderson,36.075043,-115.073937
SENTARA ROCKINGHAM MEMORIAL HOSPITAL,hospital-based,2010 Health Campus Dr,,Harrisonburg,Virginia,22801,540-689-6000,,https://www.sentara.com/harrisonburg-virginia/hospitalslocations/locations/sentara-rmh-medical-center/directions-parking.aspx,38.405067,-78.855272
Winchester Medical Center,hospital-based,1840 Amherst St,,Wincherster,Virginia,22601,,,,39.194235,-78.19359
ADVANCED DIAGNOSTIC RADIOLOGY,stand-alone imaging center,952  Seaton Dr,,Cumberland,Maryland,21501,301-777-3829,,https://adronline.org/,39.650995,-78.797755
AUGUSTA MEDICAL CENTER,hospital-based,78 Medical Center Dr,,Fishersville,Virginia,22939,540-332-4490,,https://www.augustahealth.com/,38.094358,-78.986591
UVA Culpeper Medical Center,hospital-based,501 Sunset Ln,,Culpeper,Virginia,22701,,,,38.455683,-78.013588
West Virginia University,stand-alone imaging center,1 Medical Center Dr,#1000,Morgantown,West Virginia,26506,304-293-1884,,https://www.hsc.wvu.edu/,39.653929,-79.958413
Monongalia General Hospital,hospital-based,1200 J D Anderson Dr,,Morgantown,West Virginia,26505,,,https://www.monhealth.com/,39.663925,-79.946749
UNIVERSITY OF VIRGINIA MEDICAL CENTER,hospital-based,1215  Lee St,,Charlottesville,Virginia,22903,434-924-0251,,https://uvahealth.com/locations/profile/university-hospital?utm_source=yext&utm_medium=GMB&y_source=1_MTY4NDQxMDEtNzE1LWxvY2F0aW9uLmdvb2dsZV93ZWJzaXRlX292ZXJyaWRl,38.032001,-78.498686
Sentara Martha Jefferson Hospital,hospital-based,500 Martha Jefferson Dr,,Charlottesville,Virginia,22911,,,https://www.sentara.com/charlottesville-virginia/hospitalslocations/locations/martha-jefferson-hospital/directions-parking.aspx,38.022161,-78.443843
UVA Health Cancer Care Gainesville,hospital-based,7901 Lake Manassas Drive,,Dainesville,Virginia,20155,703753-4045,,https://uvahealth.com/locations/UVA-Health-Cancer-Care-Gainesville-5746435,38.786922,-77.645827
Diagnostic Imaging Services,stand-alone imaging center,11110 Medical Campus Rd,Suite 245,Hagerstown,Maryland,21742,301 714-4200,,,39.621501,-77.683447
"HAGERSTOWN IMAGING, LLC",stand-alone imaging center,11236 Robinwood Dr,Suite 106,Hagerstown,Maryland,21742,301-797-4092,,https://www.hagerstownimaging.org/,39.624652,-77.672358
PET of Reston,stand-alone imaging center,1830 Town Center Parkway,Suite 105,Reston,Virginia,20190,,,https://www.restonradiology.com/,38.963249,-77.365129
Frederick Health Hospital,hospital-based,1562 Opossumtown Pike,,Frederick,Maryland,21702,,,https://www.frederickhealth.org/,39.438055,-77.408605
Community Radiology Associates | Frederick Imaging,stand-alone imaging center,67 Thomas Johnson Dr,#4,Frederick,Maryland,21702,,,https://www.radnet.com/community-radiology/locations/frederick-imaging-center?utm_source=GMB&utm_medium=CRA_Frederick_Main&utm_campaign=GMB_CRA_Freder,39.450926,-77.403941
The Radiology Clinic,stand-alone imaging center,12850 Middlebrook Road,Suite 110,Germantown,Maryland,20874,301 217-0500,,https://theradclinic.com/,39.177381,-77.266486
INOVA RESTON D/B FAIRFAX PET IMG,hospital-based,8081 INNOVATION PARK DRIVE,BLDG A SUITE 204,FAIRFAX,Virginia,22031,703 668-8333,,,38.86303,-77.223912
METRO REGION PET CENTER,hospital-based,3289 Woodburn Rd,,Annandale,Virginia,22003,703-698-5593,,https://www.woodburnmed.com/,38.854053,-77.22354
John Hopkins Medical Imaging LLC,hospital-based,6420 Rockledge Dr,Suite 3100,Chevy Chase,Maryland,20817,,,,39.024565,-77.133326
Adventist HealthCare Imaging - North Bethesda,hospital-based,6000 Executive Blvd,Suite 302,Rockville,Maryland,20852,,,https://www.adventisthealthcare.com/locations/profile/imaging-north-bethesda/?utm_campaign=website-link&utm_medium=organic&utm_source=local-listing,39.047973,-77.120561
Virginia Hospital Center,hospital-based,1701 N Georgia Mason Dr,,Arlington,Virginia,22205,,,https://www.virginiahospitalcenter.com/,38.88945,-77.127897
SIBLEY MEMORIAL HOSPITAL,hospital-based,5255 Loughboro Rd,,NW Washington,District of Columbia,20016,202-537-4795,,https://www.hopkinsmedicine.org/sibley-memorial-hospital/?utm_source=Google&utm_medium=Organic&utm_campaign=Yext&utm_content=FAD&utm_keyword=SMH,38.936711,-77.108596
NIH-NCI Molecular Imaging Branch,stand-alone imaging center,21 Wilson Dr,,Bethesda,Maryland,20892,,,,39.002511,-77.098842
NATIONAL INSTITUTES OF HEALTH,hospital-based,9000 Rockville Pike,,Bethesda,Maryland,20892,301-496-5675,,https://www.nih.gov/institutes-nih/nih-institute-center-contact-information,39.003298,-77.09795
WALTER REED NMMC,hospital-based,8901 Wisconsin Ave,Bldg  9A Room 1517,Bethesda,Maryland,20889,301295-4974,,https://walterreed.tricare.mil/Health-Services/Specialty-Care/Urology,39.002063,-77.089853
ALLIANCE-26783-AFFILIATED PET SYSTEMS,hospital-based,1400 Forest Glen Rd,,Silver Springs,Maryland,20910,301-681-9100,,https://affiliatedpet.com/,39.014877,-77.03416
MEDSTAR AT GEORGETOWN MEDICAL CENTER,hospital-based,3800 Reservoir Rd,,Washington,District of Columbia,20007,202-444-3400,5,https://www.medstarhealth.org/,38.9114,-77.075359
Adventist HealthCare Imaging,hospital-based,11886 Healing Way,Suite 102,Silver Spring,Maryland,20904,,,https://www.adventisthealthcare.com/locations/profile/imaging-pet-ct-center/?utm_campaign=website-link&utm_medium=organic&utm_source=local-listing,39.049237,-76.956835
Adventist Health Care Imaging White Oak PET/CT,stand-alone imaging center,1886 Healing Way,Suite 102,Silver Spring,Maryland,20904,,,https://www.adventisthealthcare.com/locations/profile/imaging-pet-ct-center/?utm_campaign=website-link&utm_medium=organic&utm_source=local-listing,39.049437,-76.956525
MEDSTAR @ WASHINGTON HOSPITAL CENTER,hospital-based,110  Irving St,,Washington,District of Columbia,20010,202-877-9296,,https://www.medstarhealth.org/services/the-burn-center,38.929225,-77.014498
Washington DC VA Medical Center,hospital-based,50 Irving St NW,,Washington DC,District of Columbia,20422,202 745-8000,,,38.928606,-77.010565
DIAGNOSTIC IMAGING ASSOCIATES,stand-alone imaging center,8116 Good Luck Rd,Suite 101,Lanham,Maryland,20706,301-459-7990,,https://www.dchweb.org/locations/diagnostic-imaging-llc-lanham,38.981344,-76.86552
Chesapeake Imaging Bowie,hospital-based,4201 NORTHVIEW DRIVE,SUITE 105,Bowie,Maryland,20716,855-455-8900,,https://www.cmirad.net/,38.947771,-76.736267
CHESAPEAKE MEDICAL IMAGING - GLEN BURNIE,stand-alone imaging center,7801 Elvaton Rd,,Glen Burnie,Maryland,21061,855-455-8900,,https://www.cmirad.net/imaging/petct/,39.139392,-76.627417
RADNET@AMERICAN RAD SRVS-HOWARD,stand-alone imaging center,8820 Columbia Pkwy,Suite 100,Columbia,Maryland,21045,443-409-3239,,https://www.radnet.com/american-radiology/locations/howard-county?utm_source=GMB&utm_medium=ARS_Columbia_Main&utm_campaign=GMB_ARS_Columbia,39.19933,-76.814282
CHESAPEAKE MEDICAL IMAGING - BESTGATE,stand-alone imaging center,810  Bestgate Rd,,Annapolis,Maryland,21401,855.455.8900,,https://www.cmirad.net/,38.994979,-76.537559
Ascension Saint Agnes Hospital,hospital-based,3449 Wilkens Ave,#300,Baltimore,Maryland,21229,667 234-4080,,https://healthcare.ascension.org/locations/maryland/mdbal/baltimore-ascension-saint-agnes-primary-care-wilkens-ave?utm_campaign=gmb&utm_medium=organic,39.271388,-76.674976
UMMC UNIVERSITY OF MARYLAND MEDICAL CENTER,hospital-based,22 South Greene St,,Baltimore,Maryland,21201,410-328-3225,,https://www.umms.org/ummc/locations/university-maryland-medical-center?utm_source=local-listing&utm_medium=organic&utm_campaign=website-link,39.288013,-76.624845
Johns Hopkins University  Hospital,hospital-based,1800 Orleans St,,Baltimore,Maryland,21287,410 955-5000,,https://www.hopkinsmedicine.org/the_johns_hopkins_hospital/?utm_source=Google&utm_medium=Organic&utm_campaign=Yext&utm_content=FAD&utm_keyword=JHH,39.295691,-76.592065
JOHNS HOPKINS UNIVERSITY HOSPITAL,hospital-based,1800  Orleans St,,Baltimore,Maryland,21817,410-955-7266,,https://www.hopkinsmedicine.org/emergencymedicine/contacts.html,39.296347,-76.591702
University of Maryland SHORE REGIONAL HEALTH,hospital-based,10A Martin Ct,,Easton,Maryland,21601,443 225-7474,,https://www.umms.org/shore/locations/diagnostic-imaging-easton,38.7652207,-76.0645787
CHESAPEAKE IMAGING - EASTON,stand-alone imaging center,401 Purdy St,,Easton,Maryland,21601,855-455-8900,,https://www.cmirad.net/,38.76536,-76.062987
Advanced Radiology -- Franklin Square,stand-alone imaging center,9101 Franklin Square Dr,,Rosedale,Maryland,21237,,,https://www.advancedradiology.com/www.advancedradiology.com/locations/medical-arts-building?utm_source=GMB&utm_medium=ADV_MedArts_Main&utm_campaign=GM,39.349992,-76.477757
Bay Health Medical Center,hospital-based,540 S Governors Ave,,Dover,Delaware,19901,,,https://www.bayhealth.org/,39.15348,-75.525881
RADNET@ADV RAD SRVS-HARFORD,stand-alone imaging center,104  Plumtree,#106,Bel Air,Maryland,21015,443-409-3239,,https://www.advancedradiology.com/www.advancedradiology.com/locations/harford-104-plumtree?utm_source=GMB&utm_medium=ADV_104_Main&utm_campaign=GMB_ADV_104,39.502421,-76.329572
Beebe Healthcare,hospital-based,18941 John J Williams Hwy Rt. 24,,Rehoboth Beach,Delaware,19971,302 645-3010,,https://www.beebehealthcare.org/locations,38.725428,-75.138076
PENINSULA IMAGING,stand-alone imaging center,1655 Woodbrooke Dr,Suite 101,Salisbury,Maryland,21801,410-749-1123,,https://www.peninsulaimaging.com/,38.364489,-75.552986
Christiana Care Health System,stand-alone imaging center,4755 Ogletown Stanton Rd,,Newark,Delaware,19711,,,https://christianacare.org/,39.686185,-75.671855
Delaware Imaging Network | Omega Professional Center - Omega Imaging,stand-alone imaging center,"L-6, Omega Dr",,Newark,Delaware,19713,302 369-4342,,https://www.radnet.com/delaware-imaging-network/locations/omega-imaging?utm_source=GMB&utm_medium=DIN_Omega_Main&utm_campaign=GMB_DIN_Omega,39.6906007,-75.6757698
Atlantic Medical Imaging,stand-alone imaging center,30 E Maryland Ave,,Somers Point,New Jersey,8244,,,,39.318327,-74.589577
Advanced Shore Imaging,stand-alone imaging center,2605 Shore Rd,Suite 101,Northfield,New Jersey,8225,,,https://advancedshoreimaging.com/,39.359567,-74.559418
South Jersey Radiology Associates - Turnersville,hospital-based,901 NJ-168 #301,Suite 301,Blackwood,New Jersey,8012,,,https://www.sjra.com/locations/turnersville/,39.777281,-75.053535
South Jersey Radiology Associates - Voorhees,hospital-based,100 Carnie Blvd,Suite B5 Ste B5,Voorhees Township,New Jersey,8043,888 909-7572,,https://www.sjra.com/locations/voorhees/,39.863609,-74.956633
Health Village Imaging,stand-alone imaging center,1301 Route 72 West,,Manahawkin,New Jersey,8050,,,https://www.healthvillageimaging.com/,39.724663,-74.290539
Larchmont Imaging Associates,stand-alone imaging center,210 Ark Road,Suite 106,Mount Laurel,New Jersey,8003,609-261-4500,,https://www.larchmontimaging.com,39.969128,-74.873075
"Toms River X-RAY, CT and MRI Center",stand-alone imaging center,154 Hwy 37 West,,Toms River,New Jersey,8755,732 244-0777,,http://www.tomsriverxray.com,39.966747,-74.221722
"Monmouth Medical Center, Southern Campus",hospital-based,600 River Ave,,Lakewood,New Jersey,8701,732 363-1900,,https://www.rwjbh.org/monmouth-medical-center-southern-campus/,40.073193,-74.218758
Ocean Medical Center Brick,hospital-based,425 Jack Martin Blvd,,Brick Township,New Jersey,8724,732 840-2200,,https://www.hackensackmeridianhealth.org/en/Locations/Ocean-University-Medical-Center,40.077027,-74.13152
ATLANTIC MEDICAL- MANASQUAN,stand-alone imaging center,2399 NJ- 34,Suite A-5,Manasquan,New Jersey,8736,732-223-9729,,https://www.amwwall.com/,40.125858,-74.083893
University Radiology at Jersey Shore,stand-alone imaging center,2100 Corlies Ave,,Neptune City,New Jersey,7753,,,https://www.universityradiology.com/?utm_source=google&utm_medium=gmb&utm_campaign=Neptune,40.206514,-74.045394
University Radiology Group - Freehold,hospital-based,1043 W Main St,,Freehold Township,New Jersey,7728,732 462-1900,,https://www.universityradiology.com/?utm_source=google&utm_medium=gmb&utm_campaign=freehold,40.234333,-74.315573
Shrewsbury Diagnostic Imaging,stand-alone imaging center,1131 Broad St,110,Shrewsbury,New Jersey,7702,732 578-9640,,,40.31424,-74.062783
University Radiology,hospital-based,48 Gilbert St N,,Tinton Falls,New Jersey,7701,,,https://www.universityradiology.com/?utm_source=google&utm_medium=gmb&utm_campaign=tinton_falls,40.326206,-74.07623
New York Cancer and Blood Specialists,stand-alone imaging center,365 East Main Street,,Patchogue,New York,11772,833-269-4624,,https://nycancer.com/,40.767364,-73.002061
Good Samaritan HMC - West ISLIP,hospital-based,1000 Montauk Hwy,,West Islip,New York,11795,,,https://www.chsli.org/locations/good-samaritan-hospital-imaging-services,40.694083,-73.294319
Stony Brook Southampton Hospital,hospital-based,240 Meeting House Lane,,Southampton,New York,11968,631-726-8270,,https://southampton.stonybrookmedicine.edu/,40.885085,-72.380418
New York Cancer and Blood Specialists,stand-alone imaging center,640 County Road,39,Southampton,New York,11968,833-269-4624,,https://nycancer.com/,40.886859,-72.37898
Good Samaritan Hospital - West ISLIP,hospital-based,1245 Montauk Hwy,,West Islip,New York,11795,,,https://www.chsli.org/good-samaritan-hospital,40.696602,-73.291163
NORTHWELL IMAGING AT BAYSHORE,stand-alone imaging center,440 East Main St,,Bayshore,New York,11706,631-414-8000,,https://www.northwell.edu/imaging/locations/bay-shore?utm_source=provider_listing&utm_medium=partner&utm_campaign=doctor_dot_com,40.726642,-73.229262
STONY BROOK ADVANCED IMAGING AT RIVERHEAD,stand-alone imaging center,350 Old Country Rd,,Riverhead,New York,11901,833-269-4624,,https://imaging.stonybrookmedicine.edu/locations,40.936125,-72.656571
New York Cancer and Blood Specialists,stand-alone imaging center,750 Old Country Road,,Riverhead,New York,11901,833-269-4624,,https://nycancer.com/,40.935116,-72.667132
Northwell Health Imaging at North Fork,stand-alone imaging center,1333 Roanoke Ave,,Riverhead,New York,11901,631 727-2755,,https://www.northwell.edu/imaging/locations/north-fork?utm_source=provider_listing&utm_medium=partner&utm_campaign=doctor_dot_com,40.9346496,-72.6757698
New York Cancer and Blood Specialists,stand-alone imaging center,1500 Route 112,Building 2A,Port Jefferson Station,New York,11776,833-269-4624,,https://nycancer.com/,40.91025,-73.030151
LAWRENCE AND MEMORIAL HOSPITAL,hospital-based,196 Waterford Prkwy South,Suite 102,Waterbury,Connecticut,6385,866-245-5995,,https://www.lmhospital.org/,41.366252,-72.162068
CONEMAUGH MEMORIAL MEDICAL CENTER,hospital-based,1086 Franklin St,,Johnstown,Pennsylvania,15905,814-534-5258,,https://www.conemaugh.org/directory-search/find-a-location/conemaugh-memorial-medical-center-family-medical-center,40.30471,-78.918702
CHARTER RADIOLOGY,stand-alone imaging center,5505 Signal Bell Lane,,Clarksville,Maryland,21029,443-933-0056,,https://www.charterradiology.com/clarksville-location/,39.209852,-76.938172
Advanced Radiology -- Crossroads,stand-alone imaging center,4801 Dorsey Hall Dr,#101,Ellicott City,Maryland,21042,,,https://www.advancedradiology.com/www.advancedradiology.com/locations/crossroads?utm_source=GMB&utm_medium=ADV_Crossroads_Main&utm_campaign=GMB_ADV_Cr,39.242501,-76.837186
RADNET @ ADV RAD SRVS - POMONA,stand-alone imaging center,1700 Reistertown Rd,#119,Baltimore,Maryland,21201,443-409-3239,,https://www.advancedradiology.com/www.advancedradiology.com/locations/pomona-square?utm_source=GMB&utm_medium=ADV_Pomona_Main&utm_campaign=GMB_ADV_Pomona,39.380618,-76.72932
RADNET @ ADV RAD SRVS GBMC MRI PET,hospital-based,6715 Charles St,,Towson,Maryland,21204,443-409-3239,,https://www.advancedradiology.com/www.advancedradiology.com/locations/gbmc-imaging?utm_source=GMB&utm_medium=ADV_GBMC_Main&utm_campaign=GMB_ADV_GBMC,39.395602,-76.626968
CHESAPEAKE IMAGING - TOWSON,stand-alone imaging center,1312  Bellona Ave,Suite 102,Lutherville Timonium,Maryland,21093,855-455-8900,,https://www.cmirad.net/imaging/petct/,39.418526,-76.630204
Advanced Radiology - Timonium Crossing,hospital-based,2080 York Rd,160,Timonium,Maryland,21093,443 436-4700,,,39.439932,-76.626966
Brinton Lake Imaging,hospital-based,500 Evergreen Dr,,Glen Mills,Pennsylvania,19342,,,https://www.crozerhealth.org/locations/practices/imaging/brinton-lake-imaging/,39.888011,-75.531764
Penn Hospital Medicine - Pennsylvania Hospital,hospital-based,800 Spruce St,,Philadelphia,Pennsylvania,19107,,,,39.945832,-75.154888
JEFFERSON OUTPATIENT IMAGING,hospital-based,850 Walnut St,,Philadelphia,Pennsylvania,19107,215-503-8239,,https://hospitals.jefferson.edu/find-a-location/locations/joi-850-walnut-street.html,39.947986,-75.155394
Princeton Radiology ? Freehold Office,hospital-based,901 West Main Street,,Freehold,New Jersey,7728,732-462-4844,,https://www.princetonradiology.com/locations/freehold/,40.236841,-74.313105
New York Cancer and Blood Specialists,stand-alone imaging center,49 Nesconset Highway,,Port Jefferson Station,New York,11776,833-269-4624,,https://nycancer.com/,40.926295,-73.042186
UPMC - JOHN P MURTHA REG CANCER CENT,hospital-based,337 Somerset St,,Johnstown,Pennsylvania,15901,814-533-0106,,https://hillman.upmc.com/find/locations/john-murtha-johnstown-pa,40.321754,-78.921648
Mountain View Medical Park,stand-alone imaging center,200 Village Dr,C,Greensburg,Pennsylvania,15601,,,https://www.excelahealth.org/locations/mountain-view-medical-park/,40.292904,-79.461408
WellSpan Chambersburg,hospital-based,112 N 7th St,,Chambersburg,Pennsylvania,17201,717 267-3000,,https://www.wellspan.org/offices-locations/wellspan-chambersburg-hospital/,39.934407,-77.646056
WellSpan Gettysburg Hospital,hospital-based,147 Gettys St,,Gettysburg,Pennsylvania,17325,,,https://www.wellspan.org/offices-locations/wellspan-gettysburg-hospital/,39.824416,-77.235486
MAIN LINE HEALTH AT NEW TOWN SQUARE,hospital-based,3855  West Chester Pike,,New Town Square,Pennsylvania,19073,484-337-2200,,https://www.mainlinehealth.org/specialties/diagnostic-radiology,39.987137,-75.410345
VA Medical Center of Philadelphia,hospital-based,3900 Woodland Ave,,Philadelphia,Pennsylvania,19104,215-823-5865,,https://www.va.gov/philadelphia-health-care/,39.947982,-75.200135
University of Pennsylvania,hospital-based,3400 Spruce St,,Philadelphia,Pennsylvania,19104,,,https://www.pennmedicine.org/for-patients-and-visitors/penn-medicine-locations/hospital-of-the-university-of-pennsylvania?y_source=1_NDE5ODI4Ny03MTUtb,39.950245,-75.193721
Temple Northeastern Campus,hospital-based,2301 E Allegheny Ave,,Philadelphia,Pennsylvania,19134,,,,39.989837,-75.105826
WPAHS Forbes Regional Hospital,hospital-based,2570 Haymaker Rd,,Monroeville,Pennsylvania,15146,,,https://www.ahn.org/locations.html/?utm_source=GMB&utm_medium=Local&utm_content=Facility&utm_campaign=6460460726424627111,40.428583,-79.747988
Jefferson Regional Medical Center,hospital-based,565 Coal Valley Rd,,Jefferson Hills,Pennsylvania,15025,412 469-5000,,https://www.ahn.org/locations/hospitals/jefferson,40.317206,-79.933786
UPMC Altoona,hospital-based,800 Howard Ave,Suite 1,Altoona,Pennsylvania,16601,,,https://hillman.upmc.com/find/locations/altoona-medical-oncology,40.520574,-78.399953
Satish A Shah Md Pc,hospital-based,20 Expedition Trail # 101,,Gettysburg,Pennsylvania,17325,,,,39.845176,-77.185807
UPMC Hanover,hospital-based,300 Highland Ave,,Hanover,Pennsylvania,17331,,,,39.808568,-76.982938
WELLSPAN YORK HOSPITAL,hospital-based,37  Monument Rd,Suite 101,York,Pennsylvania,17403,717-812-4801,,https://www.wellspan.org/offices-locations/wellspan-imaging-apple-hill-health-campus/,39.925103,-76.718778
Lancaster General Hospital,hospital-based,555 N Duke St,,Lancaster,Pennsylvania,17602,,,https://www.lancastergeneralhealth.org/patient-and-visitor-information/find-a-location/lancaster-general-hospital?y_source=1_ODM2OTcwMy03MTUtbG9jYXRpb,40.047027,-76.304023
Lancaster General Hospital,hospital-based,2100 Harrisburg Pike,,Lancaster,Pennsylvania,17601,717 544-3000,,https://www.lancastergeneralhealth.org/patient-and-visitor-information/find-a-location/suburban-pavilion,40.065581,-76.355391
Hackensack Meridian Health Riverview Medical,hospital-based,1 Riverview Plaza,,Red bank,New Jersey,7701,,,,40.353678,-74.063977
STONY BROOK ADVANCED IMAGING,stand-alone imaging center,1320 Stonybrook Rd,,Stonybrook,New York,11790,631-638-2600,,https://imaging.stonybrookmedicine.edu/patient-visitor/how-to-prepare,40.877232,-73.119332
Backus Hospital,hospital-based,326 Washington St,,Norwich,Connecticut,6360,,,https://backushospital.org/,41.542541,-72.088877
Indiana Regional Medical Center,hospital-based,835 Hospital Rd,,Indiana,Pennsylvania,15701,724 357-7000,,,40.607508,-79.156441
UPMC YORK,hospital-based,1703 Innovation Dr,,York,Pennsylvania,17408,717-815-2351,3,https://www.upmc.com/locations/outpatient/south-central-pa/york,39.981638,-76.768954
Lebanon VA Medical Center,hospital-based,1700 S Lincoln Ave,,Lebanon,Pennsylvania,17042,717 272-6621,,,40.311569,-76.406464
Fox Chase Cancer Center,hospital-based,333 Cottman Ave,,Philadelphia,Pennsylvania,19111,215-728-2600,,https://www.foxchase.org/locations/fox-chase-cancer-center-main-campus?utm_source=google&utm_medium=organic,40.066976,-75.092711
ADLER INSTITUTE FOR ADVANCED IMAGING,stand-alone imaging center,261 Old York Rd,,Jenkintown,Pennsylvania,19046,215-935-0030,,https://www.adlerimaging.com/,40.090334,-75.124346
ProHEALTH Sitron-Hammel Radiology Group,stand-alone imaging center,4277 Hempstead Turnpike,Ste 200,Bethpage,New York,11714,,,https://www.prohealthcare.com/?o=PHNY:NPS:OC_9.1_2020:YEXT:OC:GEN:20811CAD15:n_a:n_a:n_a:n_a:n_a,40.726351,-73.479615
"Mount Sinai Doctors - Rockville Centre, PET/CT Rad",hospital-based,485 Merrick Rd,,Rockville Centre,New York,11570,,,https://www.southnassau.org/sn/rali-pet?utm_campaign=rockvillecentre&utm_source=googlemybusiness&utm_medium=organic&utm_content=,40.655294,-73.636006
Lenox Hill Radiology - Lynbrook,stand-alone imaging center,443 Sunrise Hwy,,LYNBROOK,New York,11563,631 277-1600,,,40.654839,-73.673134
Rhode Island Hospital,hospital-based,593 Eddy St,,Providence,Rhode Island,2903,,,https://www.lifespan.org/locations/rhode-island-hospital,41.811334,-71.408932
Rhode Island Hospital,hospital-based,593 Eddy St,,Providence,Rhode Island,2903,,,,41.811334,-71.408932
Geisinger Lewistown Hospital,hospital-based,400 Highland Ave Ext,,Lewistown,Pennsylvania,17044,717 248-5411,,,40.618025,-77.566912
UPMC PINNACLE MECHANICSBURG,hospital-based,2015  Technology Pkwy,,Mechanicsburg,Pennsylvania,17050,717-230-3700,,https://www.upmc.com/locations/outpatient/south-central-pa/mechanicsburg/2015-technology-pkwy,40.284125,-76.974607
UPMC HARRISBURG,stand-alone imaging center,4518 Union Deposti Rd,,Harrisburg,Pennsylvania,17011,717-960-3317,,https://www.upmc.com/services/south-central-pa/imaging/locations/harrisburg/union-deposit-rd,40.280538,-76.806814
HERSHEY MEDICAL CENTER,hospital-based,500 University Dr,,Hershey,Pennsylvania,17033,717-531-3799,,http://hmc.pennstatehealth.org/,40.262241,-76.678719
MCAMI,hospital-based,2701 Blair Mill Rd,,Willow Grove,Pennsylvania,19090,215-481-3377,,https://www.abingtonhealth.org/our-locations/abington-jefferson-health-willow-grove/,40.165238,-75.132008
St. Mary Medical Center,hospital-based,1201 Langhorne Newtown Rd,,Langhorne,Pennsylvania,19047,,,https://www.trinityhealthma.org/location/st-mary-medical-center,40.202123,-74.922202
Penn Medicine Princeton Medical Center,hospital-based,1 Plainsboro Rd,,Plainsboro  Township,New Jersey,8536,,,https://www.princetonhcs.org/,40.339882,-74.624372
Princeton Radiology ? Monroe Office,stand-alone imaging center,9 Centre Drive,,Monroe Township,New Jersey,8831,609-655-1448,,https://www.princetonradiology.com/locations/monroe/,40.33986,-74.461997
Zwanger-Pesiri Radiology,stand-alone imaging center,80 Maple Ave,,Smithtown,New York,11787,631 265-5777,,https://zwangerpesiri.com/,40.8526256,-73.1978478
Beth Israel Deaconess Hospital-Plymouth PET/CT,hospital-based,275 Sandwich St,,Plymouth,Massachusetts,2360,866-245-5995,,https://www.bidhplymouth.org/default.cfm,41.943057,-70.645287
UPMC CC @ Natrona Heights,hospital-based,1604 Burtner Rd,,Natrona Heights,Pennsylvania,15065,800 533-8762,,https://www.upmc.com/locations/outpatient/southwest-pa/natrona-heights/burtner-rd,40.630975,-79.727294
UPMC HILLMAN CANCER CENTER,hospital-based,5115  Centre Ave,,Pittsburgh,Pennsylvania,15224,412-623-3357,,https://hillman.upmc.com/find/locations/hillman-cancer-center-pittsburgh-pa,40.455347,-79.94266
Geisinger Health System - Grays Wood,hospital-based,132 Abigail Ln,,Port Matilda,Pennsylvania,16870,800 230-4565,,https://locations.geisinger.org/details.cfm?id=102&utm_source=gmb&utm_medium=web&utm_term=&utm_content=&utm_campaign=kyruus_brandify,40.815152,-77.941929
LEHIGH VALLEY CEDAR CREST,hospital-based,1230 S Cedar Crest Blvd,,Allentown,Pennsylvania,18103,610-402-4200,1,https://www.lvhn.org/locations/imaging-services-1230-cedar-crest,40.56605,-75.521384
St. Luke's Hospital - Sacred Heart Campus,hospital-based,421 W Chew St,,Allentown,Pennsylvania,18102,,,https://findalocation.slhn.org/details/11047,40.608518,-75.468025
ALLIANCE-26781-DOYLESTOWN HOSPITAL,hospital-based,599 West State St,,Doylestown,Pennsylvania,18901,304-771-1262,,https://alliancecancer.com/location/the-cancer-institute-at-doylestown-hospital/,40.306642,-75.147341
Hunterdon Medical Center,hospital-based,2100 Wescott Dr,,Flemington,New Jersey,8822,908 788-6100,,https://www.hunterdonhealth.org/,40.53062,-74.858435
University Group East Brunswick,stand-alone imaging center,483 Cranbury Rd,,East Brunswick,New Jersey,8816,,,,40.4236,-74.407952
JFK Medical Center,hospital-based,"3548 Route 9 South,",Suite 101,Old Bridge,New Jersey,8857,732 321-7000,,https://www.hackensackmeridianhealth.org/en/Locations/JFK-University-Medical-Center,40.380846,-74.30898
University Radiology at Robert Wood Johnson,hospital-based,10 Plum St,,New Brunswick,New Jersey,8901,,,https://www.universityradiology.com/?utm_source=google&utm_medium=gmb&utm_campaign=New-Brunswick,40.493999,-74.452105
SHARED IMAGING @ BAYSHORE,hospital-based,727 N BEERS STREET,,Holmdel,New Jersey,7733,732 739-5900,,,40.405485,-74.191701
NYU Langone Hospital,hospital-based,120 Mineola Blvd,Suite 10 LL,Mineola,New York,11501,,,https://nyulangone.org/locations/nyu-langone-radiology-mineola?cid=syn_yext&y_entity_id=549&y_source=1_OTYxMTU0NS03MTUtbG9jYXRpb24ud2Vic2l0ZQ%3D%3D,40.742353,-73.640179
NYU Long Island Winthrop Hospital,hospital-based,259 First Street,,Mineola,New York,11501,516-663-2778,,https://nyulangone.org/locations/nyu-langone-hospital-long-island?cid=syn_yext&y_entity_id=546&y_source=1_OTYxMTU0NC03MTUtbG9jYXRpb24ud2Vic2l0ZQ%3D%3D,40.74108,-73.643378
Beth Israel Deaconess Hospital - Plymouth,hospital-based,275 Sandwich St,,Plymouth,Massachusetts,2360,508 746-2000,,https://www.bidplymouth.org/,41.943057,-70.645287
VA PITTSBURGH HEALTHCARE SYSTEM,hospital-based,University Drive C,,Pittsburgh,Pennsylvania,15240,866-482-7488,2,https://www.va.gov/pittsburgh-health-care/locations/pittsburgh-va-medical-center-university-drive/,40.445216,-79.960028
Geisinger Medical Center,hospital-based,100 N Academy Ave,,Danville,Pennsylvania,17822,,,https://www.geisinger.org/patient-care/find-a-location/geisinger-medical-center?utm_source=gmb&utm_medium=web&utm_term=&utm_content=&utm_campaign=kyru,40.968444,-76.600703
St. Luke's North Medical Center,stand-alone imaging center,153 Brodhead Rd,,Bethlehem,Pennsylvania,18017,,,https://findalocation.slhn.org/details/976,40.673191,-75.383936
LEHIGH VALLEY HECKTOWN,hospital-based,3780 Hecktown Rd,,Easton,Pennsylvania,18045,610-402-4200,1,https://www.lvhn.org/locations/lehigh-valley-hospital-hecktown-oaks,40.696799,-75.283678
University Radiology Edison,stand-alone imaging center,3900 Park Ave,#107,Edison,New Jersey,8820,,,https://www.universityradiology.com/?utm_source=google&utm_medium=gmb&utm_campaign=Edison,40.562433,-74.383076
JFK University Medical Center,hospital-based,65 James St,,Edison,New Jersey,8820,732 321-7000,,https://www.hackensackmeridianhealth.org/en/Locations/JFK-University-Medical-Center,40.5577682,-74.3492882
Verrazano Radiology,stand-alone imaging center,256 Mason Ave,,Staten Island,New York,10305,,,https://www.northwell.edu/doctors-offices/northwell-health-verrazano-imaging-at-staten-island-university-hospital,40.586082,-74.085691
ProHEALTH BRMI at Stillwell Avenue,stand-alone imaging center,1783 Stillwell Ave,,Brooklyn,New York,11223,,,https://www.prohealthcare.com/locations-nav/locations/ny/prohealth-bay-ridge-medical-imaging-at-stillwell-1783-stillwell-ave-brooklyn-ny-11223/2a817a3,40.603106,-73.986102
BROOKLYN VA MEDICAL CENTER,hospital-based,800 Poly Place,,Brooklyn,New York,11209,718-836-6600,,https://www.va.gov/directory/guide/facility.asp?id=21,40.608178,-74.023892
Maimonides Cancer Center,hospital-based,6300 8th Ave,,Brooklyn,New York,11220,,,https://www.maimonidesmed.org/treatments-care/cancer-center/,40.633951,-74.011894
NORTHWELL HEALTH ADVANCED MEDICAL CENTER,stand-alone imaging center,450 Lakeville Rd,,Lake Success,New York,11042,516-734-7437,,https://www.northwell.edu/imaging/locations/lake-success?utm_source=provider_listing&utm_medium=partner&utm_campaign=doctor_dot_com,40.757082,-73.701949
New York Cancer and Blood Specialists,stand-alone imaging center,1 Delaware Drive,,Lake Success,New York,11042,833-269-4624,,https://nycancer.com/,40.759712,-73.694019
Northwell Imaging at Syosset,stand-alone imaging center,100 Lafayette Dr,,Syosset,New York,11791,516-622-3431,,https://www.northwell.edu/imaging/locations/syosset?utm_source=provider_listing&utm_medium=partner&utm_campaign=doctor_dot_com,40.811774,-73.509439
Mount Sinai Doctors Long Island,hospital-based,5 Cuba Hill Rd,,Greenlawn,New York,11740,,,https://www.mountsinai.org/locations/long-island,40.866688,-73.366357
Butler Memorial Hospital,hospital-based,1 Hospital Way,,Butler Health System,Pennsylvania,16001,724 283-6666,,https://www.butlerhealthsystem.org/,40.867302,-79.880635
UPMC WILLIAMSPORT,hospital-based,700 High St,,Williamsport,Pennsylvania,17701,570-321-2400,,https://www.upmc.com/locations/hospitals/williamsport,41.246694,-77.015119
Wilkes-Barre VA Medical Center,hospital-based,1111 East End Blvd,,Wilkes-Barre,Pennsylvania,18711,570 824-3521,,,41.248423,-75.835238
POCONO MEDICAL CENTER,hospital-based,206 East Brown St,,East Stroudsburg,Pennsylvania,18301,570-422-1717,,https://www.lvhn.org/locations/lehigh-valley-hospital-pocono,40.992853,-75.175332
Wilkes-Barre General Hospital,hospital-based,468 Northhampton St,Suite 2,Kingston,Pennsylvania,18704,,,https://www.commonwealthhealth.net/our-services,41.256022,-75.897962
Saint Clare's Dover Hospital,hospital-based,400 W Blackwell St,,Dover,New Jersey,7801,,,https://www.saintclares.com/?utm_source=GMBlisting&utm_medium=Organic&utm_campaign=GMBWebsite,40.885075,-74.576169
Summit Medical Group - Berkeley Heights Urgent Car,stand-alone imaging center,1 Diamond Hill Rd,,Berkeley Heights,New Jersey,7922,,,,40.678011,-74.412079
Morristown Medical Center,hospital-based,100 Madison Ave,,Morristown,New Jersey,7960,,,https://www.atlantichealth.org/locations/hospitals/morristown-medical-center.html,40.789138,-74.465046
SUMMIT MEDICAL GROUP,stand-alone imaging center,150 Park Ave,,Florham Park,New Jersey,7932,908-277-8673,,https://www.summithealth.com/locations/florham-park-campus-le-benger-pavilion,40.780733,-74.425281
Overlook Medical Center,hospital-based,99 Beauvoir Ave,,Summit,New Jersey,7901,,,https://www.atlantichealth.org/locations/hospitals/overlook-medical-center.html,40.712125,-74.353619
RWJ Barnabas-Livingston Campus,hospital-based,200  S Orange Ave,,Livingston,New Jersey,7039,,,https://www.rwjbh.org/barnabas-health-ambulatory-care-center/treatment-care/imaging-radiology/,40.772979,-74.355378
VA New Jersey Health Care System,hospital-based,385 Tremont Ave,,East Orange,New Jersey,7018,,,https://www.va.gov/new-jersey-health-care/,40.752677,-74.236108
REGIONAL RADIOLOGY,stand-alone imaging center,360 Bard Ave,,Staten Island,New York,10310,718-876-2000,,http://www.regionalradiology.com/,40.635142,-74.10702
Rutgers Advanced Practice Imaging,hospital-based,30 Bergen St,,NEWARK,New Jersey,7103,,,,40.744286,-74.188751
NEW YORK PRESBYTERIAN - BROOKLYN METHODIST HOSPITAL,hospital-based,515 6th St,,Brooklyn,New York,11215,718-230-7788,,https://www.nyp.org/brooklyn?utm_source=yextgmb&utm_medium=organic&utm_campaign=yext_doctor_listings&y_source=1_MTM4MTIwMjYtNzE1LWxvY2F0aW9uLmdvb2dsZV93ZWJzaXRlX292ZXJyaWRl,40.668215,-73.978835
"Hoboken Radiology, LLC",stand-alone imaging center,79 Hudson St,Suite #100,Hoboken,New Jersey,7030,,,https://montclairradiology.com/hoboken-welcome,40.736212,-74.029783
NYU LANGONE PERLMUTTER CANCER CENTER,stand-alone imaging center,160 East 34th St,2nd Floor,New York,New York,10016,212-731-6000,,https://nyulangone.org/locations/perlmutter-cancer-center,40.745759,-73.97876
NYU LANGONE MEDICAL CENTER BIO MED IMAGING,stand-alone imaging center,660 1st Ave,,New York,New York,10016,212-263-6246,,https://nyulangone.org/locations/nyu-langone-radiology-center-for-biomedical-imaging,40.74598,-73.971524
RADNET @ LHR - ONCOLOGIC AND MOLECULAR IMAGING CENTER,stand-alone imaging center,755 2ND Ave,3RD Floor,New York,New York,10017,212-599-5555,,https://www.radnet.com/lenox-hill-radiology/locations/center-oncologic-and-molecular-imaging?utm_source=GMB&utm_medium=LHR_Oncologic_Main&utm_campaign=GMB_LHR_Oncologic,40.749134,-73.972991
New York Cancer and Blood Specialists,stand-alone imaging center,92-37 Metropolitan Avenue,,Forest Hills,New York,11375,833-269-4624,,https://nycancer.com/,40.711587,-73.856747
MAIN STREET RADIOLOGY,stand-alone imaging center,32-25 Francis Lewis Blvd.,,Bayside,New York,11358,718 428-1500,,https://www.mainstreetradiology.com/about-us/locations/bayside-32nd-avenue/,40.768731,-73.791371
Prohealth Care Lake Success,hospital-based,2800 Marcus Ave,,New Hyde Park,New York,11042,,,https://www.prohealthcare.com/,40.759705,-73.695375
NYU LANGONE RADIOLOGY NRAD LAKE SUCCESS,stand-alone imaging center,6 Ohio Dr,,Lake Success,New York,11042,516-222-2022,,https://nyulangone.org/locations/nyu-langone-radiology-nrad-lake-success,40.761603,-73.691973
ST FRANCIS DIAGNOSTIC,hospital-based,2200 Northern Blvd,Suite 100C,East Hills,New York,11548,516-563-7100,,https://www.chsli.org/locations/st-francis-diagnostic-imaging,40.806087,-73.635008
NORTHPORT VA MEDICAL CENTER,hospital-based,79 Middleville Rd,,Northport,New York,11768,631-261-4400,,https://www.va.gov/northport-health-care/locations/northport-va-medical-center/,40.895004,-73.304607
SHIELDS IMAGING OF EASTERN MASS @ SOUTH SHORE HOSPITAL,hospital-based,55 Fogg Rd,,South Weymouth,Massachusetts,2190,866-258-4738,,https://shields.com/location/shields-petct-south-shore-hospital/,42.175824,-70.954123
Geisinger at Viewpoint Imaging,hospital-based,5 Morgan Hwy,,Scranton,Pennsylvania,18508,570 558-7400,,https://locations.geisinger.org/details.cfm?id=174&utm_source=gmb&utm_medium=web&utm_term=&utm_content=&utm_campaign=kyruus_brandify,41.444704,-75.674719
ImageCare at Jefferson,hospital-based,757 NJ-15,Suite 104,Lake Hopatcong,New Jersey,7849,973 810-8100,,https://imagecarecenters.com/jefferson-nj/,40.961279,-74.59667
CHILTON MEDICAL CENTER,hospital-based,97 West Prkwy,,Pompton Plains,New Jersey,7444,973-831-5297,,https://www.atlantichealth.org/locations/hospitals/chilton-medical-center.html,40.958411,-74.309386
Summit Medical Group @ Clifton Heights,hospital-based,1255 Broad St,,Clifton,New Jersey,7013,973 685-5755,,https://www.citymd.com/urgent-care-locations/nj/clifton-hub,40.853257,-74.178379
University Radiology,stand-alone imaging center,235 Franklin Ave,#2708,Nutley,New Jersey,7110,,,https://www.universityradiology.com/?utm_source=google&utm_medium=gmb&utm_campaign=Nutley,40.815911,-74.162077
Hackensack Medical Center,hospital-based,20 Prospect Ave,,Hackensack,New Jersey,7601,,,,40.883251,-74.057001
Columbia Radiology - Midtown,stand-alone imaging center,51 W 51st St,,New York,New York,10019,,,https://www.columbiadoctors.org/locations/columbiadoctors-midtown/adult-services/radiology?utm_source=Ggl&utm_medium=GMB-link&utm_campaign=CD,40.76008,-73.978575
MOUNT SINAI HEALTH SYSTEM,hospital-based,1 Gustave L. Levy Place Box 1141,,New York,New York,10029,212-241-7775,,https://www.mountsinai.org/locations/mount-sinai/care/radiology,40.790012,-73.953741
Hess Center for Science and Medicine,hospital-based,1470 Madison Ave,,New York,New York,10029,,,,40.790899,-73.952055
Mount Sinai Hospital,hospital-based,1485 Madison Ave,,New York,New York,10029,,,https://www.mountsinai.org/locations/mount-sinai?utm_source=Yext&utm_medium=local_listing&utm_campaign=MountSinai&y_source=1_MTgwODM1MS03MTUtbG9jYXRpb,40.790898,-73.951121
LENOX HILL HOSPITAL,hospital-based,100 East 77th St,,New York,New York,10021,212-434-2000,,https://lenoxhill.northwell.edu/?utm_source=provider_listing&utm_medium=partner&utm_campaign=doctor_dot_com,40.77386,-73.960778
NYMI Associates,hospital-based,165 E 84th St,,New York,New York,10028,,,https://www.nymiassociates.com/,40.778032,-73.955592
Mallard MSO LLC Rosetta Radiology,hospital-based,1421 3rd Ave,,New York,New York,10028,,,https://www.northwell.edu/imaging/locations/rosetta?utm_source=provider_listing&utm_medium=partner&utm_campaign=gmb,40.775214,-73.956349
MSKCC Corporate - Main Campus,hospital-based,1250 1st Ave,,New York,New York,10065,,,,40.764821,-73.957776
Lenox Hill Radiology | East 66th Street,stand-alone imaging center,400 E 66th St,,New York,New York,10065,,,https://www.radnet.com/lenox-hill-radiology/locations/east-66th-street?utm_source=GMB&utm_medium=LHR_East66th_Main&utm_campaign=GMB_LHR_East66th,40.763662,-73.958651
Weill Cornell Imaging at NewYork-Presbyterian,stand-alone imaging center,1305 York Ave,#3F,New York,New York,10021,,,https://wcinyp.org/,40.765607,-73.955366
MONTEFIORE MEDICAL CENTER NUCLEAR MED,stand-alone imaging center,1695A Eastchester Rd,,The Bronx,New York,10461,718-405-8462,,https://www.montefiore.org/responsiveteam-6286,40.846282,-73.845169
University Diagnostic Medical Imaging,stand-alone imaging center,1200 Waters Pl,,Bronx,New York,10461,,,https://www.udmi.net/,40.852837,-73.837068
ST FRANCIS HOSPITAL - THE HEART CENT,hospital-based,100  Port Washington Blvd,,Roslyn,New Jersey,11576,844-862-2623,,https://www.chsli.org/st-francis-hospital?utm_medium=yext&utm_source=gmb,40.804269,-73.670452
Prohealth NY Proton Center,hospital-based,225 E 126th St,,New York,New York,10035,7745712799,,https://www.nyproton.com/?utm_source=GMBSocialClimb&utm_medium=NewYorkProtonCenter,40.80408,-73.934075
"Middlesex Health Outpatient Center, Middletown",hospital-based,534 Saybrook Rd,,Middletown,Connecticut,6457,,,https://middlesexhealth.org/location-finder/middlesex-health-outpatient-center-middletown,41.541844,-72.620735
SHIELDS HEALTHCARE,stand-alone imaging center,700 Congress St,,Quincy,Massachusetts,2122,866-258-4738,,https://shields.com/,42.234512,-71.017508
The Valley Hospital Foundation,hospital-based,223 North Van Dien Ave,,Ridgewood,New Jersey,7450,,,https://www.valleyhospitalfoundation.org/,40.984114,-74.100239
Englewood Health,hospital-based,350 Engle Street,,Englewood,New Jersey,7631,201-894-3284,,https://www.englewoodhealth.org/,40.904585,-73.96754
Hudson Valley PET Imaging,hospital-based,111 N Highland Ave,,Nyack,New York,10960,,,https://www.radnet.com/hudson-valley-radiology/locations/hudson-valley-petct-imaging?utm_source=GMB&utm_medium=HVRA_PETImaging_Main&utm_campaign=GMB_H,41.094784,-73.927278
COLUMBIA UNIVERSITY- KREITCHMAN PET CENTER,hospital-based,1050 Riverside Dr,,New York,New York,10032,212-326-8518,,https://www.columbiaradiology.org/locations/columbiadoctors-pet-center,40.842346,-73.943552
Bronx VA James J Peters,hospital-based,130 W Kingsbridge Rd,,Bronx,New York,10468,,,https://www.va.gov/health/,40.867403,-73.906405
Phelps Hospital,hospital-based,701 N Broadway,,Tarrytown,New York,10591,,,https://phelps.northwell.edu/?utm_source=provider_listing&utm_medium=partner&utm_campaign=doctor_dot_com,41.109429,-73.862682
Westchester PET & Medical Imaging,stand-alone imaging center,19 Bradhurst Ave,#1200,Hawthorne,New York,10532,,,https://www.westchesterpetct.com/,41.088192,-73.801641
WHITE PLAINS HOSPITAL,hospital-based,41 E Post Rd,,White Plains,New York,10601,914-681-1260,,https://wphospital.org/,41.025877,-73.769665
Greenwich Hospital,hospital-based,5 Perryridge Rd,,Greenwich,Connecticut,6830,203 863-3000,,,41.034548,-73.630257
Stamford Health Tully Health Center,hospital-based,32 Strawberry Hill Ct,,Stamford,Connecticut,6902,,,https://www.stamfordhealth.org/locations/locations-profile/tully-health-center/?utm_source=google&utm_medium=organic&utm_campaign=Yext,41.064637,-73.536084
Norwalk Radiology Consultants,hospital-based,148 East Ave Suite,,Norwalk,Connecticut,6851,203 276-4311,,,41.110028,-73.409396
SAINT VINCENT'S MEDICAL CENTER,hospital-based,2800 Main St,,Brudgeport,Connecticut,6606,475.210.5083,,https://stvincents.org/,41.200421,-73.202329
VA CONNECTICUT HEALTH CARE SYSTEM,hospital-based,950 Campbell Ave,,West Haven,Connecticut,6516,203-932-5711,3866,https://www.va.gov/connecticut-health-care/,41.2844,-72.95761
YALE NEW HAVEN HOSPITAL,hospital-based,20 York St,,New Haven,Connecticut,6510,203-200-5119,,https://www.ynhh.org/,41.303767,-72.935503
Milford Regional Medical Center/DFCI Cancer Center,hospital-based,20 Prospect Street,,Milford,Massachusetts,1757,508 488-3854,,,42.133028,-71.530041
UPMC Chautauqua,hospital-based,207 Foote Ave,,Jamestown,New York,14701,,,https://www.upmc.com/locations/hospitals/chautauqua,42.091223,-79.231898
Lourdes Hospital,hospital-based,169 Riverside Dr,,Binghamton,New York,13905,,,https://healthcare.ascension.org/locations/new-york/nybin/binghamton-our-lady-of-lourdes-memorial-hospital?utm_campaign=gmb&utm_medium=organic&utm_sou,42.091501,-75.936228
Rayus Radiology - Hudson Valley Imaging,stand-alone imaging center,575 Hudson Valley Ave,,New Windsor,New York,12553,845 220-2222,,https://www.hudsonvalleyimaging.com/,41.483867,-74.101709
Putnam Hospital,hospital-based,670 Stoneleigh Ave,,Carmel Hamlet,New York,10512,,,https://www.nuvancehealth.org/locations/putnam-hospital?y_source=1_MTEyNjg2MzEtNzE1LWxvY2F0aW9uLndlYnNpdGU%3D,41.383572,-73.663174
ALLIANCE-26161-NERAD BREWSTER,stand-alone imaging center,3839  Danbury Rd,,Brewster,New York,10509,845-278-6200,,https://www.nerad.com/brewster-ny/,41.386793,-73.559327
Danbury Hospital - Main,hospital-based,111 Osborne St,,Danbury,Connecticut,6810,,,https://www.nuvancehealth.org/locations/diagnostic-imaging-and-radiology-danbury-hospital-medical-arts-center,41.404639,-73.442237
Danbury Hospital,stand-alone imaging center,111 Osborne St,#3,Danbury,Connecticut,6810,203 739-4999,,,41.404639,-73.442237
THE HAROLD LEEVER REGIONAL CANCER CENTER,stand-alone imaging center,1075 Chase Prkwy,,Waterbury,Connecticut,6708,203-575-5501,,https://www.leevercancercenter.org/,41.541517,-73.080317
MID STATE MEDICAL CENTER,hospital-based,435 Lewis Ave,,Meriden,Connecticut,6451,203-694-5928,,https://midstatemedical.org/,41.549306,-72.801145
VA JAMAICA PLAIN,hospital-based,150 South Huntington Ave PETCE Department,In Basement,Boston,Massachusetts,2130,,,https://www.boston.va.gov/locations/Jamaica_Plain_.asp,42.327234,-71.110304
BOSTON MEDICAL CENTER,hospital-based,One Boston Medical Center Place,,Boston,Massachusetts,2118,,,https://www.bmc.org/radiology,42.334496,-71.073131
UPMC HORIZON-GREENVILLE HOSP,hospital-based,110 North Main St,,Greenville,Pennsylvania,16125,,,,41.411727,-80.373151
Saint Vincent Medical Oncology,hospital-based,2508 Myrtle St,,Erie,Pennsylvania,16502,,,https://www.ahn.org/locations.html/?utm_source=GMB&utm_medium=Local&utm_content=Facility&utm_campaign=5670,42.110788,-80.081068
Southern Tier Imaging,stand-alone imaging center,30 harrison HARRISON St,Suite 460,Johnson City,New York,13790,,,http://2014.stmri.com/,42.114874,-75.959841
Hudson Valley Hematology,stand-alone imaging center,159 Barnegate Rd,,Poughkeepsie,New York,12601,845 454-1942,,https://hudsonvalleycancercenter.com/,41.650003,-73.935327
Vassar Brothers Medical Center,hospital-based,1 Columbia St,,Poughkeepsie,New York,12601,,,,41.695192,-73.93586
THE HOSPITAL OF CENTRAL CONNECTICUT,hospital-based,201 North Mountain Rd,,Plainville,Connecticut,6062,860-224-5900,4749,https://thocc.org/locations/cancer-center,41.674784,-72.822354
HARTFORD HOSPITAL,hospital-based,80 Seymour St,,Hartford,Connecticut,6103,860-972-2831,,https://hartfordhospital.org/,41.754286,-72.679846
Saint Francis Hospital,hospital-based,114 Woodland St,,Hartford,Connecticut,6105,,,,41.773633,-72.69995
Dana-Farber Chestnut Hill,hospital-based,300 Boylston Street,Floors 3 & 4,Newton,Massachusetts,2459,617 632-3000,,https://www.dana-farber.org/about-us/locations/dana-farber-cancer-institute---chestnut-hill/?utm_source=google&utm_medium=organic&utm_content=chestnut,42.318818,-71.179942
Brigham and Women's Hospital,hospital-based,70 Francis St,,Boston,Massachusetts,2115,,,https://www.brighamandwomens.org/,42.335817,-71.10818
UPMC @ REGIONAL CANCER CENTER,stand-alone imaging center,2500 West Twelfth St,,Erie,Pennsylvania,16505,814-836-2642,,https://hillman.upmc.com/find/locations/erie-pa-medical,42.103814,-80.137014
UPMC Horizon - Shenango Valley,hospital-based,2200 Memorial Dr,,Farrell,Pennsylvania,16121,,,,41.210311,-80.469492
ROSWELL PARK CANCER INSTITUTE,stand-alone imaging center,Elm and Carlton St,,Buffalo,New York,14263,800-767-9355,,https://www.roswellpark.org/,42.898534,-78.864996
WINDSONG RADIOLOGY GROUP,stand-alone imaging center,55 Spindrift Drive,,Williamsville,New York,14221,716-631-2500,2152,https://windsongwny.com/radiology/,42.964466,-78.716797
River Radiology,stand-alone imaging center,45 Pine Grove Ave,,Kingston,New York,12401,845 340-4500,,,41.926842,-74.001833
Newton-Wellesley Hospital,hospital-based,2014 Washington St,,Newton,Massachusetts,2462,,,https://www.nwh.org/,42.330668,-71.247787
DANA FARBER CANCER INSTITUTE,hospital-based,450  Brookline Ave,,Boston,Massachusetts,2115,857-215-1613,,https://www.dana-farber.org/?utm_source=google&utm_medium=organic&utm_content=mainprofile&utm_campaign=googlemybusiness,42.337452,-71.10818
VA Western New York Healthcare System,hospital-based,3495 Bailey Ave,,Buffalo,New York,14215,,,https://www.va.gov/western-new-york-health-care/,42.9518,-78.812514
GREAT LAKES MEDICAL IMAGING,stand-alone imaging center,199 Park Club Ln,#300,Williamsville,New York,14221,716-836-4646,,https://www.glmi.com/,42.962745,-78.765243
UR Medicine Imaging ? East River Road,stand-alone imaging center,200 E River Rd,,Rochester,New York,14623,,,https://www.urmc.rochester.edu/imaging/locations.aspx,43.111989,-77.628017
RADNET @ BORG & IDE IMAGING,stand-alone imaging center,995 Senator Keating Blvd,Bldg  E Suite 100,Rochester,New York,14618,585-241-6401,,https://www.radnet.com/borg-and-ide/locations/clinton-crossings?utm_source=GMB&utm_medium=BII_Clinton_Main&utm_campaign=GMB_BII_Clinton,43.110988,-77.594357
UR Medicine Strong Memorial Hospital,hospital-based,601 Elmwood Ave,,Rochester,New York,14642,,,https://www.urmc.rochester.edu/,43.122517,-77.625645
University Radiology Associates,hospital-based,550 Harrison St,#125,Syracuse,New York,13202,,,https://www.upstate.edu/ura/,43.043574,-76.143773
Medical Imaging Center - Syracuse PET,stand-alone imaging center,5008 Brittonfield Pkwy,#100,East Syracuse,New York,13057,,,https://www.craimaging.com/medical-imaging-center-near-east-syracuse-ny/,43.103024,-76.054559
Rochester Regional Health Imaging Center,hospital-based,1255 Portland Ave,1st Floor,Rochester,New York,14621,,,https://www.rochesterregional.org/locations/rochester/rochester-general-imaging-center-northern-heights?y_source=1_OTkwMTEzNC03MTUtbG9jYXRpb24ud2Vic2l,43.188764,-77.584636
Faxton Campus St Luke's Healthcare,stand-alone imaging center,1676 Sunset Ave,,Utica,New York,13502,,,https://www.mvhealthsystem.org/imaging,43.09128,-75.258297
St. Peter's Hospital,hospital-based,315 S Manning Blvd,,Albany,New York,12208,,,https://www.sphp.com/,42.656158,-73.803499
ALBANY STRATTON VA MEDICAL CENTER,hospital-based,113 Holland St,Bldg #27,Albany,New York,12208,518-626-6341,,https://www.va.gov/albany-health-care/,42.650957,-73.773159
NYOH US ONCOLOGY ALBANY MED CTR,hospital-based,43 New Scotland Ave,,Albany,New York,12208,518-269-3075,,https://newyorkoncology.com/locations-directions/nyoh-at-albany-medical-center/,42.654083,-73.775962
Community Care Physicians PLLC,hospital-based,711 Troy Schenectady Rd,,Latham,New York,12110,,,https://www.communitycare.com/,42.758083,-73.777275
Beth Israel Deaconess Medical Center,hospital-based,330 Brookline Ave,,Boston,Massachusetts,2215,,,https://www.bidmc.org/,42.34006,-71.105272
MASS GENERAL HOSPITAL MGH,hospital-based,55 Fruit St Radio Pharmacy Receiving,#55,Boston,Massachusetts,2114,,,https://www.massgeneral.org/locations/massachusetts-general-hospital-main-campus,42.361797,-71.069721
MGH HOSPITAL,hospital-based,55 Fruit St,,Boston,Massachusetts,2114,,,,42.362919,-71.068747
Alliance - St. Mary's Hospital - Rao Pavilion,hospital-based,4950 NY-30,,Amsterdam,New York,12010,,,https://www.smha.org/locations/rao-outpatient-pavilion/,42.960901,-74.187574
Lahey Hospital and Medical Center,hospital-based,41 Mall Road,,Burlington,Massachusetts,1805,781-744-2675,,https://www.lahey.org/,42.484875,-71.20519
Mt Auburn Hospital,hospital-based,799 Concord Ave,,Cambridge,Massachusetts,2138,617-492-0705,,https://www.mountauburnhospital.org/locations/locations-profile/?id=378,42.392243,-71.155412
Wilton Medical Arts,stand-alone imaging center,"3040 NY-50,",,Saratoga Springs,New York,12866,,,,43.10265,-73.745149
Catholic Medical Center Community Services,hospital-based,100 McGregor St,,100 McGregor St,New Hampshire,3102,,,,42.991178,-71.474669
Dana-Farber Cancer Institute ? Merrimack Valley,stand-alone imaging center,5 Branch St,,Methuen,Massachusetts,1844,,,https://www.dana-farber.org/about-us/locations/dana-farber-cancer-institute---merrimack-valley/?utm_source=google&utm_medium=organic&utm_content=mvall,42.707157,-71.215308
Mass General/North Shore Center for Outpatient Car,hospital-based,102-104 Endicott St,,Danvers,Massachusetts,1923,,,,42.548481,-70.932867
Advanced Imaging At Bay Brook,stand-alone imaging center,22 Willowbrook Rd,,Queensbury,New York,12804,,,,43.343692,-73.653207
Rutland Regional Medical Center,hospital-based,160 Allen St,,Rutland,Vermont,5701,802 775-7111,,https://www.rrmc.org/locations/profile/rutland-regional-medical-center/,43.598335,-72.955099
Derry Imaging,stand-alone imaging center,6 Tsienneto Rd,Suite 100,Derry,New Hampshire,3038,,,https://www.derryimaging.com/,42.897478,-71.324076
DARTMOUTH HITCHCOCK MED CENTER,hospital-based,1 Medical Center Dr,,Lebanon,New Hampshire,3756,603-650-8445,,https://www.dartmouth-hitchcock.org/,43.675493,-72.272959
Terrebonne General Medical Center,hospital-based,8166 East Main St,,Houma,Louisiana,70360,,,https://www.tghealthsystem.com/,29.598543,-90.710235
Ochsner Medical Center - West Bank,hospital-based,2500 Belle Chasse Hwy,,Gretna,Georgia,70056,,,https://digital.ochsner.org/schedule-now-west-bank/?utm_source=YextGooglet&utm_medium=Yext&y_source=1_MTUyMDE4NzEtNzE1LWxvY2F0aW9uLndlYnNpdGU%3D,29.884229,-90.027549
West Jefferson Medical Center LCMC Health,hospital-based,1101 Medical Center Blvd,,Marrero,Louisiana,70072,,,https://www.wjmc.org/?utm_source=GMB&utm_medium=Yext&y_source=1_MTU4MzE4MzktNzE1LWxvY2F0aW9uLmdvb2dsZV93ZWJzaXRlX292ZXJyaWRl,29.892255,-90.094972
TOURO IMAGING CENTER,stand-alone imaging center,2929 Napoleon Ave,,New Orleans,Louisiana,70115,504 897-8600,,,29.939798,-90.102868
Thibodaux Regional Health System,hospital-based,602 N Acadia Road,,Thibodaux,Louisiana,70301,985-493-4756,,https://www.thibodaux.com/,29.781054,-90.805593
ALLIANCE-15106-TULANE UNIVERSITY HEALTH SCIENCES CENTER,hospital-based,1415 Tulane Ave,,New Orleans,Louisiana,70012,337-654-0996,,https://tulanehealthcare.com/service/urology,29.955783,-90.076283
University Medical Center New Orleans LCMC Health,hospital-based,2000 Canal St,,New Orleans,Louisiana,70112,,,https://www.lcmchealth.org/university-medical-center-new-orleans/,29.960568,-90.081466
SOUTHEAST LOUISIANA VA HEALTHCARE SYSTEM,hospital-based,2400 Canal St Nuclear Medicine Dept.,2ND FLOOR,New Orleans,Louisiana,70119,504-507-2000,62448,https://www.va.gov/southeast-louisiana-health-care/,29.962606,-90.084297
Ochsner Medical Center - New Orleans,hospital-based,1516 Jefferson Highway,,New Orleans,Louisiana,70121,504-842-3580,,,29.962256,-90.145644
East Jefferson General Hospital,hospital-based,4204 Houma Blvd,,Metairie,Louisiana,70006,504-503-6295,,https://ejgh.org/,30.014432,-90.181477
SIMONMED IMAGING - BRADENTON,stand-alone imaging center,6215 21ST Ave West,Suite A,Bradenton,Florida,34209,866-614-8555,,https://www.simonmed.com/locations/all/simonmed___park_south,27.480595,-82.624138
Partners Imaging Centers,stand-alone imaging center,1250 S Tamiami Trail,#101,Sarasota,Florida,34239,941-951-2100,,https://partnersimage.com/,27.321394,-82.530065
National Imaging Specialists,stand-alone imaging center,6600 66th Street North,Suite B,Pinellas Park,Florida,33781,727-544-1001,,https://www.nisnow.com/,27.832464,-82.729045
Akumin Clearwater,stand-alone imaging center,501 S Lincoln Ave,Suite 15,Clearwater,Florida,33756,727 446-6760,,https://akumin.com/?utm_source=Google&utm_medium=Yext&y_source=1_MTg1MDE1MDctNzE1LWxvY2F0aW9uLndlYnNpdGU%3D,27.960458,-82.785523
St. Anthony's PET/CT Center,stand-alone imaging center,1201 5th Ave N,100,SAINT PETERSBURG,Florida,33705,727 825-1758,,,27.777898,-82.651109
Akumin St Petersburg,stand-alone imaging center,4551 4th St N,,St. Petersburg,Florida,33703,727 525-3800,,https://akumin.com/?utm_source=Google&utm_medium=Yext&y_source=1_MTg1MDE1MTAtNzE1LWxvY2F0aW9uLndlYnNpdGU%3D,27.813685,-82.638268
Akumin Port Charlotte,stand-alone imaging center,2625 Tamiami Trail,,Port Charlotte,Florida,33952,941 235-4646,,https://akumin.com/?utm_source=Google&utm_medium=Yext&y_source=1_MTg1MDE1MDYtNzE1LWxvY2F0aW9uLndlYnNpdGU%3D,26.992103,-82.113851
RADIOLOGY REGIONAL CENTER - NAPLES,hospital-based,700 Goodlette Rd,,Naples,Florida,34102,239-936-4068,,https://radiologyregional.com/,26.156696,-81.790363
RADIOLOGY REGIONAL - FORT MYERS,hospital-based,3660 Broadway,,Fort Myers,Florida,33901,239-936-4068,,https://radiologyregional.com/,26.609699,-81.868101
TGH Imaging Powered by Tower,stand-alone imaging center,5539 Marine Pkwy,,Port Richey,Florida,34652,727 847-5122,,,28.234764,-82.721922
GenesisCare,hospital-based,4571 Colonial Blvd,100,Fort Myers,Florida,33916,239 322-5200,,,26.612404,-81.819124
GENESISCARE - FORT MEYERS,stand-alone imaging center,4571 Colonial Bvld,Suite 100,Fort Meyers,Florida,33966,239-322-5200,,https://www.genesiscare.com/us/our-locations/fort-myers-am5/,26.612404,-81.819124
"BAPTIST HOSPITAL OF MIAMI, MIAMI CANCER INSTITUTE",hospital-based,8900 N Kendall Dr Diagnostic Imaging,,Miami,Florida,33176,786-596-9596,,https://baptisthealth.net/locations/diagnostic-imaging/kendall-baptist-hospital-diagnostic-imaging,25.686708,-80.336803
National P.E.T Scan Dade,stand-alone imaging center,7867 N Kendall Dr,Suite #121,Miami,Florida,33156,305-455-3000,,,25.688855,-80.320604
Cleveland Clinic Weston,hospital-based,3100 Westin Rd,,Weston,Florida,33331,954 659-5000,,https://my.clevelandclinic.org/locations/directions/203-cleveland-clinic-florida-weston-hospital,26.081888,-80.364734
UNIVERSITY OF MIAMI SYLVESTER CANCER CENTER,hospital-based,1475 NW 12th Ave C146,,Miami,Florida,33136,305-243-5512,,https://umiamihealth.org/sylvester-comprehensive-cancer-center,25.788384,-80.214485
PET IMAGING INSTITUTE OF SOUTH FLORIDA - PEMBROKE,stand-alone imaging center,"603 N Flamingo Rd,",Suite 155,Permbroke Pines,Florida,33028,954-981-6668,,https://www.petimagingflorida.com/pembroke-pines/,26.012508,-80.310409
3T Radiology,hospital-based,300 West 41st Street,,Miami Beach,Florida,33140,305-532-7460,,https://www.3tradiology.com/,25.813435,-80.127242
Unique Imaging,stand-alone imaging center,18851 NE 29th Ave,Suite 103,Aventura,Florida,33180,305-890-1839,,https://www.uniqueimaging.com,25.950128,-80.141724
Akumin Aventura View,stand-alone imaging center,2999 NE 191st St,Suite 103,Aventura,Florida,33180,305 692-2222,,https://akumin.com/?utm_source=Google&utm_medium=Yext&y_source=1_MTgzMzIzOTctNzE1LWxvY2F0aW9uLndlYnNpdGU%3D,25.952688,-80.141724
3T Radiology Aventura,stand-alone imaging center,20803 Biscayne Blvd,Suite 103,Aventura,Florida,33180,786-665-8008,,https://www.3tradiology.com/,25.968508,-80.14312
Akumin Hollywood Hills,stand-alone imaging center,3800 Johnson St,Suite B,Hollywood,Florida,33021,954 964-3800,,https://akumin.com/?utm_source=Google&utm_medium=Yext&y_source=1_MTg1MDE0OTQtNzE1LWxvY2F0aW9uLndlYnNpdGU%3D,26.017935,-80.181491
PET IMAGING INSTITUTE OF SOUTH FLORIDA - HOLLYWOOD,stand-alone imaging center,1150 N 35th Ave,Suite 665,Hollywood,Florida,33021,954-686-6582,,https://www.petimagingflorida.com/hollywood/,26.02034,-80.179224
PET/CT Imaging Center of NorthWest Florida,stand-alone imaging center,1549 N 9th Ave,Suite 124,Pensacola,Florida,32504,850-478-6336,,http://www.pensacolapetct.com/,30.428398,-87.208595
Woodlands Radiation Oncology,hospital-based,4724 N Davis Hwy,,Pensacola,Florida,32503,,,,30.466005,-87.223186
Ascension Sacred Heart Hospital Emerald Coast,hospital-based,7720 US HWY 98,Suite 140,Miramar Beach,Florida,32459,850 278-3835,,https://healthcare.ascension.org/locations/florida/flpen/miramar-beach-ascension-sacred-heart-emerald-coast,30.3782565,-86.3058932
BayCare Outpatient Imaging,stand-alone imaging center,3003 W Dr Martin Luther King Jr Blvd,,Tampa,Florida,33607,813 870-4826,,,27.982659,-82.492218
TOWER RADIOLOGY - HABANA,stand-alone imaging center,4719 North Habana Ave,,Tampa,Florida,33614,813-874-7000,,https://towerradiologycenters.com/,27.987259,-82.488178
Akumin Plantation,stand-alone imaging center,8300 W Sunrise Blvd,,Plantation,Florida,33322,954 577-6000,,https://akumin.com/?utm_source=Google&utm_medium=Yext&y_source=1_MTgzMzIzMzMtNzE1LWxvY2F0aW9uLndlYnNpdGU%3D,26.148163,-80.260724
PET IMAGING INSTITUTE OF SOUTH FLORIDA - FORT LAUD,stand-alone imaging center,2122 W Cypress Creek Rd,Suite 210,Ft  Lauderdale,Florida,33309,954-981-6668,,https://www.petimagingflorida.com/fort-lauderdale/,26.201761,-80.171911
University of Miami - Deerfield Beach,hospital-based,1192 East Newport Center Drive,Room 106,Deerfield Beach,Florida,33442,954-571-0134,,,26.301083,-80.122183
Baptist Health Lynn Cancer Institute Boca Raton,hospital-based,701 NW 13th St,Floor 3,Boca Raton,Florida,33486,561 955-5966,,,26.362497,-80.102114
Ochsner Medical Center - Kenner,hospital-based,180 W. Esplanade Ave,,Kenner,Louisiana,70065,504-712-8836,,https://digital.ochsner.org/schedule-now-kenner-river/?utm_source=YextGooglet&utm_medium=Yext&y_source=1_MTUyMDE4MTEtNzE1LWxvY2F0aW9uLndlYnNpdGU%3D,30.024535,-90.270661
Ocean Springs Hospital - Singing River Health Syst,hospital-based,3109 Bienville Blvd,,Ocean Springs,Mississippi,39564,,,,30.414075,-88.780808
Akumin Tampa,stand-alone imaging center,5107 N Armenia Ave,Bldg B,Tampa,Florida,33603,813 637-2906,,https://akumin.com/?utm_source=Google&utm_medium=Yext&y_source=1_MTg1MDE1MTEtNzE1LWxvY2F0aW9uLndlYnNpdGU%3D,27.992488,-82.483955
Akumin Royal Palm,stand-alone imaging center,8110 Royal Palm Blvd,# 100,Coral Springs,Florida,33065,954 341-4200,,https://akumin.com/?utm_source=Google&utm_medium=Yext&y_source=1_MTg1MDE0OTYtNzE1LWxvY2F0aW9uLndlYnNpdGU%3D,26.256157,-80.234999
Akumin Wellington,stand-alone imaging center,3347 S State Rd 7,Suite 100,Wellington,Florida,33449,561 795-5558,,https://akumin.com/?utm_source=Google&utm_medium=Yext&y_source=1_MTg1MDE0OTgtNzE1LWxvY2F0aW9uLndlYnNpdGU%3D,26.628494,-80.206407
Akumin Sunrise Lake,stand-alone imaging center,7880 W Oakland Park Blvd,Suite 100/201,Sunrise,Florida,33351,954 634-5272,,https://akumin.com/?utm_source=Google&utm_medium=Yext&y_source=1_MzI3NTgzMTYtNzE1LWxvY2F0aW9uLndlYnNpdGU%3D,26.166131,-80.25535
Diagnostic Centers of America - Wellington,hospital-based,2565 S State Rd 7,,Wellington,Florida,33414,561 496-6935,,https://rayusradiology.com/locations/rayus-radiology-wellington/,26.642676,-80.206989
GENESISCARE - BOCA WEST,hospital-based,21020 STATE RD 7,Suite 100,Boca Raton,Florida,33428,561-883-8656,,https://www.genesiscare.com/us/our-locations/boca-raton-sb2/,26.363741,-80.202064
Diagnostic Centers of America,stand-alone imaging center,8142 Glades Rd,,Boca Raton,Florida,33434,561-994-8600,,https://www.dcamedical.com/,26.367202,-80.172772
DIAGNOSTIC CENTERS OF AMERICA Boynton Beach West,stand-alone imaging center,El Clair Medical Center 6080 Boynton Beach Blvd,Suite 140,Boynton Beach,Florida,33437,561 496-6935,,,26.527177,-80.13998
3T Radiology,hospital-based,4515 Wiles Rd,101,Coconut Creek,Florida,33073,954-686-2559,,https://www.3tradiology.com/,26.287438,-80.184008
Akumin Atlantis,hospital-based,"5051 S Congress Ave,",,Lake Worth,Florida,33461,561 795-5558,,https://akumin.com/?utm_source=Google&utm_medium=Yext&y_source=1_MTg1MDE0OTEtNzE1LWxvY2F0aW9uLndlYnNpdGU%3D,26.602996,-80.090114
Diagnostic Centers of America - West Palm Beach,hospital-based,1572 Palm Beach Lakes Blvd,#2,West Palm Beach,Florida,33401,561 496-6935,,https://rayusradiology.com/locations/rayus-radiology-west-palm-beach/,26.72466,-80.079961
TOWER RADIOLOGY - PALM BEACH GARDENS,stand-alone imaging center,11621  Kew Gardens Ave,Suite 101B,Palm Beach Gardens,Florida,33410,561-713-1030,,https://towerradiologycenters.com/,26.847845,-80.081025
DIAGNOSTIC CENTERS OF AMERICA - PALM BEACH GARDENS,stand-alone imaging center,3601 PGA BLVD,Suite 100,Palm Beach,Florida,33410,561 496-6935,,,26.845512,-80.090616
Thomas Medical Center,hospital-based,27961 US-98,,Daphne,Alabama,36526,,,https://www.infirmaryhealth.org,30.631931,-87.914652
Mobile Molecular Imaging,stand-alone imaging center,100 Memorial Hospital Dr.,Suite 1 E,Mobile,Alabama,36608,251-316-3868,,https://www.mobilemolecular.com/,30.68417,-88.131699
University of South Alabama Health,hospital-based,1660 Spring Hill Ave,,Mobile,Alabama,36604,251-445-8446,,,30.695266,-88.079138
Ascension Providence Cancer Center,hospital-based,6701 Airport Blvd,,Mobile,Alabama,36608,248 849-3000,,,30.678574,-88.197609
Infirmary Health,hospital-based,3290 Dauphin St,,Mobile,Alabama,36606,,,https://www.infirmaryhealth.org/,30.689976,-88.124606
Vymed Diagnostics Imaging,stand-alone imaging center,10010 Dale Mabry Hwy,Suite 160,Tampa,Florida,33618,813-264-7176,,https://www.nisnow.com/about-us,28.041444,-82.505824
TGH Imaging Powered by Tower,stand-alone imaging center,3350 Bell Shoals Rd,,Brandon,Florida,33511,,,,27.894665,-82.269914
SimonMed Imaging - Poinciana,stand-alone imaging center,875 Cypress Pkwy,,Poinciana,Florida,34759,,,,28.148273,-81.450176
iCARE Radiology,stand-alone imaging center,451 SW Bethany Dr #102,,Port Saint Lucie,Florida,34986,,,,27.31481,-80.385394
Orlando VA Healthcare System,hospital-based,13800 Veterans Way,,Orlando,Florida,32827,,,,28.36525,-81.274946
SIMONMED IMAGING - DOWNTOWN ORLANDO,stand-alone imaging center,2121 S Orange Ave,,Orlando,Florida,32806,407 514-1870,,,28.51812,-81.376159
Orlando Health Orlando Regional Medical Center,hospital-based,52 W Underwood St,,Orlando,Florida,32806,,,,28.526323,-81.378478
Orlando Health Cancer Institute,hospital-based,1400 S Orange Ave,1st floor PET/CT Suite,Orlando,Florida,32806,3218434125,,https://www.orlandohealth.com/services-and-specialties/orlando-health-cancer-institute/locations/lake-mary,28.526204,-81.377103
SimonMed Imaging - Ocoee,stand-alone imaging center,10125 W Colonial Dr,Suite 114,Ocoee,Florida,34761,866-614-8555,,,28.553103,-81.526085
SimonMed Ocoee II,stand-alone imaging center,10125 West Colonial Drive,STE 114,Ocoee,Florida,34761,407-788-2888,,,28.553103,-81.526085
SimonMed Imaging - Altamonte III,hospital-based,745 Orienta Ave #1161,,Altamonte Springs,Florida,32701,,,,28.661877,-81.363957
Lake Medical Imaging,stand-alone imaging center,801 E Dixie Ave # 104,,Leesburg,Florida,34748,,,,28.805992,-81.866524
Archbold Medical Center,hospital-based,"915 Gordon Ave. at, Mimosa Dr",,Thomasville,Georgia,31792,229 228-2000,,https://archbold.org/,30.825277,-83.972607
UF Health Shands Healthcare,hospital-based,1549 Gale Lemerand Dr,,Gainesville,Florida,32610,,,https://ufhealth.org/,29.63752,-82.349729
UNITY/US ONCOLOGY - OCALA ONCOLOGY,hospital-based,3130 SW 32nd Ave,,OCALA,Florida,34474,352 732-4032,,,29.155629,-82.174727
Lake Medical Imaging Brownwood,stand-alone imaging center,2955 Brownwood Blvd Suite 112,,The Villages,Florida,32163,,,,28.845788,-82.031872
Lake Medical Imaging Sharon Morse,stand-alone imaging center,1400 US-441 #510,,The Villages,Florida,32159,,,,28.950983,-81.957779
Precision Imaging Centers,stand-alone imaging center,1000 Plantation Island Dr S #1,,St. Augustine,Florida,32080,,,,29.863743,-81.295167
GENESIS CARE ORANGE PARK,stand-alone imaging center,2161 Kingsley Ave,#100,Orange Park,Florida,32073,904-276-2303,,https://www.genesiscare.com/us/our-locations/orange-park-jr2/,30.165144,-81.74238
Akumin Orange Park,stand-alone imaging center,2020 Professional Center Dr,32073,Orange Park,Florida,32073,904 272-2800,,https://akumin.com/?utm_source=Google&utm_medium=Yext&y_source=1_MTg1MDE0ODQtNzE1LWxvY2F0aW9uLndlYnNpdGU%3D,30.165789,-81.740542
Ackerman Cancer Center,hospital-based,10881 San Jose Blvd,,Jacksonville,Florida,32223,,,,30.178536,-81.627163
Precision Imaging Centers,stand-alone imaging center,7860 Gate Pkwy UNIT 123,,Jacksonville,Florida,32256,,,,30.235379,-81.517083
GENESIS CARE - JACKSONVILLE,stand-alone imaging center,7751 Baymeadows Rd East,Suite 102,Jacksonville,Florida,32256,904-562-4403,,https://www.genesiscare.com/us/our-locations/jacksonville-jr5/,30.233857,-81.509494
Mayo Clinic,hospital-based,4500 San Pablo Rd S,,Jacksonville,Florida,32224,,,,30.262792,-81.441461
Mary Bird Perkins Cancer Center - Covington,hospital-based,1203 S Tyler St,Suite 100,Covington,Louisiana,70433,,,https://marybird.org/location/covington/,30.468929,-90.114768
Ochsner St. Tammany Cancer Center,hospital-based,900 Ochsner Blvd,,Covington,Louisiana,70433,,,https://digital.ochsner.org/schedule-now-nsw/?utm_source=YextGooglet&utm_medium=Yext&y_source=1_MjQxNDkwMDItNzE1LWxvY2F0aW9uLndlYnNpdGU%3D,30.449821,-90.139334
Hattiesburg Clinic,hospital-based,415 S 28th Ave,,Hattiesburg,Mississippi,39401,601-268-5837,,https://www.hattiesburgclinic.com/,31.318244,-89.333441
Carmichael Imaging Center,hospital-based,4145 Carmichael Road,,Montgomery,Alabama,36106,334-387-1103,,https://www.baptistfirst.org/locations/diagnostics/carmichael-imaging-center,32.358607,-86.237762
Jackson Imaging Center,hospital-based,1825 Park Pl,,Montgomery,Alabama,36106,334 834-3671,,https://www.jacksonimagingcenter.com/,32.369118,-86.283818
Spencer Cancer Center,hospital-based,2501 Village Professional Dr,,Opelika,Alabama,36801,,,https://www.eastalabamahealth.org/find-a-service/cancer-care/,32.644711,-85.41314
Ackerman Cancer Center Amelia Island,hospital-based,1340 S 18th St,,Fernandina Beach,Florida,32034,,,,30.652066,-81.449142
Southeast Georgia Health System-Brunswick Campus,hospital-based,2415 Parkwood Dr,,Brunswick,Georgia,31520,912 466-7000,,https://www.sghs.org/locations/brunswick-campus/,31.1748322,-81.4843639
Trident PET/CT of Savannah,stand-alone imaging center,617 Stephenson Ave,Suite 101,Savannah,Georgia,31405,,,https://www.tridentpetct.com/,32.009752,-81.103014
MEDICAL UNIVERSITY OF SOUTH CAROLINA,hospital-based,171 ASHLEY AVE,Suite 390 PETCT,Charleston,South Carolina,29425,843-792-1607,,https://locations.muschealth.org/sc/charleston/171-ashley-ave-room-327?utm_source=Yext&utm_medium=Listings&utm_campaign=WebsiteClicksFacility,32.785286,-79.947406
Ralph H. Johnson VA Medical Center,hospital-based,109 Bee St,,Charleston,South Carolina,29401,,,https://www.va.gov/charleston-health-care/,32.78412,-79.954069
Southwest Mississippi Regional Medical Center,stand-alone imaging center,215 Marion Ave,,McComb,Mississippi,39648,601 249-5500,,https://www.smrmc.com/,31.250978,-90.474668
Anderson Regional Medical Center,hospital-based,2124 14th St,,Meridian,Mississippi,39301,601 227-7108,,https://www.andersonregional.org/,32.371555,-88.69961
The PET Center Navicent Health,hospital-based,800 1st St,#170,Macon,Georgia,31201,478-633-9159,,https://www.navicenthealth.org/service-center/pet-ct-center-navicent-health,32.831714,-83.634926
Memorial Health Meadows Hospital,hospital-based,1 Meadows Pkwy,,Vidalia,Georgia,30474,912 535-5555,,https://memorialhealth.com/locations/memorial-health-meadows/?utm_campaign=corp_listings_mgmt&utm_source=google&utm_medium=business_listing,32.207131,-82.377752
CANCER TREATMENT CENTERS OF AMERICA - ATLANTA,stand-alone imaging center,600 Celebrate Life Prkwy,,Newnan,Georgia,30265,866-391-5528,,https://www.cancercenter.com/locations/atlanta?invsrc=local_search_rioseo_atlanta_facility&t_ch=local_search&t_ctv=&utm_source=google&t_tac=website,33.384843,-84.757833
Bluffton Medical Campus,hospital-based,75 Baylor Dr,,Bluffton,South Carolina,29910,843 836-4262,,https://www.hiltonheadregional.com/services/diagnostic-imaging,32.278353,-80.874532
ROPER ST FRANCIS CANCER CENTER,stand-alone imaging center,2085 Henry Tecklenburg Dr,,Charleston,South Carolina,29414,843-402-1000,,https://www.rsfh.com/locations/cancer-center/,32.809641,-80.041463
Trident Medical Center,hospital-based,9313 Medical Plaza Dr,#101,North Charleston,South Carolina,29406,,,https://tridenthealthsystem.com/locations/trident-medical-center/,32.977833,-80.075242
X-Ray Associates at Santa Fe,stand-alone imaging center,490 W Zia Rd,A110,Santa Fe,New Mexico,87505,505-998-3096,,,35.646041,-105.953312
New Mexico Oncology Hematology Consultants LTD,stand-alone imaging center,4901 Lang Ave NE,,Albuquerque,New Mexico,87109,,,https://nmcancercenter.org/,35.173872,-106.590128
X-Ray Associates - El Camino,hospital-based,8020 Constitution Pl NE1,,Albuquerque,New Mexico,87110,,,https://xranm.com/locations/albuquerque/el-camino-imaging-center/,35.093642,-106.556037
UNMH Nuclear Medicine,hospital-based,2211 Lomas Blvd NE,,Albuquerque,New Mexico,87106,,,,35.088166,-106.617375
UNIVERSITY OF NEW MEXICO HOSPITAL UNMH NUCLEAR,hospital-based,2211 LOMAS BLVD NE,,ALBUQUERQUE,New Mexico,87106,505 272-2269,,,35.088166,-106.617375
Lovelace Medical Center,hospital-based,601 Dr Martin Luther King Jr Ave NE,,Albuquerque,New Mexico,87102,,,,35.086147,-106.639953
Kymera Independent Physicians,hospital-based,400 Military Heights Pl,,Roswell,New Mexico,88201,575 627-9500,,,33.421939,-104.527568
UCHealth Radiation Oncology - Memorial Hospital Ce,hospital-based,525 Bob Peters Grove Memorial Medical Building,,Colorado Springs,Colorado,80909,,,,38.841239,-104.799718
Rocky Mountain Cancer Centers - Colorado Springs,hospital-based,"2312 N. Nevada Ave.,",Suite 400,Colorado Springs,Colorado,80907,779-227-4864,,https://www.rockymountaincancercenters.com/locations/colorado-springs-penrose,38.86599,-104.820543
RMCC Colorado Springs,hospital-based,3027 N Circle Dr,Suite 120,Colorado Springs,Colorado,80909,719 577-2550,,,38.874399,-104.793574
Comanche County Memorial Hospital,hospital-based,3401 W Gore Blvd,,Lawton,Oklahoma,73505,580 355-8620,,https://www.ccmhhealth.com/,34.609365,-98.434525
UCHealth Memorial Hospital North,hospital-based,"4050 Briargate Pkwy,",,Colorado Springs,Colorado,80920,719 364-5000,,https://www.uchealth.org/locations/uchealth-memorial-hospital-north/,38.967042,-104.75492
UCHealth Memorial Hospital North,hospital-based,4050 Briargate Pkwy,,Colorado Springs,Colorado,80920,,,,38.967042,-104.75492
Mercy Hospital Oklahoma City,hospital-based,4401 McAuley Blvd,Suite 1400,Oklahoma City,Oklahoma,73120,,,https://www.mercy.net/practice/mercy-cancer-center-coletta/patient-family-resources/?utm_source=google&utm_medium=organic_search&utm_campaign=yext&utm,35.60572,-97.60168
Texas Oncology-Wichita Falls,hospital-based,5400 Kell W Blvd,,Wichita Falls,Texas,76310,,,https://www.texasoncology.com/cancer-centers/wichita-falls/wichita-falls/medical-oncology,33.872965,-98.578927
GENESISCARE - OKLAHOMA CITY NORTH,stand-alone imaging center,11100 Hefner Point Dr,Suite A,Oklahoma City,Oklahoma,73120,405-839-7340,,https://www.genesiscare.com/us/our-locations/oklahoma-city-lr6/,35.583106,-97.582774
SSM Health St. Anthony Hospital,hospital-based,535 N. W. 9th st,Suite 125,Oklahoma City,Oklahoma,73102,405-979-7817,,https://www.ssmhealth.com/locations/st-anthony-hospital,35.47791,-97.522825
GenesisCare Oklahoma City,hospital-based,111 Harrison Ave,Suite 104,Oklahoma City,Oklahoma,73104,,,https://www.genesiscare.com/us/our-locations/oklahoma-city-lp2/,35.473504,-97.510046
The University of Oklahoma Health,hospital-based,700 NE 13th St,,Oklahoma City,Oklahoma,73104,,,https://www.ouhealth.com/find-a-location/ou-health-university-of-oklahoma-medical-center/,35.481161,-97.501206
OKLAHOMA CITY VA MEDICAL CENTER,hospital-based,921 NE 13th St,,Oklahoma City,Oklahoma,73104,405-456-1000,,https://www.va.gov/oklahoma-city-health-care/,35.482908,-97.496385
OU Health ? Stephenson Cancer Center in OKC,hospital-based,800 NE 10th St,,Oklahoma City,Oklahoma,73104,405-271-8001,,https://www.ouhealth.com/find-a-location/ou-health-stephenson-cancer-center/,35.477308,-97.497484
Hays Medical Center,stand-alone imaging center,2220 Canterbury Dr,,Hays,Kansas,67601,,,https://www.kansashealthsystem.com/,38.878628,-99.298957
Robert J. Dole VA Medical Center,hospital-based,5500 E Kellogg Ave,,Wichita,Kansas,67218,316 685-2221,,,37.681347,-97.274727
PET IMAGING OF TULSA ION,stand-alone imaging center,6711 S. Yale,Suite 104,Tulsa,Oklahoma,74136,918-523-7200,,https://petimaging.us/,36.066019,-95.921435
ST. FRANCIS CANCER CENTER,hospital-based,11212 E 48th St,,Tulsa,Oklahoma,74146,918 556-3000,,,36.092867,-95.852934
OKLAHOMA CANCER SPECIALIST RESEARCH INSTITUTE,stand-alone imaging center,12697 East 51ST ST South,,Tulsa,Oklahoma,74146,918-505-3200,,https://ocsri.org/locations/ocsri-tulsa/,36.091423,-95.836217
GenesisCare - Muskogee,stand-alone imaging center,301 N 32nd St,,Muskogee,Oklahoma,74401,,,https://www.genesiscare.com/us/our-locations/muskogee-lr5/,35.758362,-95.403027
Highlands Oncology Group - Springdale,stand-alone imaging center,3901 Parkway Cir,Suite 100,Springdale,Arkansas,72762,479 936-9900,,https://highlandsoncology.com/,36.152399,-94.189943
Highlands Oncology,hospital-based,3232 N. Northhills Blvd,,Fayetteville,Arkansas,72703,479-587-4139,,https://highlandsoncology.com/,36.110413,-94.156415
GENESIS CARE - ROGERS AR,stand-alone imaging center,2526 South Pinnacle Hills Pkway,,Rogers,Arkansas,72758,479-271-8900,,https://www.genesiscare.com/us/our-locations/rogers-lr1/,36.310603,-94.187098
HIGHLANDS ONCOLOGY GROUP - ROGERS,stand-alone imaging center,808 South 52nd ST,,Rogers,Arkansas,72758,479-936-9900,,https://highlandsoncology.com/,36.32484,-94.187298
Mercy Hospital Joplin,hospital-based,100 Mercy Way,,Joplin,Missouri,64804,,,https://www.mercy.net/practice/mercy-hospital-joplin/?utm_source=google&utm_medium=organic_search&utm_campaign=yext&utm_term=Central&utm_content=websi,37.036547,-94.509759
Freeman Hospital East,hospital-based,932 E 34th St,,Joplin,Missouri,64804,417 347-1111,,,37.050705,-94.507183
The Martin Center,stand-alone imaging center,3901 S Fremont Ave,,Springfield,Missouri,65804,,,https://www.coxhealth.com/,37.142939,-93.273609
Mercy Hospital Springfield,hospital-based,1235 E Cherokee St,,Springfield,Missouri,65804,,,https://www.mercy.net/practice/mercy-hospital-springfield/?utm_source=google&utm_medium=organic_search&utm_campaign=yext&utm_term=Central&utm_content=,37.179919,-93.276171
Freeman Physician Group of Pittsburg,hospital-based,1201 E Centennial Drive,,Pittsburg,Pennsylvania,66762,620 231-0204,,https://www.freemanhealth.com/location/freeman-physician-group-of-pittsburg-oncology-services,37.410884,-94.70496
Arkansas Urology,stand-alone imaging center,1300 Center View Dr,,Little Rock,Arkansas,72211,,,https://arkansasurology.com/,34.741559,-92.40198
CENTRAL ARKANSAS RADIATION THERAPY INSTITUTE,stand-alone imaging center,8901 Carti Way,,Little Rock,Arkansas,72205,501-906-3000,,https://www.carti.com/,34.743626,-92.367816
UAMS - University of Arkansas for Medical Sciences,hospital-based,4301 W Markham St,,Little Rock,Arkansas,72205,,,,34.749955,-92.320121
CARTI Cancer Center North Little Rock,hospital-based,3400 Springhill Dr,,North Little Rock,Arkansas,72117,501 906-3000,,https://www.carti.com/locations/north-little-rock-treatment-facility/,34.786249,-92.219554
CARTI in Pine Bluff,hospital-based,5001 Bobo Rd,,Pine Vluff,Arkansas,71603,800 482-8561,,,34.176443,-92.041531
Genesis Cancer and Blood Institute ? Hot Springs,hospital-based,133 Harmony Park Circle,,Hot Springs,Arkansas,71913,501-624-7700,63819,https://www.genesiscancerblood.com/?utm_source=GMBSocialClimb&utm_medium=GenesisCancerandBloodInstitute,34.464029,-93.066913
Baptist Health Paducah,hospital-based,2705 Kentucky Ave,,Paducah,Kentucky,42003,270-575-2662,,https://www.baptisthealth.com/paducah/,37.07282,-88.630241
Barnes-Jewish Center for Advanced Medicine,hospital-based,5201 Midamerica Plz,,St. Louis,Missouri,63129,,,https://www.barnesjewish.org/Patients-Visitors/Locations-Directions/Center-for-Advanced-Medicine-South-County,38.483056,-90.356375
Jennie Stuart Medical Center,hospital-based,320 W. 18th St,,Hopkinsville,Kentucky,42240,,,https://www.jenniestuarthealth.org/,36.860956,-87.495368
Mercy South PET/CT Imaging,hospital-based,10050 Kennerly Rd,,"St, Louis",Missouri,63128,314-525-1748,,https://www.mercy.net/practice/mercy-imaging-services-south/?utm_source=google&utm_medium=organic_search&utm_campaign=yext&utm_term=East&utm_content=w,38.508291,-90.381365
North Alabama Medical Center,hospital-based,2111 Cloyd Boulevard,,Florence,Alabama,35630,256-768-8125,,https://namccares.com/,34.836891,-87.648363
TRISTAR CENTENNIAL MEDICAL CENTER,hospital-based,2300 Patterson St,,Nashville,Tennessee,37203,615-342-3520,,https://tristarhealth.com/locations/tristar-centennial/?utm_campaign=corp_listings_mgmt&utm_source=google&utm_medium=business_listing,36.153671,-86.810282
VANDERBILT UNIVERSITY MED CTR,hospital-based,1301  Medical Center DRRRB1,"RM 1276, PET Center",Nashville,Tennessee,37232,615-322-5000,,https://search.vanderbilthealth.com/locations/vanderbilt-clinic,36.142585,-86.801276
Premier Radiology Midtown,hospital-based,300 20th Ave N,,Nashville,Tennessee,37203,,,https://www.premierradiology.com/premier-radiology-tennessee-saint-thomas-midtown/,36.154862,-86.801359
SSM Health Good Samaritan Hospital - Mt. Vernon,hospital-based,1 Good Samaritan Way,,Mt Vernon,Illinois,62864,618 242-4600,,https://www.ssmhealth.com/locations/illinois/good-samaritan-hospital-mt-vernon?utm_id=sys-listings-1&linksource=sys_listing_links-gmb_listing&y_source=1_MjMyNTc1ODUtNzE1LWxvY2F0aW9uLndlYnNpdGU%3d,38.2972482,-88.9377575
Sumner Regional Medical Center OP Imaging,stand-alone imaging center,225 Big Station Camp Blvd,,Gallatin,Tennessee,37066,615-328-6500,,,36.357267,-86.537035
Decatur Health Imaging LLC,hospital-based,1123 16th Ave SE,,Decatur,Alabama,35601,256-350-6364,,https://decaturpetct.com/?utm_Source=gmblisting&utm_medium=Organic,34.589572,-86.967845
Mitchell Memorial Cancer Center,hospital-based,1020 Breckenridge Street,,Owensboro,Kentucky,42303,,,https://www.owensborohealth.org/locations/profile/mitchell-memorial-cancer-center,37.766654,-87.099645
Center for Advance Medicine,hospital-based,901 St. Mary's Drive,,EVANSIVILLE,Indiana,47714,,,,37.96496,-87.504726
Cookeville Regional Medical Center,hospital-based,1 Medical Center Blvd,,Cookeville,Tennessee,38501,931-783-2222,,https://www.crmchealth.org/,36.169474,-85.508439
Erlanger Medical Center,hospital-based,975 East Third St,,Chattanooga,Tennessee,37403,423-778-5800,,https://www.erlanger.org/,35.0482,-85.290757
Erlanger Hospital,hospital-based,975 East 3rd St,,Chattanooga,Tennessee,37403,423-778-2011,,https://www.erlanger.org/,35.0482,-85.290757
PRIME IMAGING,stand-alone imaging center,1301  mccallie Ave,,Chattanooga,Tennessee,37404,423-602-9111,,https://www.primeimaging.com/chattanooga-outpatient/?utm_source=gmb&utm_medium=organic,35.039277,-85.282028
CHI MEMORIAL HOSPITAL,hospital-based,2525 Desales Ave,,Chattanooga,Tennessee,37404,423-495-4029,,https://www.memorial.org/?utm_source=LocalSearch&utm_medium=Facility&utm_campaign=CHIMemorial&utm_term=CHIMemorialHospital-Chattanooga&y_source=1_MTQ1MjMyODAtNzE1LWxvY2F0aW9uLndlYnNpdGU%3D,35.042346,-85.259392
PROVISION IMAGING,stand-alone imaging center,1415  Old Weisgarber Rd,Suite 120,Knoxville,Tennessee,37909,865-684-2608,,https://provisionimaging.net/,35.950001,-84.022144
North Knoxville Medical Center,hospital-based,7565 Dannaher Dr,,Powell,Tennessee,37849,,,https://www.tennovanorthknoxville.com/?utm_campaign=gmb&utm_medium=organic&utm_source=local,36.053549,-83.997718
Tennova North Knoxville Medical Center,hospital-based,7540 Dannaher Dr,#300,Powell,Tennessee,37849,,,https://www.tennovanorthknoxville.com/?utm_campaign=gmb&utm_medium=organic&utm_source=local,36.053052,-83.995671
UT Medical Center,hospital-based,1926 Alcoa Hwy,,Knoxville,Tennessee,37920,,,https://www.utmedicalcenter.org/,35.934623,-83.948243
Thompson Cancer Survival Center,hospital-based,1915 White Ave,,Knoxville,Tennessee,37916,865 331-1678,,https://www.thompsoncancer.com/downtown/,35.956484,-83.936765
Greeneville Community Hospital,hospital-based,1420 Tusculum Blvd,,Greeneville,Tennessee,37745,,,,36.172819,-82.790661
Mission Hospital,hospital-based,509 Biltmore Ave,,Asheville,North Carolina,28801,,,https://missionhealth.org/member-hospitals/mission/?utm_campaign=corp_listings_mgmt&utm_source=google&utm_medium=business_listing,35.576583,-82.549222
Holston Valley Medical Center,hospital-based,130 W Ravine Rd,,Kingsport,Tennessee,37660,,,https://www.balladhealth.org/hospitals/holston-valley-medical-center,36.554095,-82.554259
Johnson City Medical Center,hospital-based,400 N State of Franklin Rd,,Johnson City,Tennessee,37604,,,https://www.balladhealth.org/hospitals/johnson-city-medical-center,36.307689,-82.384745
Bristol Regional Medical Center,hospital-based,1 Medical Park Blvd,,Bristol,Tennessee,37620,423 844-1121,,https://www.balladhealth.org/locations/hospitals/bristol-regional,36.585466,-82.256802
INVIVO COACH SOUTHWEST VIRGINIA CANCER CENTER,hospital-based,671 US-58 ALT,,Norton,Virginia,24273,276 679-5874,,,36.938788,-82.601951
Parker Adventist Hospital,hospital-based,9395 Crown Crest Blvd,,Parker,Colorado,80138,,,,39.548377,-104.770507
Centura Parker Adventist Hospital,hospital-based,9395 Crown Crest Blvd,,Parker,Colorado,80138,303 269-4000,,,39.548377,-104.770507
Rocky Mountain Cancer Center - Lone Tree,stand-alone imaging center,10107 Ridgegate Pkwy,Suite 200,Lone tree,Colorado,80124,779-227-4864,,https://www.rockymountaincancercenters.com/locations/lone-tree-skyridge?utm_source=local-listings&utm_medium=google&utm_campaign=Rio-Listings,39.529995,-104.870321
Highlands Ranch Hospital,hospital-based,1500 Park Central Dr,,Highlands Ranch,Colorado,80129,720 516-1000,,https://www.uchealth.org/locations/uchealth-highlands-ranch-hospital/,39.552099,-105.005246
"Ascension Medical Group VIA Christi, P.A.",stand-alone imaging center,1947 N Founders Cir,,Wichita,Kansas,67206,,,https://healthcare.ascension.org/locations/kansas/kswic/wichita-ascension-medical-group-via-christi-on-founders-circle?utm_campaign=gmb&utm_medium=org,37.719043,-97.19797
HARRY S. TRUMAN MEMORIAL VETERANS HOSPITAL,hospital-based,800 Hospital Dr,RMB112,Columbia,Missouri,65201,573-815-6414,,http://www.columbiamo.va.gov/,38.936485,-92.328942
University of Missouri Hospital,hospital-based,1030 Hitt St,,Columbia,Missouri,65212,,,https://precisionhealth.missouri.edu/,38.938639,-92.324918
SSM Health - St. Clare Hospital,hospital-based,1015 Bowles Ave,,Fenton,Missouri,63026,314-768-2510,,https://www.ssmhealth.com/locations/st-clare-hospital-fenton?utm_id=sys-listings-1&linksource=sys_listing_links-gmb_listing&y_source=1_MjMyNTc3NTEtNzE,38.527411,-90.476222
MISSOURI BAPTIST MEDICAL CENTER,hospital-based,3015 North Ballas Rd,,St Louis,Missouri,63131,314-996-5000,,https://www.missouribaptist.org/?utm_campaign=mbmc&utm_medium=organic&utm_source=google&utm_content=mbmc-listing,38.636223,-90.44652
ST. LUKE'S HOSPITAL,hospital-based,121 St Luke's Center Dr,,Chesterfield,Missouri,63017,314-205-6518,,https://www.stlukes-stl.com/,38.655078,-90.50936
Desloge Outpatient Center,hospital-based,121 St Luke's Center Dr,,Chesterfield,Missouri,63017,314 434-1500,,https://www.stlukes-stl.com/services/radiology/imaging-centers.html,38.655078,-90.50936
Mercy Hospital St. Louis,hospital-based,615 S New Ballas Rd,,St. Louis,Missouri,63141,,,https://www.mercy.net/practice/mercy-hospital-st-louis/?utm_source=google&utm_medium=organic_search&utm_campaign=yext&utm_term=East&utm_content=websit,38.644654,-90.44649
Barnes-Jewish West County Hospital,hospital-based,12634 Olive Blvd,,St. Louis,Missouri,63141,314 996-8000,,https://www.barnesjewishwestcounty.org/?utm_source=google&utm_medium=organic&utm_campaign=yext&utm_content=gmb,38.67629,-90.467557
MEMORIAL HOSPITAL SHILOH BJC HEALTHCARE,hospital-based,1414 Cross St,,Shiloh,Illinois,62269,618-607-1000,,https://www.bjcmedicalgroup.org/Find-a-Location/BJC-Medical-Group-Convenient-Care-at-Shiloh?utm_source=google&utm_medium=organic&utm_campaign=yext&utm_content=gmb,38.573534,-89.902815
Cancer Care Center of O'Fallon,hospital-based,321 Regency Park,,O'Fallon,Illinois,62269,,,https://cancercarespecialists.org/centers-clinics/cancer-care-center-of-ofallon/,38.582681,-89.935279
SSM Health Saint Louis University Hospital,hospital-based,1201 S. Grand Blvd,,St. Louis,Missouri,63104,314-257-8000,,https://www.ssmhealth.com/imaging,38.623953,-90.237715
SSM_SLUH,hospital-based,1212 S Spring Ave,,St. Louis,Missouri,63110,,,,38.62461,-90.241125
SSM Health - St. Mary's Hospital,hospital-based,6400 Clayton Rd,,Saint Louis,Missouri,63117,314-768-2500,,,38.633307,-90.309467
Ascension Medical Group - St. Vincent - Evansville,hospital-based,901 St Marys Dr,#300,Evansville,Indiana,47714,,,https://healthcare.ascension.org/locations/indiana/ineva/evansville-ascension-medical-group-st-vincent-evansville-heart-care?utm_campaign=gmb&utm_medi,37.96496,-87.504726
Deaconess Radiology Express,hospital-based,4087 Gateway Blvd,MOB 4,Newburgh,Indiana,47630,812-858-8863,,https://www.deaconess.com/Services/Imaging-Radiology/Locations,37.975473,-87.446974
UofL Health - Brown Cancer Center - Bluegrass,hospital-based,1460 Bluegrass Ave,,Louisville,Kentucky,40215,502-361-8496,,https://uoflhealth.org/locations/uofl-health-brown-cancer-center-bluegrass/,38.178976,-85.789128
University of Louisville Health,hospital-based,529 S. Jackson St.,,Louisville,Kentucky,40202,502-562-4673,,https://uoflbrowncancercenter.org/,38.248949,-85.74416
Baptist Health Louisville PET/CT,hospital-based,4003 Kresge Way,Suite 120,Louisville,Kentucky,40207,502-412-2725,,https://www.baptisthealth.com/louisville/services/primary-care/locations?utm_source=g-local&utm_medium=organic&utm_content=org-local-primary&utm_campa,38.239528,-85.640035
BAPTIST HEALTH LEXINGTON,hospital-based,100 Southland Dr,,Lexington,Kentucky,40503,859-260-5489,,https://www.baptisthealth.com/lexington/services/imaging-diagnostics/radiology-locations?utm_source=g-local&utm_medium=organic&utm_content=org-local-diagnostic&utm_campaign=lex-local-listing,38.011198,-84.517549
VA Medical Center - Lexington,hospital-based,1101 Veterans Dr,,Lexington,Kentucky,40502,,,https://www.va.gov/lexington-health-care/,38.029737,-84.506652
UNIVERSITY OF KENTUCKY - PET/CT,hospital-based,800 Rose St,PAV H Ground Floor C33,Lexington,Kentucky,40508,,,,38.0312,-84.507265
Centura Littleton Adventist Hospital,hospital-based,7700 S Broadway,,Littleton,Colorado,80122,303 730-8900,,https://www.centura.org/location/littleton-adventist-hospital?utm_source=yext&utm_medium=organic&utm_campaign=location&utm_term=LITTLETON_ADVENTIST_HO,39.576329,-104.986165
CHI Health Good Samaritan,hospital-based,10 East 31 Street,,Keasrney,Nebraska,68847,308 865-7100,,https://www.chihealth.com/good-samaritan.html?utm_source=LocalSearch&utm_medium=Facility&utm_campaign=CHIHealth&utm_term=CHIHealthGoodSamaritan&y_sour,40.707396,-99.081819
Ascension Via Christi Imaging in Manhattan,hospital-based,1133 College Ave,#110,Manhattan,Kansas,66502,,,https://healthcare.ascension.org/locations/kansas/kswic/manhattan-ascension-via-christi-imaging-in-manhattan?utm_campaign=gmb&utm_medium=organic&utm_s,39.191709,-96.598987
VA Eastern Kansas Health Care System,hospital-based,2200 SW Gage Blvd,,Topeka,Kansas,66622,,,https://www.va.gov/eastern-kansas-health-care/,39.026304,-95.72295
Stormont Vail Health Cotton O'Neil Cancer Center,hospital-based,1414 SW 8th Ave,,Topeka,Kansas,66606,,,https://www.stormontvail.org/location/cotton-oneil-cancer-center/,39.054596,-95.693401
The University of Kansas Health System St. Francis,hospital-based,1700 SW 7th St,,Topeka,Kansas,66606,,,https://kutopeka.com/,39.056556,-95.69591
Olathe Medical Center,hospital-based,20333 W 151st St,,Olathe,Kansas,66061,,,https://www.olathehealth.org/locations/olathe-medical-center/,38.852049,-94.822947
Saint Luke's South Hospital,hospital-based,12300 Metcalf Ave,,Overland Park,Kansas,66213,,,https://www.saintlukeskc.org/locations/saint-lukes-south-hospital?utm_campaign=website-link&utm_medium=organic&utm_source=local-listing,38.903832,-94.669228
Saint Luke's East Hospital,hospital-based,100 NE Saint Luke's Blvd,,Lee Summit,Missouri,64086,,,https://www.saintlukeskc.org/locations/saint-lukes-east-hospital,38.927944,-94.397211
RESEARCH MEDICAL CENTER,hospital-based,2316  East Meyer Blvd,,Kansas City,Missouri,64132,816-276-4067,,https://hcamidwest.com/locations/research-medical-center/?utm_campaign=corp_listings_mgmt&utm_source=google&utm_medium=business_listing,39.008586,-94.558453
"SAINT LUKE'S HOSPITAL , KANSAS CITY",hospital-based,4401 Wornall Rd,,Kansas City,Missouri,64111,816-932-2000,,https://www.saintlukeskc.org/locations/saint-lukes-hospital-kansas-city,39.047725,-94.590852
Centerpoint Medical Center,hospital-based,3889 SOUTH JACKSON DR,,Independence,Missouri,64057,816 698-8290,,,39.048294,-94.351616
Missouri Cancer Associates,hospital-based,"1705 East Broadway,",Suite 100,Columbia,Missouri,65201,,,https://missouricancer.com/locations/columbia/?utm_source=GMBSocialClimb&utm_medium=MissouriCancerAssociates,38.950411,-92.31315
SSM Health St. Joseph Hospital - Lake Saint Louis,hospital-based,"100 Medical Plaza, Lake",,St. Louis,Missouri,63367,636-498-7949,,https://www.ssmhealth.com/locations/st-joseph-hospital-lake-saint-louis?utm_id=sys-listings-1&linksource=sys_listing_links-gmb_listing&y_source=1_MjMy,38.802821,-90.775751
SSM Health - St. Joseph Hospital Lake St. Louis,hospital-based,400 Medical Plaza,,Lake St. Louis,Missouri,63367,314-768-2510,,https://www.ssmhealth.com/locations/st-joseph-hospital-lake-saint-louis,38.80274,-90.773431
SSM Health - St. Joseph Hospital St. Charles,hospital-based,1475 Kisker Rd,,St. Charles,Missouri,63301,314-768-2510,,https://www.ssmhealth.com/locations/st-joseph-hospital-st-charles,38.738971,-90.621215
BARNES JEWISH HOSPITAL CENTER FOR ADVANCED IMAGING,hospital-based,4921 Parkview Place,2nd Floor Nuc Med,St Louis,Missouri,63110,314-801-4036,,https://www.barnesjewish.org/Medical-Services/Radiology,38.635666,-90.264412
VA MEDICAL CENTER ST LOUIS JOHN COCHRAN DIV,hospital-based,915 N  Grand Blvd,,St Louis,Missouri,63106,314-289-7925,,https://www.stlouis.va.gov/,38.642236,-90.230533
Anderson Hospital,hospital-based,6800 IL-162,,Maryville,Illinois,62062,,,https://www.andersonhospital.org/,38.736847,-89.946226
Crossroads Cancer Center,stand-alone imaging center,905 Medical Park Dr,,Effingham,Illinois,62401,,,https://cancercarespecialists.org/centers-clinics/crossroads-cancer-center/,39.130404,-88.554794
Baptist Health Floyd Cancer Center,hospital-based,2210 Green Valley Rd,,New Albany,Indiana,47150,,,https://www.baptisthealth.com/floyd/services/cancer-care/?utm_source=g-local&utm_medium=organic&utm_content=org-local&utm_campaign=flo-local-listing,38.306002,-85.835746
Priority Radiology,stand-alone imaging center,807 Northgate Blvd,,New Albany,Indiana,47150,812-949-0807,,https://priorityradiology.com/,38.332739,-85.815583
Robley Rex VA Medical Center,hospital-based,800 Zorn Ave,,Louisville,Kentucky,40206,502-287-5152,,https://www.va.gov/louisville-health-care/,38.270307,-85.696992
Elizabeth Healthcare ? Edgewood Radiology,hospital-based,1 Medical Village Dr,,Edgewood,Kentucky,41017,859-301-2682,,https://www.stelizabeth.com/location/details/st-elizabeth-edgewood,39.013471,-84.563001
Cabell-Huntington Hospital,hospital-based,1340 Hal Greer Boulevard,,Huntington,West Virginia,25701,304 526-2000,,https://cabellhuntington.org/,38.4095335,-82.4270298
University of Cincinnati Medical Center,hospital-based,234 Goodman St,,Cincinnati,Ohio,45229,,,https://www.uchealth.com/university-of-cincinnati-medical-center/,39.137423,-84.503239
Cincinnati VA Hospital,hospital-based,3200 Vine St,,Cincinnati,Ohio,45220,513 861-3100,,,39.139524,-84.508209
CAMC Imaging Center - Kanawha City,hospital-based,3416 MacCorkle Ave,,Charleston,West Virginia,25304,,,https://www.camc.org/locations/camc-imaging-center-kanawha-city,38.32872,-81.599153
Beckley VA Medical Center,hospital-based,200 Veterans Ave,,Beckley,West Virginia,35801,304 255-2121,,,37.764591,-81.193502
UCHealth Anschutz Outpatient Pavilion - Anschutz M,hospital-based,1635 Aurora Ct  OP 1406,,Aurora,Colorado,80045,720 848-0000,,,39.742118,-104.840177
Mary Lanning Healthcare,hospital-based,715 N St Joseph Ave,,Hasting,Nebraska,68901,,,,40.590213,-98.387896
"Grand Island Imaging Center, LLC",stand-alone imaging center,3610 Richmond Cir,,Grand Island,Nebraska,68803,308 398-9282,,https://www.giimagingcenter.com/,40.922911,-98.386988
The University of Kansas Cancer Center,hospital-based,3901 Rainbow Blvd,,Kansas City,Kansas,66103,,,https://www.kuhealthpartners.org/,39.054989,-94.611409
Kansas City VA Medical Center,hospital-based,4801 Linwood Blvd,,Kansas City,Missouri,64128,,,https://www.va.gov/kansas-city-health-care/,39.063621,-94.526709
North Kansas City Hospital,hospital-based,2800 Clay Edwards Dr,,North Kansas City,Missouri,64116,,,https://www.nkch.org/location/north-kansas-city-hospital,39.150848,-94.550602
Saint Luke's North Hospital-Barry Road,hospital-based,5830 NW Barry Rd,,Kansas City,Missouri,64154,,,https://www.saintlukeskc.org/locations/saint-lukes-north-hospital-barry-road,39.248896,-94.648428
SSM Health - DePaul Hospital,hospital-based,12303 DePaul Dr,,Bridgeton,Missouri,63044,314-768-2510,,https://www.ssmhealth.com/locations/depaul-hospital-st-louis?utm_id=sys-listings-1&linksource=sys_listing_links-gmb_listing&y_source=1_MjMyNTc1OTMtNzE,38.750255,-90.434109
Sarah Bush Lincoln Health Center,hospital-based,1000 Health Center Dr,,Mattoon,Illinois,61938,,,https://www.sarahbush.org/,39.487911,-88.274098
Christie Clinic,stand-alone imaging center,3101 Fields S Dr,,Champaign,Illinois,61822,,,https://www.christieclinic.com/,40.076285,-88.312523
"Cancer Care Specialists of IL, Cancer Center of De",hospital-based,210 W McKinley Ave Suite 1,,Decatur,Illinois,62526,,,,39.869548,-88.958448
Carle Foundation Hospital,hospital-based,611 W Park St,,Urbana,Illinois,61801,,,https://carle.org/locations/carle-foundation-hospital,40.117877,-88.213867
Columbus Regional Health,hospital-based,2400 17th St,,Columbus,Indiana,47201,800 841-4938,,https://www.crh.org/,39.216901,-85.895468
COMMUNITY CANCER CENTER SOUTH,stand-alone imaging center,1440 East Country Line Rd,,Indianapolis,Indiana,46227,317-497-2878,,https://www.ecommunity.com/locations/community-cancer-center-south,39.639687,-86.134554
Good Samaritan Western Ridge,hospital-based,6949 Good Samaritan Dr,,Cincinnati,Ohio,45247,866-533-4296,,https://www.trihealth.com/hospitals-and-practices/good-samaritan-western-ridge/,39.203364,-84.669912
Good Samaritan Hospital,hospital-based,375 Dixmyth Ave,,Cincinnati,Ohio,45220,330-451-4244,,https://www.trihealth.com/hospitals-and-practices/good-samaritan-hospital/?utm_medium=organic&utm_source=google_business&utm_campaign=cincinnati&utm_c,39.139678,-84.520089
CINCINNATI PET SCAN,stand-alone imaging center,4777 E. Gilbraith Rd,1ST Floor,Cincinnati,Ohio,45236,513-791-9959,,http://www.cincinnatipetscan.com/,39.205981,-84.381031
Bethesda North Hospital - Harold and Eugenia,hospital-based,10506A Montgomery Rd,,CINCINNATI,Ohio,45242,,,,39.250717,-84.340483
Blue Ash Nuclear Medicine,stand-alone imaging center,4743 Cornell Rd,,Cincinnati,Ohio,45241,513-561-3793,,https://drpretorius.com/,39.269209,-84.375795
Adena Health System,hospital-based,272 Hospital Rd,,CHILLICOTHE,Ohio,45601,,,,39.396235,-82.968339
Fairfield Medical Center,hospital-based,2405 N Columbus St,,Lancaster,Ohio,43130,877 688-6122,,,39.740709,-82.634586
Belpre Medical Center,stand-alone imaging center,807 Farson St,Suite 102,Belpre,Ohio,45714,740 374-1400,,,39.28306,-81.613526
MEMORIAL HEALTH SYSTEM,hospital-based,1106  Colegate Dr,,Marietta,Ohio,45750,740-374-1400,,https://mhsystem.org/selbygeneralhospitalcampus,39.440461,-81.444465
Mount Carmel ? West,hospital-based,793 W State St,,Columbus,Ohio,43222,614 234-7400,,,39.957399,-83.021153
Grant Medical Center,hospital-based,111 S Grant Ave,,Columbus,Ohio,43215,614 566-9000,,https://www.ohiohealth.com/locations/hospitals/grant-medical-center?utm_source=yext&utm_medium=listings&utm_campaign=websiteclicksfacility,39.961031,-82.990961
UCHealth Imaging - Cherry Creek,stand-alone imaging center,100 Cook St,,Denver,Colorado,80206,,,,39.718194,-104.947145
Centura Porter Adventist Hospital,hospital-based,2525 S DOWNING ST,,Denver,Colorado,80210,303 778-1955,,,39.67057,-104.974572
ADVANCED MEDICAL IMAGING,stand-alone imaging center,7601 Pioneers Blvd,,Lincoln,Nebraska,68506,402-484-6677,,https://amimaging.com/,40.769155,-96.616469
CANCER PARTNERS OF NEBRASKA,stand-alone imaging center,201 South 68th Place,,Lincoln,Nebraska,68510,402-420-7000,,https://cancerpartners.com/,40.811804,-96.628323
Blessing Hospital,hospital-based,1005 Broadway St,,Quincy,Illinois,62301,217 223-1200,,,39.937038,-91.399544
Quincy Medical Group Cancer Institute,hospital-based,3301 Broadway St,,Quincy,Illinois,62301,,,,39.936686,-91.362667
SPRINGFIELD CLINIC,hospital-based,1025 South 6th St,,Springfield,Illinois,62703,217-528-7541,14215,https://www.springfieldclinic.com/our-locations/springfield-clinic-main-campus-west,39.791021,-89.647899
Memorial Medical Center -  IL,hospital-based,747 North Rutledge,,Springfield,Illinois,62781,,,,39.809304,-89.658577
HSHS St. John's Hospital,hospital-based,800 E Carpenter St,,Springfield,Illinois,62769,,,https://www.hshs.org/stjohns?utm_source=gmb&utm_medium=Yext,39.804687,-89.645935
Illinois Cancer Care Bloomington,stand-alone imaging center,3105 Magory Dr,,Bloomington,Illinois,61704,,,https://illinoiscancercare.com/,40.489021,-88.917549
Gibson Area Hospital,hospital-based,1120 N Melvin St,,Gibson City,Illinois,60936,217 784-4251,,https://www.gibsonhospital.org/home,40.478528,-88.370218
HENDRICKS REGIONAL HEALTH,hospital-based,8244 US Highway 36,Suite 110,Avon,Indiana,46123,317-754-3523,,https://www.hendricks.org/avon-campus,39.764669,-86.377824
Witham Health Services,hospital-based,2605 N Lebanon St.,,Lebanon,Indiana,46052,765-485-8360,,https://www.witham.org/,40.077091,-86.473626
"Unity Healthcare, LLC dba InnerVision Advanced Med",stand-alone imaging center,3801 Amelia Ave,,Lafayette,Indiana,47909,765 447-7447,,https://www.unityhc.com/specialty/radiology/,40.398081,-86.836378
IU Health Arnett Cancer Center - Lafayette,hospital-based,420 N 26th St,,Lafayette,Indiana,47904,,,https://iuhealth.org/find-locations/iu-health-arnett-cancer-center-420-n-26th-st?utm_source=Google&utm_medium=Yext&y_source=1_MTE2NzE5NDEtNzE1LWxvY2F0,40.419772,-86.867904
RICHARD L ROUDEBUSH VA MEDICAL CENTER,hospital-based,1481 West 10th St,,Indianapolis,Indiana,46202,317-988-2494,,https://www.indianapolis.va.gov/,39.778112,-86.187254
IU Simon Cancer Center,hospital-based,1030 West Michigan Street,,Indianapolis,Indiana,46202,317-948-8459,,https://iuhealth.org/,39.774962,-86.177841
IU Health Methodist Hospital,hospital-based,1701 N Senate Ave,,Indianapolis,Indiana,46202,,,https://iuhealth.org/find-locations/iu-health-methodist-hospital?utm_source=Google&utm_medium=Yext&y_source=1_MTE5NDI0MjMtNzE1LWxvY2F0aW9uLmdvb2dsZV93,39.789788,-86.163022
Ascension St. Vincent Hospital Indianapolis,hospital-based,2001 W 86th St,,Indianapolis,Indiana,46260,317 338-2345,,,39.90908,-86.195835
IU Health Joe & Shelly Schwarz Cancer Center,hospital-based,11645 N Illinois St,,Carmel,Indiana,46032,,,https://iuhealth.org/find-locations/iu-health-schwarz-cancer-center-11645-n-meridian-st?utm_source=Google&utm_medium=Yext&y_source=1_MTUwMTIwNzgtNzE1L,39.958058,-86.159975
Meridian North Imaging Center,stand-alone imaging center,12188 A N. Meridian St.,Suite,Carmel,Indiana,46032,317-715-9999,,https://www.northwestradiology.com/locations/meridian-street-north/,39.967012,-86.158802
COMMUNITY CANCER CENTER NORTH,hospital-based,7979 Shadeland Ave,,Indianapolis,Indiana,46250,317-621-4431,,https://www.ecommunity.com/locations/community-cancer-center-north,39.899829,-86.044486
University of Cincinnati ? West Chester Hospital,hospital-based,7690 Discovery Dr,,West Chester,Ohio,45069,513 475-8867,,,39.360969,-84.366938
Greater Dayton Cancer Center,stand-alone imaging center,3120 Governor's Place Blvd,,Kettering,Ohio,45409,937-425-8077,,https://www.daytonphysicians.com/,39.705801,-84.199265
DAYTON VAMC,hospital-based,4100 West Third St,,Dayton,Ohio,45417,937-268-6511,,https://www.va.gov/dayton-health-care/,39.73881,-84.2641
Miami Valley Hospital South Campus,hospital-based,2400 Miami Valley Dr,,Centerville,Ohio,45459,937 438-2400,,,39.652413,-84.114088
OhioHealth Doctors Hospital,hospital-based,5100 West Broad Street,,Columbus,Ohio,43228,614 544-1000,,https://www.ohiohealth.com/locations/hospitals/doctors-hospital?utm_source=yext&utm_medium=listings&utm_campaign=websiteclicksfacility,39.952738,-83.13734
\Mount Carmel ? East,hospital-based,6001 E Broad St,,Columbus,Ohio,43213,614-234-7400,,,39.977112,-82.844453
Zangmeister Cancer Center,hospital-based,3100 Plaza Properties Blvd,,Columbus,Ohio,43219,,,,40.002581,-82.925449
Banner Imaging Greeley,stand-alone imaging center,2001 70th Ave,Suite 102,Greeley,Colorado,80634,970 810-6070,,https://www.bannerhealth.com/locations/greeley/banner-imaging-70th?y_source=1_MTYyMzUyMDEtNzE1LWxvY2F0aW9uLndlYnNpdGU%3d,40.406533,-104.793528
UNITY/US ONCOLOGY - UCHealth Longs Peak Hospital,hospital-based,1760 E KEN PRATT BLVD,,LONGMONT,Colorado,80504,720 718-7000,,,40.1623,-105.056563
PET Imaging of Northern Colorado,stand-alone imaging center,1915 Wilmington Dr,Suite 101,Fort Collins,Colorado,80528,970-204-0202,,https://petimaging.us/,40.519538,-105.042728
Good Samaritan Medical Center,hospital-based,340 Exempla Cir,,Lafayette,Colorado,80026,303 673-1600,,https://www.sclhealth.org/locations/cancer-centers-of-colorado/?y_source=1_MTQ4NjY0MDEtNzE1LWxvY2F0aW9uLndlYnNpdGU%3D,39.96944,-105.088173
Rocky Mountain Cancer Center - Midtown,hospital-based,1800 North Williams St,Suite 100,Denver,Colorado,80218,779-227-4864,,https://www.rockymountaincancercenters.com/locations/denver-midtown,39.74519,-104.965627
Saint Joseph Hospital,hospital-based,1375 E 19th Ave,,Denver,Colorado,80218,303 812-2000,,,39.7463,-104.971843
Cheyenne Radiology Group,stand-alone imaging center,2003 Bluegrass Circle,,Cheyenne,Wyoming,82009,307 634-7711,,https://www.cheyrad.com/about-us/,41.158236,-104.7919527
UROLOGY CANCER CENTER,stand-alone imaging center,17607 Gold Plaza,,Omaha,Nebraska,68130,402-991-8468,,https://www.gucancer.com/,41.234721,-96.189868
NEBRASKA CANCER SPECIALISTS,stand-alone imaging center,17201 Wright St,Suite 203,Omaha,Nebraska,68130,402-334-4773,,https://nebraskacancer.com/,41.231291,-96.183112
Methodist Hospital,hospital-based,8303 Dodge St,,Omaha,Nebraska,68114,,,https://bestcare.org/locations/methodist-hospital?utm_source=search&utm_medium=organic&utm_campaign=listings,41.25909,-96.040954
University Medical Center - Bergan Mercy,hospital-based,7500 Mercy Rd,,Omaha,Nebraska,68124,,,https://www.chihealth.com/en/location-search/creighton-bergan.html?utm_source=LocalSearch&utm_medium=Facility&utm_campaign=CHIHealth&utm_term=CHIHealt,41.239547,-96.030896
Nebraska Medical Center,hospital-based,4400 Emile St,,Omaha,Nebraska,68105,,,,41.25447,-95.977664
UnityPoint Health Des Moines,hospital-based,1200 Pleasant St,,Des Moines,Iowa,50309,,,https://www.unitypoint.org/desmoines/iowa-methodist-medical-center.aspx?utm_source=gmb&utm_medium=web&utm_campaign=brandify,41.589132,-93.636023
MERCY ONE WEST LAKES CANCER CENTER,stand-alone imaging center,12495 University Ave,Suite 210,Clive,Iowa,50325,515-358-9500,,https://www.mercyone.org/location/mercyone-clive-cancer-center,41.601439,-93.791059
COMMONSPIRIT - MERCY ONE DES MOINES MEDICAL CENTER,hospital-based,411 Laurel St,Suite A200,Des Moines,Iowa,50314,515-247-4372,,https://www.mercyone.org/location/mercyone-des-moines-cancer-center,41.597817,-93.622809
University of Iowa Hospitals and Clinics,hospital-based,200  Hawkins Dr,,Iowa City,Iowa,52242,,,https://uihc.org/,41.660505,-91.548463
VA MEDICAL CENTER - IOWA,hospital-based,601 Highway,6,West Iowa City,Iowa,52246,319-338-0581,,https://www.va.gov/iowa-city-health-care/,41.663699,-91.547688
OSF St. Mary Medical Center,hospital-based,3333 N. Seminary St,,Galesburg,Illinois,61401,309 344-3161,,https://www.osfhealthcare.org/st-mary/services/diagnostics/pet-ct/,40.9870701,-90.3597578
"Advanced Imaging Center, LLC",stand-alone imaging center,615 Valley View Dr,Unit 101,Moline,Illinois,61265,309 743-0445,,https://www.qcimaging.com/,41.473115,-90.529395
Genesis Imaging Center,stand-alone imaging center,1970 E 53rd St,,Davenport,Iowa,52807,563 421-9729,,https://www.genesishealth.com/facilities/location-public-profile/imaging-center-53rd-street/,41.575153,-90.548607
Illinois Cancer Care PC,hospital-based,8940 Wood Sage Rd,,Peoria,Illinois,61615,,,https://illinoiscancercare.com/,40.795247,-89.664942
UNITYPOINT HEALTH METHODIST,hospital-based,112 CRESCENT AVE,,PEORIA,Illinois,61606,309 672-4144,,,40.659482,-89.582374
OSF Saint Francis Medical Center,hospital-based,530 NE Glen Oak Ave,,Peoria,Illinois,61637,,,https://www.osfhealthcare.org/saint-francis/,40.701983,-89.590574
Carle Cancer Institute,hospital-based,407 E. Vernon Ave.,,Normal,Illinois,61761,309-451-2278,,https://carle.org/services/institutes/cancer-center,40.503866,-88.976426
Ascension St. Vincent Kokomo,hospital-based,1907 W Sycamore St,,Kokomo,Indiana,46901,765 456-5611,,https://www.stvincent.org/notfound?item=/st-joseph/&user=extranet%5CAnonymous&site=ININD,40.486358,-86.156894
COMMUNITY HOWARD REGIONAL HEALTH,hospital-based,3500 South Lafountain St,,Kokomo,Indiana,46902,765-776-5700,,https://www.ecommunity.com/locations/community-howard-regional-health,40.446841,-86.126157
Hyatt Imaging,hospital-based,450 N Hyatt St,,Tipp City,Ohio,45371,937 499-7364,,,39.965864,-84.179489
Lima Memorial Health Systems,hospital-based,1001 Bellefontaine Ave,,Lima,Ohio,45804,800-500-4014,,https://www.limamemorial.org/,40.735688,-84.087515
Blanchard Valley Hospital,hospital-based,1900 S Main St,,Findlay,Ohio,45840,,,,41.017726,-83.651467
Blanchard Valley,hospital-based,15900 Medical Dr S,,Findlay,Ohio,45840,419 423-5323,,https://www.bvhealthsystem.org/services/outpatient-services/easternwoods-outpatient,41.060078,-83.574792
OhioHealth Mansfield Hospital and Emergency Department,hospital-based,335 Glessner Ave,,Mansfield,Ohio,44903,419 526-8000,,https://www.ohiohealth.com/locations/hospitals/mansfield-hospital?utm_source=yext&utm_medium=listings&utm_campaign=websiteclicksfacility,40.7526289,-82.5290683
Wooster Community Hospital,hospital-based,1761 Beall Ave,,Wooster,Ohio,44691,,,https://www.woosterhospital.org/,40.820911,-81.931401
Ivinson Memorial Hospital,hospital-based,255 N 30th St,,Laramie,Wyoming,82072,307 742-2141,,https://www.ivinsonhospital.org/,41.3129868,-105.5565052
Rocky Mountain Cancer Center - Boulder,hospital-based,4715 Arapahoe Ave,100,Boulder,Colorado,80303,779-227-4864,,https://www.rockymountaincancercenters.com/locations/boulder,40.015168,-105.236897
JUNE NYLEN CANCER CENTER,stand-alone imaging center,230 Nebraska St,,Sioux City,Iowa,51101,712-252-0088,,https://www.nylencancercenter.com/,42.492562,-96.402661
McFarland Clinic,stand-alone imaging center,1215 Duff Ave,,Ames,Iowa,50010,,,https://www.mcfarlandclinic.com/?utm_medium=organic&utm_source=google+my+business&utm_campaign=mcf_ames_1215duff-main,42.033656,-93.612019
Allen Memorial,hospital-based,1825 Logan Ave,,Waterloo,Iowa,50703,319 235-3941,,https://carbonhealth.com/coronavirus/covid-19-testing-centers/iowa,42.526651,-92.339564
NORTHWESTERN MEDICINE KISHWAUKEE HOSPITAL,hospital-based,1 Kish Hospital Dr,,Dekalb,Illinois,60115,815-748-2975,,https://www.nm.org/locations/kishwaukee-hospital?utm_source=yext&utm_medium=other+location&utm_campaign=online+listings&y_source=1_ODIyOTg4Mi03MTUtbG9jYXRpb24uZ29vZ2xlX3dlYnNpdGVfb3ZlcnJpZGU%3D,41.960658,-88.721786
Duly Health and Care Joliet,stand-alone imaging center,2614 Jefferson St,,Joliet,Illinois,60435,,,,41.520972,-88.147785
Joliet Oncology-Hematology Associates Ltd.,stand-alone imaging center,2614 W Jefferson St,,Joliet,Illinois,60435,,,https://www.dulyhealthandcare.com/joha,41.520972,-88.147785
Silver Cross Hospital,hospital-based,1900 Silver Cross Blvd,,New Lenox,Illinois,60451,815-300-7173,,https://www.silvercross.org/?utm_source=SCH-HOSPITAL&utm_campaign=Local-Listings&utm_medium=Google-My-Business,41.544472,-87.982858
FUTURE DIAGNOSTICS GROUP NEW LENOX,stand-alone imaging center,672 Cedar Crossing Dr,Suite 3,New Lenox,Illinois,60451,815-730-3344,,https://futurediagnosticgroup.com/,41.543272,-87.980717
Duly Health and Care in Tinley Park,stand-alone imaging center,17495 S. La Grange Rd,,Tinley Park,Illinois,60487,630-545-7880,,https://www.dulyhealthandcare.com/location/17495-south-la-grange-road-tinley-park,41.573132,-87.850755
Ingall's Memorial Hospital,hospital-based,6701 W. 159th St.,,Tinley Park,Illinois,60477,708 915-5630,,https://www.uchicagomedicine.org/find-a-location/uchicago-medicine-at-ingalls-harvey,41.602129,-87.781298
NORTHWESTERN MEDICINE PALOS IMAGING,hospital-based,15300 West Ave,,Orland Park,Illinois,60462,708-226-2502,,https://www.nm.org/locations/diagnostic-imaging-orland-park?utm_source=yext&utm_medium=gmb+location&utm_campaign=online+listings&y_source=1_MjM3NzYyMDYtNzE1LWxvY2F0aW9uLmdvb2dsZV93ZWJzaXRlX292ZXJyaWRl,41.611202,-87.865851
Community Diagnostic Center,stand-alone imaging center,10020 Don S. Powers Dr,,Munster,Indiana,46321,219-703-1752,,https://www.comhs.org/,41.530138,-87.511499
INDIANA REGIONAL IMAGING CENTER,hospital-based,7891 Broadway,Suite A,Merillville,Indiana,46410,219-793-9655,,https://indianaregionalimg.com,41.475866,-87.335191
Affiliated Oncology Imaging,hospital-based,10604 SW Hwy,Suite 200,Chicago Ridge,Illinois,60415,,,https://aocancer.com/locations-physicians/locations/millenium-medical-center-chicago-ridge?utm_campaign=Rio-Listings&utm_source=local-listings&utm_med,41.699611,-87.79616
Porter Hospital LLC,hospital-based,85 E U.S. Hwy 6,,Valparaiso,Indiana,46383,,,https://www.nwhealthporter.com/?utm_campaign=gmb&utm_medium=organic&utm_source=local,41.553104,-87.048781
St. Mary Medical Center,hospital-based,300 W. 61st Ave.,,Hobart,Indiana,46342,219-703-2273,,https://www.comhs.org/,41.511413,-87.262804
Michiana Hematology Oncology P.C.,hospital-based,1668 S  US Hwy,421,Westville,Indiana,46391,,,https://michianahematologyoncology.com/,41.576732,-86.898968
Memorial Hospital  of South Bend,hospital-based,615 N Michigan St,,South Bend,Indiana,46601,,,https://locations.beaconhealthsystem.org/in/south-bend/memorial-hospital,41.683704,-86.251961
GOSHEN HEALTH,hospital-based,200 High Park Ave,,Goshen,Indiana,46526,574-364-2400,,https://goshenhealth.com/,41.563367,-85.830546
Elkhart Clinic - Main Office,stand-alone imaging center,303 S Nappanee St,,Elkhart,Indiana,46514,574 296-3200,,https://www.elkhartclinic.com/,41.6820982,-86.0042555
Michiana Hematology Oncology,hospital-based,5340 Holy Cross Pkwy,,Mishawaka,Indiana,46545,,,https://michianahematologyoncology.com/,41.708737,-86.169692
Cameron Memorial Community Hospital,hospital-based,416 E Maumee St,,Angola,Indiana,46703,,,https://www.cameronmch.com/,41.634211,-84.99496
AHI - LAKELAND HLTH PRK REG HOSP,hospital-based,3900 HOLLYWOOD RD,MOBILE PET UNIT,ST. JOSEPH,Michigan,49085,269 556-2800,,,42.047596,-86.45893
Toledo Clinic Radiology & Laboratory,stand-alone imaging center,1200 Medical Ctr Pkwy,Suite 1300,Maumee,Ohio,43537,419 479-5935,,,41.560943,-83.67333
Bon Secours Mercy Health Perrysburg Hospital,hospital-based,12623 Eckel Junction Rd,,Perrysburg,Ohio,43551,,,https://www.mercy.com/locations/hospitals/toledo/mercy-health-perrysburg-hospital?utm_source=local-listings&utm_medium=organic&utm_content=website_lin,41.535159,-83.63796
UNIVERSITY OF TOLEDO MEDICAL CENTER,hospital-based,3000 Arlington Ave,,Toledo,Ohio,43623,419-383-3936,,http://utmc.utoledo.edu/,41.61669,-83.615844
ProMedica Flower Hospital,hospital-based,5200 Harroun Rd,,Sylvania,Ohio,43560,419-291-3000,,https://www.promedica.org/location/promedica-flower-hospital?utm_campaign=reputation-management&utm_segment=gmb_listing-link&utm_source=google&utm_med,41.709318,-83.690455
Toledo Clinic Radiology,hospital-based,4235 Secor Rd,,Toledo,Ohio,43623,419 479-5935,,,41.695649,-83.62425
Cleveland Clinic - Cancer Centers,stand-alone imaging center,417 Quarry Lakes Dr,,Sandusky,Ohio,44870,,,https://my.clevelandclinic.org/locations/directions/321-cleveland-clinic-cancer-center---judith-and-richard-kinzel-campus-sandusky,41.446286,-82.75039
Firelands Regional Medical Center,hospital-based,1111 Hayes Ave,,Sandusky,Ohio,44870,,,,41.446527,-82.710855
Cleveland Clinic - Lorain Family Health Center,stand-alone imaging center,5700 Cooper Foster Park Rd W,,Lorain,Ohio,44053,,,https://my.clevelandclinic.org/locations/directions/248-lorain-family-health-and-surgery-center,41.412637,-82.23541
Sanford Cancer Center,hospital-based,1309 W 17th St,,Sioux Falls,South Dakota,57104,,,https://www.sanfordhealth.org/locations/sanford-cancer-center?yxt_info=healthcare-facility-8a923516-f144-47aa-8262-dd414b430f49&y_source=1_MTA2MTkyMTA,43.53732,-96.743717
MercyOne North Iowa Medical Center,hospital-based,1000 4th St SW,,"Mason City,",Iowa,50401,641-428-7787,,https://www.mercyone.org/location/mercyone-north-iowa-medical-center,43.149591,-93.21665
Mayo Health System,hospital-based,800 Medical Center Drive,,Fairmont,Minnesota,56031,507-618-7523,,https://www.mayoclinichealthsystem.org/locations/fairmont,43.640015,-94.450512
Mercy Medical Center,hospital-based,250 Mercy Dr,,Dubuque,Iowa,52001,563 589-8000,,,42.492721,-90.675081
William S. Middleton Memorial Veterans Hospital,hospital-based,2500 Overlook Terrace,,Madison,Wisconsin,53705,,,https://www.va.gov/madison-health-care/,43.075056,-89.431189
Javon Bea Hospital,hospital-based,8201 E Riverside Blvd,,Rockford,Illinois,61114,815 971-7000,,https://www.mercyhealthsystem.org/locations/javon-bea-hospital-riverside/,42.316782,-88.959415
Beloit Memorial Hospital,hospital-based,1969 W Hart Rd,,Beloit,Wisconsin,53511,,,https://www.beloithealthsystem.org/locations/beloit-memorial-hospital/,42.548676,-89.008223
NORTHWESTERN DELNOR HOSPITAL,hospital-based,300 Randall Rd,,Geneva,Illinois,60134,630-933-5000,,https://www.nm.org/locations/delnor-hospital?utm_source=yext&utm_medium=other+location&utm_campaign=online+listings&y_source=1_ODIyOTg0MS03MTUtbG9jYXRpb24uZ29vZ2xlX3dlYnNpdGVfb3ZlcnJpZGU%3D,41.886285,-88.343545
ADVOCATE SHERMAN HOSPITAL,hospital-based,1425 North Randall Rd,,Elgin,Illinois,60123,224-783-8486,,https://www.advocatehealth.com/sherman/,42.070025,-88.330943
Northwestern Medicine McHenry Hospital,hospital-based,4201 Medical Centre Dr,,McHenry,Illinois,60050,,,https://www.nm.org/locations/mchenry-hospital?utm_source=yext&utm_medium=other+location&utm_campaign=online+listings&y_source=1_OTg5MDQzMC03MTUtbG9jYX,42.316297,-88.278127
ADVOCATE GOOD SHEPHERD HOSPITAL,hospital-based,450 West Highway 22,,Barrington,Illinois,60010,847-842-4130,,https://www.advocatehealth.com/gshp/patients-visitors/contact-us/,42.19522,-88.172433
NORTHWESTERN CENTRAL DUPAGE HOSPITAL,hospital-based,4405 Weaver Prkwy,,Warrenville,Illinois,60555,630-352-5450,,https://www.nm.org/locations/cancer-center-warrenville?utm_source=yext&utm_medium=other+location&utm_campaign=online+listings&y_source=1_ODIyOTgxMC03MTUtbG9jYXRpb24uZ29vZ2xlX3dlYnNpdGVfb3ZlcnJpZGU%3D,41.805386,-88.158489
AMITA Health Alexian Brothers Medical Center,hospital-based,800 Biesterfield Rd,,Elk Grove Village,Illinois,60007,,,https://www.amitahealth.org/location/amita-health-alexian-brothers-medical-center-elk-grove-village,42.004917,-88.014497
Duly Health and Care in Lisle,hospital-based,430 Warrenville Rd,,Lisle,Illinois,60532,630-545-7880,,https://www.dulyhealthandcare.com/location/430-warrenville-road-lisle,41.809187,-88.058847
NORTHWEST COMMUNITY HOSPITAL,hospital-based,800 West Central Rd,,Arlington Heights,Illinois,60005,847-618-1000,,https://www.nch.org/locations/nch-hospital-and-emergency-department/,42.068193,-87.992483
Advocate Lutheran General Hospital,hospital-based,1700 Luther Ln,,Park Ridge,Illinois,60068,,,https://care.advocatehealth.com/locations/advocate-luthern-general-hospital-center-for-advanced-care,42.038349,-87.850446
Illinois Cancer Specialists,hospital-based,8195 W Golf Rd,,Niles,Illinois,60714,,,https://illinoiscancerspecialists.com/,42.054691,-87.831321
NorthShore Skokie Hospital,hospital-based,9600 Gross Point Rd,,Skokie,Illinois,60076,,,https://www.northshore.org/locations/our-hospitals/skokie-hospital/,42.055979,-87.739596
"EDWARD HINES, JR. VA HOSPITAL",hospital-based,5000 South 5th Ave,,Hines,Illinois,60141,708-202-8387,24398,https://www.va.gov/hines-health-care/,41.861051,-87.841136
Loyola University Medical Center,hospital-based,2160 S 1st Ave.,,Maywood,Illinois,60153,708-216-5927,,https://www.loyolamedicine.org/location/lumc,41.86036,-87.835034
Swedish Hospital,hospital-based,5140 N California Ave,,Chicago,Illinois,60625,,,https://www.swedishcovenant.org/,41.975302,-87.699481
AMITA CANCER INSTITUTE HINSDALE,stand-alone imaging center,1 Salt Creek Lane,,Hinsdale,Illinois,60521,630-286-5834,,https://www.amitahealth.org/location/amita-health-cancer-institute-hinsdale,41.818859,-87.919001
Advocate Illinois Masonic Medical Center,hospital-based,836 W Wellington Ave,,Chicago,Illinois,60657,773-296-5559,,https://www.advocatehealth.com/immc/,41.936772,-87.651175
NORTHWESTERN MEMORIAL HEALTH CARE,hospital-based,251 E Huron St,,Chicago,Illinois,60611,312-926-3762,,https://www.nm.org/locations/northwestern-memorial-hospital-feinberg-pavilion?utm_source=yext&utm_medium=other+location&utm_campaign=online+listings&y_source=1_ODUwODQ4OS03MTUtbG9jYXRpb24uZ29vZ2xlX3dlYnNpdGVfb3ZlcnJpZGU%3D,41.894657,-87.62138
NORTHWESTERN MEMORIAL- ARKES PET/MR,hospital-based,676 North Saint Clair St,,Chicago,Illinois,60611,312-926-3762,,https://www.nm.org/locations/northwestern-memorial-hospital-arkes-pavilion?utm_source=yext&utm_medium=other+location&utm_campaign=online+listings&y_source=1_ODUwODUwMi03MTUtbG9jYXRpb24uZ29vZ2xlX3dlYnNpdGVfb3ZlcnJpZGU%3D,41.894599,-87.622954
THE UNIVERSITY OF CHICAGO MEDICAL CENTER,stand-alone imaging center,5841 S Maryland Ave,,Chicago,Illinois,60637,773-702-6024,,https://www.uchicagomedicine.org/,41.788518,-87.603267
RUSH UNIVERSITY MEDICAL CENTER,hospital-based,1653 W. Congress Pkwy,,Chicago,Illinois,60612,312-947-0100,,https://www.rush.edu/locations/emergency-services-rush-university-medical-center?utm_campaign=yext&utm_medium=organic&utm_source=listing,41.874903,-87.668091
University of Illinois Hospital,hospital-based,1740 W Taylor St,,Chicago,Illinois,60612,,,https://hospital.uillinois.edu/,41.869489,-87.670525
Jesse Brown VA Medical Center,hospital-based,820 South Damen Ave,,Chicago,Illinois,60612,,,https://www.va.gov/directory/guide/facility.asp?id=183,41.869946,-87.676996
Henry Ford - Allegiance Health,hospital-based,205 N East Ave,,Jackson,Michigan,49201,517 205-4800,,https://www.henryford.com/locations/allegiance-health?utm_campaign=website-link&utm_medium=organic&utm_source=local-listing,42.250845,-84.392744
Mercy Health Saint Mary's,hospital-based,200 Jefferson Ave,,Grand Rapids,Michigan,49503,,,https://www.mercyhealth.com/location/mercy-health-saint-marys,42.958427,-85.662933
SPECTRUM HEALTH,hospital-based,100 Michigan NE,,Grand Rapids,Michigan,49503,616-267-2626,,https://www.spectrumhealth.org/locations/spectrum-health-hospitals-butterworth-hospital,42.969485,-85.665
University Of Michigan Medical Center,hospital-based,1500 East Medical Center Dr,,Ann Arbor,Michigan,48109,,,https://www.uofmhealth.org/,42.283633,-83.728877
ANN ARBOR VA HEALTH SYSTEM,hospital-based,2215 Fuller Rd Nuclear Medicine,Room D764,Ann Arbor,Michigan,48105,734-769-7100,,https://www.va.gov/ann-arbor-health-care/,42.28661,-83.715677
VA Ann Arbor Healthcare System,hospital-based,2215 Fuller Rd,,Ann Arbor,Michigan,48105,,,https://www.va.gov/ann-arbor-health-care/,42.286377,-83.715264
St. Joseph Mercy Ann Arbor,hospital-based,5333 McAuley Dr,,Ypsilanti,Michigan,48197,,,,42.263909,-83.651841
Beaumont Trenton,hospital-based,5400 Fort St,,Trenton,Michigan,48183,,,https://www.beaumont.org/locations/beaumont-medical-office-building-trenton,42.117195,-83.212729
Beaumont Wayne,hospital-based,33155 Annapolis St,,Wayne,Michigan,48184,,,https://www.beaumont.org/locations/beaumont-hospital-wayne,42.273146,-83.364935
Beaumont Dearborn,hospital-based,18101 Oakwood Blvd,,Dearborn,Michigan,48124,,,https://www.beaumont.org/locations/beaumont-hospital-dearborn,42.290415,-83.214232
Karmanos Cancer Institute,hospital-based,3901 Beaubien St,,Detroit,Michigan,48201,,,https://www.karmanos.org/karmanos/karmanos-home?utm_source=loc-421&utm_medium=organic&utm_campaign=google-my-business&utm_content=gmb&y_source=1_MjI2M,42.352442,-83.054115
Henry Ford Hospital,hospital-based,2800 W Grand Blvd,,Detroit,Michigan,48202,,,https://www.henryford.com/locations/cancer-institute-detroit/imaging-and-radiology?utm_campaign=website-link&utm_medium=organic&utm_source=local-listi,42.365971,-83.083547
Ascension St. John Hospital,hospital-based,22101 Moross Rd,,Detroit,Michigan,48236,,,https://healthcare.ascension.org/locations/michigan/midet/detroit-ascension-st-john-hospital?utm_campaign=gmb&utm_medium=organic&utm_source=local,42.41983,-82.914852
Ascension Michigan Corporate,hospital-based,28000 Dequindre Rd,,Warren,Michigan,48092,,,,42.49834,-83.083737
Beaumont  Farmington Hills Cancer Center,hospital-based,27900 Grand River Ave,,Farmington Hills,Michigan,48336,,,https://www.beaumont.org/locations/beaumont-cancer-breast-care-center-farmington-hills,42.443556,-83.32318
Prairie Lakes Cancer Center,hospital-based,401 9th Ave NW,,Watertown,South Dakota,57201,605 882-6800,,https://www.prairielakes.com/,44.9111282,-97.1206301
Mankato Clinic Wickersham Health Campus,hospital-based,1421 Premier Dr,,Mankato,Minnesota,56001,507 625-1811,,,44.194459,-93.951899
Mayo Clinic Health System,hospital-based,2200 NW 26th St,,Owatonna,Minnesota,55060,507 451-1120,,https://www.mayoclinichealthsystem.org/locations/owatonna?mc_id=&utm_source=yext&utm_medium=l&utm_content=owatonnaclinicgeneral&utm_campaign=mchsmarketing&geo=owatonna&placementsite=semn&invsrc=mchssemn&cauid=110693&y_source=1_MzkxODEyOS03MTUtbG9jYXRpb24u,44.1114518,-93.2507632
MAYO CLINIC ROCHESTER,hospital-based,Charlton North Building Lo-105 2nd St,2ND Ave NW,Rochester,Minnesota,55905,507-538-3270,,https://www.mayoclinic.org/patient-visitor-guide/minnesota,44.023788,-92.467038
Gunderson Lutheran Medical Center,hospital-based,1900 South Ave,,La Crosse,Wisconsin,54601,,,https://www.gundersenhealth.org/locations/la-crosse-campus/hospital/,43.795234,-91.247857
May Health Systems,hospital-based,900 West Avenue,,La Crosse,Wisconsin,54601,608 785-0940,,https://www.mayoclinichealthsystem.org/locations/la-crosse?mc_id=&utm_source=yext&utm_medium=l&utm_content=lacrossemedicalcentergeneral&utm_campaign=mchsmarketing&geo=lacrosse&placementsite=swwi&invsrc=mchsswwi&cauid=110700&y_source=1_MzkxODA4NS03MTUtbG9j,43.8041647,-91.1544963
UNIVERSITY OF WISCONSIN,hospital-based,600 Highland Ave,,Madison,Wisconsin,53792,608-265-8731,,https://www.uwhealth.org/locations/university-hospital-170,43.076322,-89.431896
AURORA MEDICAL CENTER SUMMIT,hospital-based,36500 Aurora Dr,,Oconomowoc,Wisconsin,53066,414-747-7474,,https://www.aurorahealthcare.org/locations/hospital/aurora-medical-center-summit/,43.066327,-88.468243
ProHealth Urgent Care Pewaukee,hospital-based,N16W24131 Riverwood Dr,,Waukesha,Wisconsin,53188,,,https://www.prohealthcare.org/locations/profile/clinic-pewaukee/?utm_medium=listings&utm_source=gmb&utm_campaign=code-207,43.052731,-88.227542
Ascension Elmbrook Hospital,hospital-based,19333 W North Ave,,Brookfield,Wisconsin,53045,,,https://healthcare.ascension.org/locations/wisconsin/wiwhe/brookfield-ascension-se-wisconsin-hospital-elmbrook-campus?utm_campaign=gmb-website&utm_med,43.058982,-88.15445
Aurora Health Center Mayfair South,hospital-based,1055 N Mayfair Rd,,Wauwatosa,Wisconsin,53226,,,https://care.aurorahealthcare.org/locations/aurora-health-center-1055-n-mayfair-rd,43.043803,-88.047985
Ascension - Franklin Hospital,hospital-based,10101 S 27th St,,Franklin,Wisconsin,53132,,,https://healthcare.ascension.org/locations/wisconsin/wiwhe/franklin-ascension-se-wisconsin-hospital-franklin-campus?utm_campaign=gmb&utm_medium=organi,42.860037,-87.954157
FROEDTERT HEALTH,hospital-based,9200 W. Wisconsin Ave,,Milwaukee,Wisconsin,53226,414-777-1900,,https://www.froedtert.com/,43.040846,-88.024296
Clement J. Zablocki VA Medical Cente,hospital-based,5000 W National Ave,,Milwaukee,Wisconsin,53295,,,https://www.va.gov/milwaukee-health-care/,43.020916,-87.976214
ADVOCATE AURORA ST. LUKES MEDICAL CENTER,hospital-based,2900  West Oklahoma Ave,,Milwaukee,Wisconsin,53215,414 649-6000,,https://www.aurorahealthcare.org/locations/hospital/aurora-st-lukes-medical-center/,42.989654,-87.950022
Froedtert Pleasant Prairie Hospital,hospital-based,9555 76th St,,Pleasant Prairie,Wisconsin,53158,262 577-8000,,https://www.froedtertsouth.com/locations/froedtert-pleasant-prairie-hospital/,42.56466,-87.924501
Ascension Columbia St. Mary's Milwaukee,hospital-based,2350 N Lake Dr,,Milwaukee,Wisconsin,53211,,,https://healthcare.ascension.org/locations/wisconsin/wimil/milwaukee-ascension-columbia-st-marys-milwaukee-at-water-tower-medical-commons/imaging?utm_,43.061269,-87.878679
ASCENSION - ST. JOSEPH'S HOSPITAL,hospital-based,5000 WEST CHAMBERS ST,,MILWAUKEE,Wisconsin,53210,414 447-2000,,,43.074364,-87.976537
MIDWESTERN REGIONAL MEDICAL CENTER,hospital-based,2520 Elisha Ave,,Zion,Illinois,60099,800-577-1255,,https://www.cancercenter.com/,42.448888,-87.827537
NORTHWESTERN LAKE FOREST HOSPITAL,hospital-based,660 N. Westmoreland Rd,,Lake Forest,Illinois,60045,815-338-6600,,https://www.nm.org/locations/lake-forest-hospital,42.253037,-87.86518
Alliance - Regional Medical Imaging,hospital-based,3346 Lennon Rd,,Flint,Michigan,48507,810-732-1945,,https://www.rmipc.net/locations/flint-lennon-rd/,42.98792,-83.744898
McLaren Flint - MRI,hospital-based,750 S Ballenger Hwy,,Flint,Michigan,48532,,,https://www.mclaren.org/main/locations/mclaren-flint-mri-728,43.010081,-83.735721
Ascension Providence Hospital - Novi Campus,hospital-based,47601 Grand River Ave,,Novi,Michigan,48374,,,https://healthcare.ascension.org/locations/michigan/midet/novi-ascension-providence-hospital-novi-campus?utm_campaign=gmb&utm_medium=organic&utm_sourc,42.488459,-83.520972
Trinity Health Integrated Care,stand-alone imaging center,20555 Victor Pkwy,,Livonia,Michigan,48152,,,https://www.trinity-health.org/integrated-care/,42.43508,-83.427083
St Joseph Mercy Oakland,hospital-based,44405 Woodward Ave,,Pontiac,Michigan,48341,,,https://www.stjoeshealth.org/location/trinity-health-oakland-hospital,42.612895,-83.275854
Karmanos Cancer Institute,hospital-based,31995 Northwestern Hwy,,Farmington Hills,Michigan,48334,,,https://www.karmanos.org/karmanos/karmanos-cancer-institute-at-farmington-hills-home?utm_source=loc-585&utm_medium=organic&utm_campaign=google-my-busi,42.521764,-83.346127
Beaumont Service Center,hospital-based,26901 Beaumont Blvd,,Southfield,Michigan,48033,,,https://www.beaumont.org/locations/beaumont-service-center,42.483169,-83.272754
Beaumont Hospital Royal Oak,hospital-based,3601 W.13 mile Rd,,Royal Oak,Michigan,48073,248-551-3401,,https://www.beaumont.org/locations/beaumont-hospital-royal-oak,42.515111,-83.192698
William Beaumont Hospital- Royal Oaks,hospital-based,3601 W 13 Mile Rd,,Royal Oak,Michigan,48073,248 898-5000,,https://www.beaumont.org/locations/beaumont-hospital-royal-oak,42.515111,-83.192698
Beaumont Hospital- Lenox,hospital-based,36555 26 Mile Rd,,Lenox,Michigan,48048,947 523-4000,,https://www.beaumont.org/locations/outpatient-campus-lenox,42.720827,-82.743457
Ascension St. John Hospital Health Center,hospital-based,17700 23 Mile Rd,,Macomb,Michigan,48044,,,https://healthcare.ascension.org/locations/michigan/midet/macomb-township-ascension-st-john-hospital-at-23-mile?utm_campaign=gmb&utm_medium=organic&ut,42.670108,-82.945366
Beaumont Hospital Troy,hospital-based,44201 Dequindre Rd,,Troy,Michigan,48085,248-551-3401,,https://www.beaumont.org/locations/beaumont-hospital-troy,42.61863,-83.09292
Beaumont Hospital - Troy,hospital-based,44201 Dequindre Rd,,Troy,Michigan,48085,,,https://www.beaumont.org/locations/beaumont-hospital-troy,42.61863,-83.09292
Billings Clinic Hospital,hospital-based,2800 10th Ave N,,Billings,Montana,59101,406 238-2500,,,45.789537,-108.512995
DMS Imaging Mobile Coach at CHI St. Alexius Health,hospital-based,900 E Broadway,,Bismarck,North Dakota,58501,701-530-5353,,https://www.chistalexiushealth.org/,46.80763,-100.777575
CHI St. Alexius Health,hospital-based,900 E Broadway,,Bismarck,North Dakota,58501,701-471-4505,,https://www.chistalexiushealth.org/,46.80763,-100.777575
CentraCare - Rice Memorial Hospital,hospital-based,301 Becker Ave SW,,Willmar,Minnesota,56201,320 235-4543,,https://www.centracare.com/locations/centracare-rice-memorial-hospital/,45.1199948,-95.0460933
Alomere Health - RAYUS Radiology,hospital-based,111 17th Ave E,,Alexandria,Minnesota,56308,,,https://rayusradiology.com/locations/alexandria/,45.873948,-95.376048
Mayo Clinic Health System,hospital-based,301 2nd St NE,,New Prague,Minnesota,56071,952 758-4431,,http://mayoclinichealthsystem.org/locations/new-prague?mc_id=&utm_source=yext&utm_medium=l&utm_content=newpraguemedicalcentergeneral&utm_campaign=mchsmarketing&geo=newprague&placementsite=swmn&invsrc=mchsswmn&cauid=110685&y_source=1_MzkxODA4Ni03MTUtbG9jYX,44.546252,-93.5744543
LIFE SCAN MINNESOTA,stand-alone imaging center,6545  France Ave South,Suite 125,Edina,Minnesota,55435,952-893-1997,,https://subrad.com/locations/southdale-edina/,44.884565,-93.328189
RAYUS Radiology - St. Louis Park,hospital-based,5775 Wayzata Blvd,#190,St Louis Park,Minnesota,55416,952-270-4911,,https://rayusradiology.com/locations/st-louis-park/,44.968892,-93.353824
ALLINA HEALTH,hospital-based,800 East 28th st,,Minneapolis,Minnesota,55407,612 863-5327,,https://account.allinahealth.org/locations/100?utm_source=gmb&utm_medium=organic&utm_content=web-url&utm_campaign=gmb_website&utm_term=Allina-Health-M,44.954175,-93.261572
RAYUS Radiology - Mendota Heights,hospital-based,910 Sibley Memorial Hwy,,Mendota Heights,Minnesota,55118,,,https://rayusradiology.com/locations/mendota-heights/,44.904205,-93.132448
Midwest Radiology - St. Paul,stand-alone imaging center,"250 Thompson St,",,St Paul,Minnesota,55102,,,https://www.midwestradiology.com/us/locations-and-hours/downtown-st-paul,44.944086,-93.107023
Regions Hospital Health Partners Specialty Center,hospital-based,401 Phalen Blvd,,St. Paul,Minnesota,55130,651-587-1722,,https://www.healthpartners.com/care/specialty-centers/?utm_campaign=primarycare_locallistings_20m1_care_hp&utm_source=googlemybusiness_&utm_medium=org,44.964954,-93.084382
MARSHFIELD MEDICAL CENTER EAU CLAIRE,hospital-based,2310 Craig Rd,,Eau Claire,Wisconsin,54701,715-858-4105,,https://www.marshfieldclinic.org/locations/centers/Eau%20Claire%20-%20Marshfield%20Medical%20Center,44.794201,-91.520078
HSHS Sacred Heart Hospital,hospital-based,900 W Clairemont Ave,,Eau Claire,Wisconsin,54701,,,https://www.hshs.org/sacredheart?utm_source=gmb&utm_medium=Yext,44.794519,-91.510727
MAYO CLINIC HEALTH SYSTEM- EAU CLAIRE,hospital-based,1221 Whipple St,,Eau Claire,Wisconsin,54701,715-838-3311,,https://www.mayoclinichealthsystem.org/locations/eau-claire,44.812186,-91.512935
Merchant Logo Aspirus Riverview Hospital,hospital-based,410 Dewey St,,Wisconsin Rapids,Wisconsin,54494,715 423-6060,,https://www.aspirus.org/find-a-location/aspirus-riverview-hospital-437,44.3817334,-89.8303048
Marshfield Medical Center-Marshfield,hospital-based,611 St Joseph Ave,,Marshfield,Wisconsin,54449,,,https://www.marshfieldclinic.org/locations/centers/Marshfield%20-%20Marshfield%20Medical%20Center,44.670475,-90.180776
MARSHFIELD MEDICAL CENTER MARSHFIELD,hospital-based,1000 North Oak Ave,,Marshfield,Wisconsin,54449,715-387-7787,,https://www.marshfieldclinic.org/,44.677687,-90.177267
MARSHFIELD MEDICAL CENTER WESTON,hospital-based,3400 Ministry Pkway,,Weston,Wisconsin,54476,715-393-3000,,https://www.marshfieldclinic.org/locations/centers/Weston%20-%20Marshfield%20Medical%20Center,44.890333,-89.580281
St. Agnes Hospital,hospital-based,430 E Division St,,Fond du Lac,Wisconsin,54935,,,https://www.ssmhealth.com/locations/st-agnes-hospital?y_source=1_MjYzMTcwMjctNzE1LWxvY2F0aW9uLndlYnNpdGU%3D,43.77758,-88.43131
Aurora Grafton Medical Center,hospital-based,975 Port Washington Rd,,Grafton,Wisconsin,53024,,,https://www.aurorahealthcare.org/locations/hospital/aurora-medical-center-grafton/,43.325069,-87.928418
HSHS St. Nicholas Hospital,hospital-based,3100 Superior Ave,,Sheboygan,Wisconsin,53081,,,https://www.hshs.org/stnicholas?utm_source=gmb&utm_medium=Yext,43.762479,-87.747825
Aurora BayCare Medical Center,hospital-based,2845 Greenbrier Rd,,Green Bay,Wisconsin,54311,,,https://www.aurorabaycare.com/find-a-location/aurora-baycare-medical-center/,44.475536,-87.942346
Munson Medical Center,hospital-based,217 South Madison St,,Traverse City,Michigan,49684,231-935-7383,,https://www.munsonhealthcare.org/locations/location-details?practice=91,44.762752,-85.642008
UCHealth Yampa Valley Medical Center,hospital-based,1024 Central Park Dr,,Steamboat Springs,Colorado,80487,970 879-1322,,https://www.uchealth.org/locations/uchealth-yampa-valley-medical-center/,40.463177,-106.8150723
Sanford Broadway Clinic,stand-alone imaging center,801 Broadway N,,Fargo,North Dakota,58102,,,https://www.sanfordhealth.org/locations/sanford-broadway-clinic?yxt_info=healthcare-facility-9194f35c-b834-4b1e-a5fa-4a369ca3a8af&y_source=1_MTA2MTg4M,46.884889,-96.785684
CENTRACARE - ST CLOUD IMAGING,hospital-based,1900 Centracare Cir,Suite 1400,Saint Cloud,Minnesota,56303,320-200-3200,,https://www.centracare.com/locations/centracare-st-cloud-hospital-imaging-services/,45.582964,-94.206762
Minnesota Oncology,hospital-based,10150 Niagara Lane N,Suite 100,Maple Grove,Minnesota,55369,763 712-2100,,https://mnoncology.com/locations/maple-grove-clinic?utm_source=local-listings&utm_medium=google&utm_campaign=rio-listings,45.1392646,-93.4732091
MHEALTH FAIRVIEW - MAPLE GROVE,hospital-based,14500 99th Ave N,,Maple Grove,Minnesota,55311,612-273-9275,,https://www.mhealthfairview.org/locations/M-Health-Fairview-Clinics-and-Surgery-Center---Maple-Grove,45.136087,-93.464773
North Memorial Specialty Center,hospital-based,3435 West Broadway,,Robbinsdale,Minnesota,55422,763-218-2677,,https://northmemorial.com/,45.017752,-93.326233
MHEALTH FAIRVIEW - EAST BANK,hospital-based,500 Harvard St SE,Unit J/ East Bank,Maple Grove,Minnesota,55311,612-273-9275,,https://mhealthfairview.org/locations/m-health-fairview-university-of-minnesota-medical-center---east-bank,44.971057,-93.23103
UNIVERSITY OF MINNESOTA PHYSICIANS CCIR,hospital-based,2021 6TH ST SE,,Minneapolis,Minnesota,55455,612-626-3345,,https://med.umn.edu/radiology/research/center-clinical-imaging-research,44.979067,-93.224202
Minnesota Oncology,hospital-based,1580 Beam Avenue,,Maplewood,Minnesota,55109,651-255-8476,,https://mnoncology.com/locations/maplewood-cancer-center/,45.02727,-93.033527
M Health Fairview St. John's Hospital,hospital-based,1575 Beam Ave,,Maplewood,Minnesota,55109,,,https://mhealthfairview.org/locations/m-health-fairview-st-johns-hospital,45.029739,-93.033121
MARSHFIELD MEDICAL CENTER- RICE LAKE,hospital-based,1700  W Stout St,,Rice Lake,Wisconsin,54868,715-236-8484,,https://marshfieldclinic.org/locations/centers/Rice%20Lake%20-%20Marshfield%20Medical%20Center,45.506532,-91.759512
Aspirus Wausau Hospital,hospital-based,333 Pine Ridge Boulevard,,Wausau,Wisconsin,54401,715 847-2121,,https://www.aspirus.org/find-a-location/aspirus-wausau-hospital-285,44.9657037,-89.6686901
HSHS St. Vincent Hospital,hospital-based,835 S Van Buren St,,Green Bay,Wisconsin,54301,,,https://www.hshs.org/stvincent?utm_source=gmb&utm_medium=Yext,44.50131,-88.012306
Jackson Hole Medical Imaging,stand-alone imaging center,625 E Broadway Ave,,Jackson,Wyoming,83001,307 739-7281,,https://www.stjohns.health/services/diagnostic-imaging/,43.4806821,-110.7498053
Altru Cancer Center,hospital-based,960 S Columbia Rd,,Grand Forks,North Dakota,58201,,,https://www.altru.org/our-locations/?id=2&searchId=337e0861-b87e-e711-b4e7-2c768a4e1b84&sort=11&page=1&pageSize=10%3futm_source%3dgoogle&utm_medium=gm,47.912358,-97.069324
Essentia Health Brainerd,hospital-based,523 N 3rd St,,Brainerd,Minnesota,56401,218-829-2861,,https://www.essentiahealth.org/find-facility/profile/essentia-health-st-josephs-medical-center-brainerd/,46.3620054,-94.2058917
Midwest Radiology/ Suburban Imaging Northwest,stand-alone imaging center,11850 Blackfoot St. NW,Suite 180,Coon Rapids,Minnesota,55433,763-795-1600,,https://subrad.com/,45.185194,-93.369317
Marshfield Medical Center - Minocqua,hospital-based,9576 Highway 70,,Minocqua,Wisconsin,54548,,,https://www.marshfieldclinic.org/locations/centers/Minocqua%20-%20Marshfield%20Medical%20Center,45.888138,-89.708105
Essentia Health-Duluth Clinic 1st Street Building,hospital-based,420 E 1st St,,Duluth,Minnesota,55805,,,,46.792056,-92.092881
ST. LUKE'S HOSPITAL,hospital-based,1001  E Superior St,,Duluth,Minnesota,55802,218-249-5661,,https://www.slhduluth.com/locations/st-lukes-internal-medicine-associates/,46.797029,-92.085616
Akumin Gateway West,stand-alone imaging center,10501 Gateway Blvd West,Suite 140,El Paso,Texas,79925,915 544-7300,,https://akumin.com/?utm_source=Google&utm_medium=Yext&y_source=1_MTg1MDE0OTktNzE1LWxvY2F0aW9uLndlYnNpdGU%3D,31.753844,-106.345861
Desert Imaging,hospital-based,7812 Gateway Blvd E,#120,El Paso,Texas,79915,915-577-0110,,https://dielp.com/,31.757418,-106.355301
William Beaumont Army Medical Center - Fort Bliss,hospital-based,18511 Highlander Medics St,,Fort Bliss,Texas,79918,915-433-5415,,https://william-beaumont.tricare.mil/,31.833328,-106.324719
Sun View Imaging,stand-alone imaging center,2525 S Telshor Blvd,,"Las Cruces,",New Mexico,88011,,,https://sunviewlascruces.com/,32.291727,-106.733646
Canyon Vista Medical Center,hospital-based,151 Colonia de Salud,,Sierra Vista,Arizona,85635,,,,31.552748,-110.231376
Medical Center Hospital,hospital-based,500 W 4th St,,Odessa,Texas,79761,432 640-4000,,https://www.mchodessa.com/,31.8450091,-102.3737429
Southern Arizona Radiology Associates - Sierra Vis,stand-alone imaging center,155 Calle Portal #500,,Sierra Vista,Arizona,85635,,,,31.552845,-110.266558
Midland Memorial Hospital,hospital-based,400 Rosalind Redfern Grover Pkwy,,Midland,Texas,79701,,,https://www.midlandhealth.org/main/facilities-and-locations?utm_source=google&utm_medium=Yext,31.996664,-102.100101
Gerald Champion Regional Medical Center,hospital-based,2669 N Scenic Dr,,Alamogordo,New Mexico,88310,575 439-6100,,https://www.gcrmc.org/,32.926428,-105.934715
Audie L. Murphy VA Medical Center,hospital-based,7400 Merton Minter,,San Antonio,Texas,78229,,,,29.506001,-98.579561
STRIC Northwest Imaging Center,stand-alone imaging center,4383 Medical Dr,#150,San Antonio,Texas,78229,,,https://www.stric.com/,29.511747,-98.572188
BAPTIST M&S IMAGING AND PET CENTER,stand-alone imaging center,8435 Wurzbach Rd,,San Antonio,Texas,78229,210-228-9729,,https://www.baptisthealthsystem.com/locations/detail/baptist-m-s-imaging-center-medical-center/?utm_campaign=gmb_listings_mgmt&utm_source=gmb-baptist-ms-imaging-center-medical-center&utm_medium=google-local,29.519877,-98.57442
BAPTIST M&S IMAGING CENTER DOWNTOWN,hospital-based,215  E Quincy,Suite 100,San Antonio,Texas,78215,210-228-9729,,https://www.baptisthealthsystem.com/locations/detail/baptist-m-s-imaging-center-downtown/?utm_campaign=gmb_listings_mgmt&utm_source=gmb-baptist-ms-imaging-center-downtown&utm_medium=google-local,29.435679,-98.493079
"Radiology Associates, LLP",stand-alone imaging center,5742 Spohn Dr,,Corpus Christi,Texas,78414,,,https://xraydocs.com/,27.686313,-97.3787
Radiology & Imaging-South Texas,hospital-based,3226 S Alameda St,,Corpus Christi,Texas,78404,,,https://radiologyimaging.com/,27.756528,-97.389332
Brooke Army Medical Center,hospital-based,3551 Roger Brooke Dr,,Fort Sam Houston,Texas,78234,,,https://bamc.tricare.mil/,29.460657,-98.415806
South Texas Radiology Imaging Center,stand-alone imaging center,12602 Toepperwein,Suite 101,San Antonio,Texas,78233,,,https://stric.com/,29.553142,-98.346237
Austin Radiological Association - San Marcos,stand-alone imaging center,"1348 Texas 123 South, 1348 Texas Hwy 123",Suite B,San Marcos,Texas,78666,512 392-1831,,https://www.ausrad.com/location/san-marcos/,29.855738,-97.940516
AUSTIN RADIOLOGICAL ASSOCIATION - MIDTOWN,stand-alone imaging center,901 W. 38TH ST,,Austin,Texas,78705,512-519-3456,,https://www.ausrad.com/location/midtown-i-austin-vein-center/,30.304604,-97.742477
PET Imaging of Sugar Land,stand-alone imaging center,17320 W Grand Pkwy S,Suite A,Sugar Land,Texas,77479,,,https://petimaging.us/,29.574241,-95.683393
University of Texas Medical Branch at Galveston,hospital-based,301 University Blvd,,Galveston,Texas,77555,,,,29.31075,-94.775874
MD Anderson League City,hospital-based,2280 Gulf Fwy S,,League City,Texas,77573,,,https://www.mdanderson.org/about-md-anderson/our-locations/league-city.html,29.480323,-95.098511
UTMB Health League City Campus Hospital & Clinics,stand-alone imaging center,2240 Gulf Fwy S,,League City,Texas,77573,,,https://www.utmbhealth.com/locations/hospitals-campuses/league-city-campus/league-city-campus-hospital,29.480934,-95.09908
Houston Methodist Sugar Land Hospital,hospital-based,16655 Southwest Fwy,,Sugar Land,Texas,77479,,,https://www.houstonmethodist.org/locations/sugar-land/?utm_source=gmb&utm_medium=organic&utm_campaign=all_front_door_gmb&utm_content=website-click,29.58924,-95.631453
Texas Oncology-Deke Slayton Cancer Center,hospital-based,501 W. Medical Center Blvd,,Webster,Texas,77598,281 332-7505,,,29.539555,-95.127205
Texas Oncology-Sugar Land,hospital-based,1350 First Colony Blvd,,Sugar Land,Texas,77479,281 277-5200,,,29.602593,-95.636635
HCA Houston Healthcare - Sugar Land Diagnostic,hospital-based,15300 Southwest Fwy,Ste. 200,Sugar Land,Texas,77478,281 274-6600,,https://hcahoustonhealthcare.com/specialties/imaging-services?location=west,29.607088,-95.616801
Memorial Hermann Southeast Hospital,hospital-based,11914 ASTORIA BLVD,PLAZA 1  MOBILE PET TRAILER,Houston,Texas,77089,281 929-6100,,,29.583252,-95.206455
PRECISION RADIOTHERAPY CENTER,stand-alone imaging center,11950  Old Galveston Rd,,Houston,Texas,77034,713-512-3200,,https://prchouston.com/,29.598248,-95.176966
Houston Methodist Baytown Hospital,hospital-based,4401 Garth Rd,,Baytown,Texas,77521,,,https://www.houstonmethodist.org/locations/baytown/?utm_source=gmb&utm_medium=organic&utm_campaign=all_front_door_gmb&utm_content=website-click,29.769157,-94.979603
ACADIANA RADIATION THERAPY,stand-alone imaging center,525 North Lewis St,,New Iberia,Louisiana,70560,337-364-1131,,https://oncologics.net/locations/,30.00733,-91.79638
"Louisiana PET/CT Imaging of Lake Charles, LLC",hospital-based,831 Lakeshore Dr,,Lake Charles,Louisiana,70601,,,https://capitolimagingservices.com/louisiana-pet-ct-imaging-lake-charles/,30.237408,-93.228629
MICHAEL E. DEBAKEY VA MEDICAL CENTER,hospital-based,"2002 Holcombe Blvd,",,Houston,Texas,77030,713-791-1414,26422,https://www.va.gov/houston-health-care/,29.700103,-95.388965
THE UNIVERSITY OF TEXAS MD ANDERSON MAYS CLINIC,hospital-based,1220 Holcombe Blvd,,Houston,Texas,77030,713-563-6190,,https://www.mdanderson.org/about-md-anderson/our-locations/texas-medical-center.html,29.705537,-95.399992
PET Imaging of Houston,stand-alone imaging center,2493 S Braeswood Blvd,Suite A,Houston,Texas,77030,,,,29.696872,-95.417078
Ochsner Lafayette General Medical Center,hospital-based,1211 Coolidge St,# 201,Lafayette,Louisiana,70503,337 289-8000,,https://ochsnerlg.org/location/ochsner-lafayette-general-imaging,30.202235,-92.01758
Texas Oncology-Abilene,hospital-based,1957 Antilley Rd,,Abilene,Texas,79606,325 692-0188,,https://www.texasoncology.com/cancer-centers/abilene/abilene/medical-oncology,32.371903,-99.747219
Texas Oncology-Austin Central,stand-alone imaging center,6204 Balcones Dr,,Austin,Texas,78731,512 427-9400,,https://www.texasoncology.com/cancer-centers/austin/austin-central/medical-oncology,30.344828,-97.752663
Excel Diagnostics Nuclear Oncology Center,stand-alone imaging center,9701 Richmond Ave,Suite 122,Houston,Texas,77042,,,https://www.exceldiagnostics.com/?utm_source=gmb_auth,29.727045,-95.540976
Houston Methodist West Hospital,hospital-based,18500 Katy Fwy,,Houston,Texas,77094,,,https://www.houstonmethodist.org/locations/katy-west/?utm_source=gmb&utm_medium=organic&utm_campaign=all_front_door_gmb&utm_content=website-click,29.787281,-95.697629
The University of Texas MD Anderson West Houston,hospital-based,15021 Katy Fwy,#100,Houston,Texas,77094,,,https://www.mdanderson.org/about-md-anderson/our-locations/diagnostic-imaging-clinics.html,29.783976,-95.648362
Kelsey - Seybold Clinic,hospital-based,2727 West Holcombe,,Houston,Texas,77025,713 442-5200,,https://www.kelsey-seybold.com/find-a-location/memorial-city-clinic,29.705221,-95.420629
Houston Precision Cancer Center,hospital-based,10405 Katy Fwy,Unit 150E,Houston,Texas,77024,,,https://www.oncologyconsultants.com/radiation-therapy,29.783039,-95.554645
Baylor Scott & White Medical Center ? Temple,hospital-based,2401 S 31st St,,Temple,Texas,76508,,,https://www.bswhealth.com/locations/temple?utm_source=google-mybusiness&utm_medium=organic&utm_campaign=9479&y_source=1_MTM0MTE3MDctNzE1LWxvY2F0aW9uLn,31.076525,-97.365282
OLIN E. TEAGUE VETERANS MEDICAL CENTER,hospital-based,1901  Veterans Memorial Dr,,Temple,Texas,76504,254-778-4811,,https://www.va.gov/central-texas-health-care/,31.076454,-97.347436
Methodist Willowbrook Hospital,hospital-based,13802 Centerfield Dr,Suite 300,Houston,Texas,77070,,,https://www.houstonmethodist.org/,29.969384,-95.550941
Memorial Hermann Imaging Center - Memorial City,stand-alone imaging center,921 Gessner Rd #200,,Houston,Texas,77024,,,,29.78156,-95.545917
Millennium Physicians North Houston,hospital-based,1250 Cypress Station Dr,Suite B,Houston,Texas,77090,,,https://millenniumphysicians.com/,30.021829,-95.438555
MD Anderson The Woodlands,hospital-based,100 Fellowship Dr,,Conroe,Texas,77384,,,https://www.mdanderson.org/about-md-anderson/our-locations/the-woodlands.html,30.205653,-95.476245
MILLENNIUM PHYSICIANS THE WOODLANDS,stand-alone imaging center,9323 Pinecroft,Suite 110,The Woodlands,Texas,77380,281-943-2440,,https://millenniumphysicians.com/the-woodlands/,30.17212,-95.457692
PET Imaging of The Woodlands,stand-alone imaging center,3091 College Park Dr,Suite 340,The Woodlands,Texas,77384,,,https://petimaging.us/,30.204972,-95.465085
Millennium Physicians - Kingwood,hospital-based,22710 Professional Dr,Suite 100,Kingwood,Texas,77339,,,https://millenniumphysicians.com/,30.048235,-95.256977
Houston Methodist The Woodlands Hospital,hospital-based,17201 I-45 South,,Shenandoah,Texas,77385,,,https://www.houstonmethodist.org/locations/the-woodlands/?utm_source=gmb&utm_medium=organic&utm_campaign=all_front_door_gmb&utm_content=website-click,30.205811,-95.453517
Memorial Hermann Imaging Center at Texas Medical,hospital-based,6400 Fannin St,1600,Houston,Texas,77030,713 512-6040,,,29.715111,-95.397146
Houston Methodist Outpatient Center,stand-alone imaging center,6445 Main St,,Houston,Texas,77030,,,https://www.houstonmethodist.org/contact-us/?utm_source=gmb&utm_medium=organic&utm_campaign=all_front_door_gmb&utm_content=website-click,29.712311,-95.399436
Capitol Imaging Services,stand-alone imaging center,5413 Jackson Street Ext.,,Alexandria,Louisiana,71303,318-445-6736,,https://capitolimagingservices.com/open-air-mri-cenla/,31.270514,-92.48418
Our Lady of the Lake Regional Medical Center,hospital-based,000 Hennessy Blvd,,Baton Rouge,Louisiana,70808,,,,30.402871,-91.108317
MARY BIRD PERKINS CANCER CENTER - BATON ROUGE,hospital-based,4950 Essen Lane,,Baton Rouge,Louisiana,70809,985-875-2234,,https://marybird.org/location/baton-rouge/,30.40387,-91.104947
Baton Rouge General Medical Center,hospital-based,8585 Picardy Avenue,,Baton Rouge,Louisiana,70809,225-333-3568,,https://www.brgeneral.org/,30.39487,-91.095474
Ochsner Cancer Center - Baton Rouge,hospital-based,17050 Medical Center Dr,,Baton Rouge,Louisiana,70816,225-726-2086,,https://digital.ochsner.org/schedule-br/?utm_source=YextGooglet&utm_medium=Yext&y_source=1_MTUyMDE4MDgtNzE1LWxvY2F0aW9uLndlYnNpdGU%3D,30.442313,-90.998575
Texas Oncology-Waco,stand-alone imaging center,1700 W Hwy 6,,Waco,Texas,76712,254 399-0741,,https://www.texasoncology.com/cancer-centers/waco/waco/medical-oncology,31.523195,-97.220244
Baylor Scott & White Medical Center ? Hillcrest,hospital-based,100 Hillcrest Medical Blvd,,Waco,Texas,76712,254-202-5000,,https://www.bswhealth.com/locations/hillcrest-hospital,31.489071,-97.157647
SAM HOUSTON CANCER CENTER,stand-alone imaging center,112 Medical Park,,Huntsville,Texas,77340,936-291-7911,,https://samhoustoncancercenter.com/,30.697199,-95.559816
WILLIS KNIGHTON CANCER CENTER,hospital-based,2600 Kings Hwy,,Shreveport,Louisiana,71103,318-212-8056,,https://www.wkhs.com/cancer,32.481205,-93.779326
Center for Molecular Imaging and Therapy,hospital-based,1505 Kings Hwy,,Shreveport,Louisiana,71103,318 675-4000,,https://www.louisianalifesciences.com/resource/center-for-molecular-imaging-and-therapy-2,32.481534,-93.76235
OVERTON BROOKS VA MEDICAL CENTER,hospital-based,510 E Stoner Ave,Nuclear Medicine Department,Shreveport,Louisiana,71101,318-990-4932,,https://www.va.gov/shreveport-health-care/,32.50319,-93.721462
St. Francis PET Imaging Louisiana,stand-alone imaging center,411 Calypso St,,Monroe,Louisiana,71201,318 966-6240,,,32.499513,-92.11231
Wise Health Clinics,stand-alone imaging center,1010 Ben Merritt Dr,,Decatur,Texas,76234,,,https://www.wisehealthclinics.com/locations/cancer-center-at-whs-decatur/,33.218118,-97.59499
Texas Health Harris Methodist Hospital Fort Worth,hospital-based,1301 Pennsylvania Ave,,For Worth,Texas,76104,,,,32.738017,-97.339925
Texas Oncology-Fort Worth Cancer Center,hospital-based,500 S Henderson St,,Fort Worth,Texas,76104,,,,32.739279,-97.338217
The Center for Cancer & Blood Disorders: Fort Wort,hospital-based,800 W Magnolia Ave,,Fort Worth,Texas,76104,,,https://thecentertx.com/?utm_source=GMBSocialClimb&utm_medium=TheCenterforCancer%26BloodDisorders%3AFortWorth,32.730885,-97.332866
Baylor Scott & White Medical Center - Irving,hospital-based,1901 N MacArthur Blvd,,Irving,Texas,75061,,,https://www.bswhealth.com/locations/irving?utm_source=google-mybusiness&utm_medium=organic&utm_campaign=9490&y_source=1_MTM0MTE3MDAtNzE1LWxvY2F0aW9uLn,32.834695,-96.960308
VETERANS ADMIN NORTH TEXAS HEALTHCARE,hospital-based,4500 South Lancaster Rd,,Dallas,Texas,75216,214-857-0130,,https://www.northtexas.va.gov/locations/directions.asp,32.696698,-96.788762
Texas Center for Proton Therapy,stand-alone imaging center,1501 W Royal Ln,,Irving,Texas,75063,,,https://www.texascenterforprotontherapy.com/,32.899536,-96.968643
Texas Oncology-Baylor Charles A. Sammons Cancer Ce,hospital-based,3410 Worth St Suite 400,,Dallas,Texas,75246,,,,32.788044,-96.778705
PARKLAND HEALTH AND HOSPITAL SYSTEM,hospital-based,5200 HARRY HINES BLVD,,Dallas,Texas,75235,214 590-8000,,,32.812822,-96.835676
The University of Texas Southwestern Medical Cente,hospital-based,2201 Inwood Rd #920,,Dallas,Texas,75235,,,,32.8197,-96.842151
Christus Mother Francis Hospital - Imaging,stand-alone imaging center,501 Saunders Ave,,Tyler,Texas,75702,945 455-4344,,,32.344569,-95.291692
PET Imaging of Dallas - Northeast,stand-alone imaging center,1250 Northeast Hwy R,,Garland,Texas,75041,,,https://petimaging.us/,32.863698,-96.646587
SOUTHWEST DIAG CENTER FOR MOLECULAR,stand-alone imaging center,8196 Walnut Hill Lane,Suite LL30,Dallas,Texas,75231,214-345-8300,,https://swdcmi.com/,32.87893,-96.762866
Texas Imaging & Infusion Center,stand-alone imaging center,10425 N US 75-Central Expy 1000,,Dallas,Texas,75231,,,,32.888544,-96.770703
Cancer Clinics of North Texas,stand-alone imaging center,12606 Greenville Ave,,Dallas,Texas,75243,469-364-7880,404,https://www.genesiscare.com/us/our-locations/dallas-lr8/,32.9184669,-96.7417888
Texas Oncology-Longview Cancer Center,hospital-based,1300 Fourth St,,Longview,Texas,75601,903 757-2122,,,32.511448,-94.729936
"Texarkana PET/CT Imaging Institute, LP",hospital-based,1929 Moores Ln,,Texarkana,Texas,75503,903 794-1994,,,33.471859,-94.064735
Texas Oncology-Paris,hospital-based,3550 NE Loop,286,Paris,Texas,75460,903 785-0031,,,33.601832,-95.624767
The Center for Cancer and Blood Disorders,hospital-based,2900 North I 35,Suite 111,Denton,Texas,76201,214-379-2774,,https://www.texashealth.org/Locations/texas-health-denton,33.216624,-97.165958
The Center for Cancer & Blood Disorders - Las Coli,stand-alone imaging center,7415 Las Colinas Blvd,,Irving,Texas,75063,214 379-2700,,https://thecentertx.com/locations/las-colinas/,32.908261,-96.954603
Cancer Clinics of North Texas,stand-alone imaging center,6957  West Plano Pkway,Suite 1300,Plano,Texas,75093,469-364-7880,404,https://www.genesiscare.com/us/our-locations/plano-lr9/,33.031772,-96.8429504
PET/CT Imaging of North Texas,hospital-based,5948 W. Parker Road,Suite 200,Plano,Texas,75093,469-259-9822,,http://www.petctimagingntx.com/,33.044756,-96.825972
Texas Oncology-Plano East,hospital-based,3705 W 15th St,,Plano,Texas,75075,972 867-3577,,https://www.texasoncology.com/cancer-centers/plano/plano-east/medical-oncology,33.0201755,-96.7632213
Rena Tarbet Cancer Center,hospital-based,"4201 Medical Center Dr, Ste 180",,McKinney,Texas,75069,9725489690,,,33.161169,-96.634254
Methodist Richardson Medical Center,hospital-based,2831 E President George Bush Hwy,,Richardson,Rhode Island,75082,,,,32.995734,-96.666323
Texas Oncology-McKinney,hospital-based,5236 W University Dr,Suite 1000,McKinney,Texas,75071,972 542-8609,,,33.221079,-96.682357
X-Ray Associates at Farmington,hospital-based,1750 E 30th St,,Farmington,New Mexico,87401,,,https://xranm.com/locations/mri-scan-farmington/,36.757009,-108.183866