locationName,centerType,address1,address2,city,zip,phoneNumber,phoneExtension,websiteUrl,latitude,longitude,status
Salem Health  Hospitals and Clinics,hospital-based,890 Oak St SE,,Salem,97301,503 561-5200,,https://www.salemhealth.org/,44.932562,-123.034219,New
"OHSU Knight Cancer Institute Clinic, Beaverton",hospital-based,15700 SW Greystone Ct,,Beaverton,97006,971 262-9000,,https://www.ohsu.edu/knight-cancer-institute/ohsu-knight-cancer-institute-beaverton?utm_source=gmb&utm_medium=organic&utm_content=975e13f4-8900-5d9f-8c59-26d99b75ba68,45.5139591,-122.8383402,New
Peter O. Kohler Pavilion,hospital-based,808 SW Campus Dr,,Portland,97239,503 494-8311,,https://www.ohsu.edu/visit/peter-o-kohler-pavilion?utm_source=gmb&utm_medium=organic&utm_content=Building-KohlerPavilion,45.4991139,-122.6851334,New
Kadlec Outpatient Imaging Center,hospital-based,945 Goethals Dr,,Richland,99352,509 942-2655,,https://www.providence.org/locations/kadlec/outpatient-imaging-center?ls=location&y_source=1_Mjk0MDE5NTQtNzE1LWxvY2F0aW9uLndlYnNpdGU%3D,46.2791222,-119.2813503,New
Summit Cancer Centers,hospital-based,6001 N Mayfair St,,Spokane,99208,509 462-2273,,https://www.summitcancercenters.com/?utm_source=GMBSocialClimb&utm_medium=SummitCancerCenters,47.7124747,-117.4089363,New
Valley Diagnostic Imaging Services ? Medical Arts,hospital-based,"4033 Talbot Rd S, Suite 360",,Renton,98055,4256906290,,,47.444228,-122.214555,New
Overlake Medical Center,hospital-based,1035 116th Ave NE,,Bellevue,98004,425 688-5000,,https://www.overlakehospital.org/,47.6203863,-122.1876044,New
Havasu Regional M.C. Outpatient Radiology,hospital-based,1840 Mesquite Ave,Suite D,Lake Havasu City,86403,928855-8185,,https://www.havasuregional.com/locations/hrmc-outpatient-diagnostic-center,34.478518,-114.336683,New
El Camino Health - Los Gatos Hospital,hospital-based,815 Pollard Rd,,Los Gatos,95032,408 378-6131,,https://locations.elcaminohealth.org/los-gatos-hospital-campus/815-pollard-rd/hospital-lg?utm_campaign=listings&utm_source=google&utm_medium=location_link&utm_content=hospital-lg,37.2627564,-121.9696175,New
UCLA Health Santa Clarita Imaging and Intervention,hospital-based,"27235 Tourney Rd,",suite 1500,Valencia,91355,310-301-6800,,https://www.uclahealth.org/radiology/scic?utm_source=google&utm_medium=Yext,34.417876,-118.578294,New
Pacific Medical Imaging,stand-alone imaging center,707 S Garfield Ave,Suite #B1,Alhambra,91801,626 227-2727,,https://www.pmioc.com/,34.0888002,-118.1235786,New
Southwest Oncology Centers,hospital-based,2755 Silver Creek Rd,Suite 115,Bullhead City,86442,928 514-2222,,https://swoncology.net/,35.1105288,-114.5534517,New
Santa Clara Valley Medical Center,hospital-based,751 S Bascom Ave,,San Jose,95128,408 885-5000,,https://scvmc.scvh.org/home,37.3156102,-121.932964,New
Kern Radiology Medical Group,stand-alone imaging center,4500 Morning Dr,Suite 202,Bakersfield,93306,661 324-7000,,https://www.radnet.com/kern-radiology/locations/kern-radiology-rio-bravo,35.3938231,-118.9167441,New
Intermountain Healthcare,hospital-based,8285 West Arby Ave,Suite 100B,Las Vegas,89113,7029687205,,https://intermountainnv.org/clinic/san-martin-oncology-clinic/,36.0583762,-115.2721363,New
UVA Health Cancer Care Gainesville,hospital-based,7901 Lake Manassas Drive,,Dainesville,20155,703753-4045,,https://uvahealth.com/locations/UVA-Health-Cancer-Care-Gainesville-5746435,38.786922,-77.645827,New
The Radiology Clinic,stand-alone imaging center,12850 Middlebrook Road,Suite 110,Germantown,20874,301 217-0500,,https://theradclinic.com/,39.177381,-77.266486,New
University of Maryland SHORE REGIONAL HEALTH,hospital-based,10A Martin Ct,,Easton,21601,443 225-7474,,https://www.umms.org/shore/locations/diagnostic-imaging-easton,38.7652207,-76.0645787,New
Delaware Imaging Network | Omega Professional Center - Omega Imaging,stand-alone imaging center,"L-6, Omega Dr",,Newark,19713,302 369-4342,,https://www.radnet.com/delaware-imaging-network/locations/omega-imaging?utm_source=GMB&utm_medium=DIN_Omega_Main&utm_campaign=GMB_DIN_Omega,39.6906007,-75.6757698,New
Northwell Health Imaging at North Fork,stand-alone imaging center,1333 Roanoke Ave,,Riverhead,11901,631 727-2755,,https://www.northwell.edu/imaging/locations/north-fork?utm_source=provider_listing&utm_medium=partner&utm_campaign=doctor_dot_com,40.9346496,-72.6757698,New
Princeton Radiology ? Freehold Office,hospital-based,901 West Main Street,,Freehold,7728,732-462-4844,,https://www.princetonradiology.com/locations/freehold/,40.236841,-74.313105,New
Rhode Island Hospital,hospital-based,593 Eddy St,,Providence,2903,,,,41.811334,-71.408932,New
Princeton Radiology ? Monroe Office,stand-alone imaging center,9 Centre Drive,,Monroe Township,8831,609-655-1448,,https://www.princetonradiology.com/locations/monroe/,40.33986,-74.461997,New
Zwanger-Pesiri Radiology,stand-alone imaging center,80 Maple Ave,,Smithtown,11787,631 265-5777,,https://zwangerpesiri.com/,40.8526256,-73.1978478,New
JFK Medical Center,hospital-based,"3548 Route 9 South,",Suite 101,Old Bridge,8857,732 321-7000,,https://www.hackensackmeridianhealth.org/en/Locations/JFK-University-Medical-Center,40.380846,-74.30898,New
JFK University Medical Center,hospital-based,65 James St,,Edison,8820,732 321-7000,,https://www.hackensackmeridianhealth.org/en/Locations/JFK-University-Medical-Center,40.5577682,-74.3492882,New
Butler Memorial Hospital,hospital-based,1 Hospital Way,,Butler Health System,16001,724 283-6666,,https://www.butlerhealthsystem.org/,40.867302,-79.880635,New
ImageCare at Jefferson,hospital-based,757 NJ-15,Suite 104,Lake Hopatcong,7849,973 810-8100,,https://imagecarecenters.com/jefferson-nj/,40.961279,-74.59667,New
UR Medicine Imaging ? East River Road,stand-alone imaging center,200 E River Rd,,Rochester,14623,,,https://www.urmc.rochester.edu/imaging/locations.aspx,43.111989,-77.628017,New
Dana-Farber Cancer Institute ? Merrimack Valley,stand-alone imaging center,5 Branch St,,Methuen,1844,,,https://www.dana-farber.org/about-us/locations/dana-farber-cancer-institute---merrimack-valley/?utm_source=google&utm_medium=organic&utm_content=mvall,42.707157,-71.215308,New
PET IMAGING INSTITUTE OF SOUTH FLORIDA - PEMBROKE,stand-alone imaging center,"603 N Flamingo Rd,",Suite 155,Permbroke Pines,33028,954-981-6668,,https://www.petimagingflorida.com/pembroke-pines/,26.012508,-80.310409,New
Ascension Sacred Heart Hospital Emerald Coast,hospital-based,7720 US HWY 98,Suite 140,Miramar Beach,32459,850 278-3835,,https://healthcare.ascension.org/locations/florida/flpen/miramar-beach-ascension-sacred-heart-emerald-coast,30.3782565,-86.3058932,New
Akumin Atlantis,hospital-based,"5051 S Congress Ave,",,Lake Worth,33461,561 795-5558,,https://akumin.com/?utm_source=Google&utm_medium=Yext&y_source=1_MTg1MDE0OTEtNzE1LWxvY2F0aW9uLndlYnNpdGU%3D,26.602996,-80.090114,New
Southeast Georgia Health System-Brunswick Campus,hospital-based,2415 Parkwood Dr,,Brunswick,31520,912 466-7000,,https://www.sghs.org/locations/brunswick-campus/,31.1748322,-81.4843639,New
Southwest Mississippi Regional Medical Center,stand-alone imaging center,215 Marion Ave,,McComb,39648,601 249-5500,,https://www.smrmc.com/,31.250978,-90.474668,New
Rocky Mountain Cancer Centers - Colorado Springs,hospital-based,"2312 N. Nevada Ave.,",Suite 400,Colorado Springs,80907,779-227-4864,,https://www.rockymountaincancercenters.com/locations/colorado-springs-penrose,38.86599,-104.820543,New
UCHealth Memorial Hospital North,hospital-based,"4050 Briargate Pkwy,",,Colorado Springs,80920,719 364-5000,,https://www.uchealth.org/locations/uchealth-memorial-hospital-north/,38.967042,-104.75492,New
OU Health ? Stephenson Cancer Center in OKC,hospital-based,800 NE 10th St,,Oklahoma City,73104,405-271-8001,,https://www.ouhealth.com/find-a-location/ou-health-stephenson-cancer-center/,35.477308,-97.497484,New
Freeman Physician Group of Pittsburg,hospital-based,1201 E Centennial Drive,,Pittsburg,66762,620 231-0204,,https://www.freemanhealth.com/location/freeman-physician-group-of-pittsburg-oncology-services,37.410884,-94.70496,New
Genesis Cancer and Blood Institute ? Hot Springs,hospital-based,133 Harmony Park Circle,,Hot Springs,71913,501-624-7700,63819.0,https://www.genesiscancerblood.com/?utm_source=GMBSocialClimb&utm_medium=GenesisCancerandBloodInstitute,34.464029,-93.066913,New
VANDERBILT UNIVERSITY MED CTR,hospital-based,1301  Medical Center DRRRB1,"RM 1276, PET Center",Nashville,37232,615-322-5000,,https://search.vanderbilthealth.com/locations/vanderbilt-clinic,36.142585,-86.801276,New
SSM Health Good Samaritan Hospital - Mt. Vernon,hospital-based,1 Good Samaritan Way,,Mt Vernon,62864,618 242-4600,,https://www.ssmhealth.com/locations/illinois/good-samaritan-hospital-mt-vernon?utm_id=sys-listings-1&linksource=sys_listing_links-gmb_listing&y_source=1_MjMyNTc1ODUtNzE1LWxvY2F0aW9uLndlYnNpdGU%3d,38.2972482,-88.9377575,New
Barnes-Jewish West County Hospital,hospital-based,12634 Olive Blvd,,St. Louis,63141,314 996-8000,,https://www.barnesjewishwestcounty.org/?utm_source=google&utm_medium=organic&utm_campaign=yext&utm_content=gmb,38.67629,-90.467557,New
CHI Health Good Samaritan,hospital-based,10 East 31 Street,,Keasrney,68847,308 865-7100,,https://www.chihealth.com/good-samaritan.html?utm_source=LocalSearch&utm_medium=Facility&utm_campaign=CHIHealth&utm_term=CHIHealthGoodSamaritan&y_sour,40.707396,-99.081819,New
Missouri Cancer Associates,hospital-based,"1705 East Broadway,",Suite 100,Columbia,65201,,,https://missouricancer.com/locations/columbia/?utm_source=GMBSocialClimb&utm_medium=MissouriCancerAssociates,38.950411,-92.31315,New
SSM Health St. Joseph Hospital - Lake Saint Louis,hospital-based,"100 Medical Plaza, Lake",,St. Louis,63367,636-498-7949,,https://www.ssmhealth.com/locations/st-joseph-hospital-lake-saint-louis?utm_id=sys-listings-1&linksource=sys_listing_links-gmb_listing&y_source=1_MjMy,38.802821,-90.775751,New
Elizabeth Healthcare ? Edgewood Radiology,hospital-based,1 Medical Village Dr,,Edgewood,41017,859-301-2682,,https://www.stelizabeth.com/location/details/st-elizabeth-edgewood,39.013471,-84.563001,New
Cabell-Huntington Hospital,hospital-based,1340 Hal Greer Boulevard,,Huntington,25701,304 526-2000,,https://cabellhuntington.org/,38.4095335,-82.4270298,New
Mount Carmel ? West,hospital-based,793 W State St,,Columbus,43222,614 234-7400,,,39.957399,-83.021153,New
Ascension St. Vincent Hospital Indianapolis,hospital-based,2001 W 86th St,,Indianapolis,46260,317 338-2345,,,39.90908,-86.195835,New
University of Cincinnati ? West Chester Hospital,hospital-based,7690 Discovery Dr,,West Chester,45069,513 475-8867,,,39.360969,-84.366938,New
Greater Dayton Cancer Center,stand-alone imaging center,3120 Governor's Place Blvd,,Kettering,45409,937-425-8077,,https://www.daytonphysicians.com/,39.705801,-84.199265,New
OhioHealth Doctors Hospital,hospital-based,5100 West Broad Street,,Columbus,43228,614 544-1000,,https://www.ohiohealth.com/locations/hospitals/doctors-hospital?utm_source=yext&utm_medium=listings&utm_campaign=websiteclicksfacility,39.952738,-83.13734,New
\Mount Carmel ? East,hospital-based,6001 E Broad St,,Columbus,43213,614-234-7400,,,39.977112,-82.844453,New
Cheyenne Radiology Group,stand-alone imaging center,2003 Bluegrass Circle,,Cheyenne,82009,307 634-7711,,https://www.cheyrad.com/about-us/,41.158236,-104.7919527,New
OSF St. Mary Medical Center,hospital-based,3333 N. Seminary St,,Galesburg,61401,309 344-3161,,https://www.osfhealthcare.org/st-mary/services/diagnostics/pet-ct/,40.9870701,-90.3597578,New
OhioHealth Mansfield Hospital and Emergency Department,hospital-based,335 Glessner Ave,,Mansfield,44903,419 526-8000,,https://www.ohiohealth.com/locations/hospitals/mansfield-hospital?utm_source=yext&utm_medium=listings&utm_campaign=websiteclicksfacility,40.7526289,-82.5290683,New
Ivinson Memorial Hospital,hospital-based,255 N 30th St,,Laramie,82072,307 742-2141,,https://www.ivinsonhospital.org/,41.3129868,-105.5565052,New
Ingall's Memorial Hospital,hospital-based,6701 W. 159th St.,,Tinley Park,60477,708 915-5630,,https://www.uchicagomedicine.org/find-a-location/uchicago-medicine-at-ingalls-harvey,41.602129,-87.781298,New
Elkhart Clinic - Main Office,stand-alone imaging center,303 S Nappanee St,,Elkhart,46514,574 296-3200,,https://www.elkhartclinic.com/,41.6820982,-86.0042555,New
Mayo Health System,hospital-based,800 Medical Center Drive,,Fairmont,56031,507-618-7523,,https://www.mayoclinichealthsystem.org/locations/fairmont,43.640015,-94.450512,New
Prairie Lakes Cancer Center,hospital-based,401 9th Ave NW,,Watertown,57201,605 882-6800,,https://www.prairielakes.com/,44.9111282,-97.1206301,New
Mayo Clinic Health System,hospital-based,2200 NW 26th St,,Owatonna,55060,507 451-1120,,https://www.mayoclinichealthsystem.org/locations/owatonna?mc_id=&utm_source=yext&utm_medium=l&utm_content=owatonnaclinicgeneral&utm_campaign=mchsmarketing&geo=owatonna&placementsite=semn&invsrc=mchssemn&cauid=110693&y_source=1_MzkxODEyOS03MTUtbG9jYXRpb24u,44.1114518,-93.2507632,New
May Health Systems,hospital-based,900 West Avenue,,La Crosse,54601,608 785-0940,,https://www.mayoclinichealthsystem.org/locations/la-crosse?mc_id=&utm_source=yext&utm_medium=l&utm_content=lacrossemedicalcentergeneral&utm_campaign=mchsmarketing&geo=lacrosse&placementsite=swwi&invsrc=mchsswwi&cauid=110700&y_source=1_MzkxODA4NS03MTUtbG9j,43.8041647,-91.1544963,New
CentraCare - Rice Memorial Hospital,hospital-based,301 Becker Ave SW,,Willmar,56201,320 235-4543,,https://www.centracare.com/locations/centracare-rice-memorial-hospital/,45.1199948,-95.0460933,New
Mayo Clinic Health System,hospital-based,301 2nd St NE,,New Prague,56071,952 758-4431,,http://mayoclinichealthsystem.org/locations/new-prague?mc_id=&utm_source=yext&utm_medium=l&utm_content=newpraguemedicalcentergeneral&utm_campaign=mchsmarketing&geo=newprague&placementsite=swmn&invsrc=mchsswmn&cauid=110685&y_source=1_MzkxODA4Ni03MTUtbG9jYX,44.546252,-93.5744543,New
Midwest Radiology - St. Paul,stand-alone imaging center,"250 Thompson St,",,St Paul,55102,,,https://www.midwestradiology.com/us/locations-and-hours/downtown-st-paul,44.944086,-93.107023,New
Merchant Logo Aspirus Riverview Hospital,hospital-based,410 Dewey St,,Wisconsin Rapids,54494,715 423-6060,,https://www.aspirus.org/find-a-location/aspirus-riverview-hospital-437,44.3817334,-89.8303048,New
UCHealth Yampa Valley Medical Center,hospital-based,1024 Central Park Dr,,Steamboat Springs,80487,970 879-1322,,https://www.uchealth.org/locations/uchealth-yampa-valley-medical-center/,40.463177,-106.8150723,New
Minnesota Oncology,hospital-based,10150 Niagara Lane N,Suite 100,Maple Grove,55369,763 712-2100,,https://mnoncology.com/locations/maple-grove-clinic?utm_source=local-listings&utm_medium=google&utm_campaign=rio-listings,45.1392646,-93.4732091,New
MARSHFIELD MEDICAL CENTER- RICE LAKE,hospital-based,1700  W Stout St,,Rice Lake,54868,715-236-8484,,https://marshfieldclinic.org/locations/centers/Rice%20Lake%20-%20Marshfield%20Medical%20Center,45.506532,-91.759512,New
Aspirus Wausau Hospital,hospital-based,333 Pine Ridge Boulevard,,Wausau,54401,715 847-2121,,https://www.aspirus.org/find-a-location/aspirus-wausau-hospital-285,44.9657037,-89.6686901,New
Jackson Hole Medical Imaging,stand-alone imaging center,625 E Broadway Ave,,Jackson,83001,307 739-7281,,https://www.stjohns.health/services/diagnostic-imaging/,43.4806821,-110.7498053,New
Essentia Health Brainerd,hospital-based,523 N 3rd St,,Brainerd,56401,218-829-2861,,https://www.essentiahealth.org/find-facility/profile/essentia-health-st-josephs-medical-center-brainerd/,46.3620054,-94.2058917,New
Sun View Imaging,stand-alone imaging center,2525 S Telshor Blvd,,"Las Cruces,",88011,,,https://sunviewlascruces.com/,32.291727,-106.733646,New
Medical Center Hospital,hospital-based,500 W 4th St,,Odessa,79761,432 640-4000,,https://www.mchodessa.com/,31.8450091,-102.3737429,New
Baylor Scott & White Medical Center ? Temple,hospital-based,2401 S 31st St,,Temple,76508,,,https://www.bswhealth.com/locations/temple?utm_source=google-mybusiness&utm_medium=organic&utm_campaign=9479&y_source=1_MTM0MTE3MDctNzE1LWxvY2F0aW9uLn,31.076525,-97.365282,New
Baylor Scott & White Medical Center ? Hillcrest,hospital-based,100 Hillcrest Medical Blvd,,Waco,76712,254-202-5000,,https://www.bswhealth.com/locations/hillcrest-hospital,31.489071,-97.157647,New
Cancer Clinics of North Texas,stand-alone imaging center,12606 Greenville Ave,,Dallas,75243,469-364-7880,404.0,https://www.genesiscare.com/us/our-locations/dallas-lr8/,32.9184669,-96.7417888,New
Cancer Clinics of North Texas,stand-alone imaging center,6957  West Plano Pkway,Suite 1300,Plano,75093,469-364-7880,404.0,https://www.genesiscare.com/us/our-locations/plano-lr9/,33.031772,-96.8429504,New
Texas Oncology-Plano East,hospital-based,3705 W 15th St,,Plano,75075,972 867-3577,,https://www.texasoncology.com/cancer-centers/plano/plano-east/medical-oncology,33.0201755,-96.7632213,New
DCH Regional Medical Center,stand-alone imaging center,809 University Blvd E,,Tuscaloosa,35401,205 759-7111,,https://www.dchsystem.com/,33.205167,-87.526571,Closed
The Radiology Clinic,stand-alone imaging center,208 McFarland Cir,,Tuscaloosa,35406,205-345-2563,,https://www.tuscaloosaradiology.com/,33.234244,-87.536727,Closed
Birmingham VA Medical Center,hospital-based,700 19th St S,,Birmingham,35233,205 933-8101,,https://www.va.gov/birmingham-health-care/,33.504121,-86.801555,Closed
ASCENSION ST. VINCENT'S BIRMINGHAM,hospital-based,2728 10TH AVE SOUTH,Suite 300,Birmingham,35205,205-930-2670,,https://healthcare.ascension.org/locations/alabama/albir/birmingham-ascension-st-vincents-birmingham-bruno-cancer-center?utm_campaign=gmb-website&utm_,33.50833,-86.786759,Closed
Ascension St. Vincent‚Äôs East,hospital-based,50 Medical Park Dr,E,Birmingham,35235,,,https://healthcare.ascension.org/locations/alabama/albir/birmingham-ascension-st-vincents-east?utm_campaign=gmb&utm_medium=organic&utm_source=local,33.596457,-86.66765,Closed
OMI of Gadsden,stand-alone imaging center,1026 Goodyear Ave,#50,Gadsden,35903,,,,34.009415,-85.965338,Closed
Genesis Cancer and Blood Institute ‚Äì Hot Springs,hospital-based,133 Harmony Park Circle,,Hot Springs,71913,501-624-7700,63819.0,https://www.genesiscancerblood.com/?utm_source=GMBSocialClimb&utm_medium=GenesisCancerandBloodInstitute,34.464029,-93.066913,Closed
Northern Arizona Radiology,hospital-based,77 W Forest Ave,# 101,Flagstaff,86001,928 773-2515,,https://northernarizonaradiology.com/,35.209734,-111.643882,Closed
SIMONMED IMAGING - PRESCOTT VALLEY,stand-alone imaging center,3033 N Windsong Dr,Suite 102,Prescott  Valley,86314,866-614-8555,,https://www.simonmed.com/locations/all/simonmed_imaging___prescott_valley,34.587087,-112.326419,Closed
Verde Valley Medical Center,hospital-based,269 South Candy Lane,,Cottonwood,86326,,,,34.735408,-112.029007,Closed
Verde Valley Medical Center - Sedona Campus,hospital-based,3700 W State Rte 89A,,Sedona,86336,,,,34.855904,-111.823491,Closed
SIMONMED IMAGING - WILMOT,stand-alone imaging center,310 N Wilmot Rd,Suite 302,Tucson,85711,866-614-8555,,https://www.simonmed.com/locations/all/simonmed_imaging___wilmot,32.225228,-110.856805,Closed
ARIZONA ONCOLOGY ASSOCIATES - EASTSIDE,stand-alone imaging center,2951   North Swan Rd,Suite 155,Tuscon,85712,520-323-5900,,https://arizonaoncology.com/locations/pet-center/,32.260543,-110.893384,Closed
"RADIOLOGY LTD, TUCSON PET IMAGING",stand-alone imaging center,4640  E Camp Lowell Imaging Center,,Tucson,85712,520-733-7226,,https://radltd.com/,32.264694,-110.893617,Closed
Banner University Medicine - Tucson,hospital-based,3838 N Campbell Ave,Bldg 2,Tucson,85719,,,https://www.bannerhealth.com/locations/tucson/banner-university-medicine-north-campbell?y_source=1_MTE5MDczODMtNzE1LWxvY2F0aW9uLmdvb2dsZV93ZWJzaXRlX29,32.276548,-110.943166,Closed
Cobre Valley Community Hospital,hospital-based,5880 N Hospital Dr,,Globe,85501,928 425-3261,,https://cvrmc.org/,33.410777,-110.826964,Closed
Summit Healthcare Regional Medical Center,hospital-based,2200 E Show Low Lake Rd,,Show Low,85901,,,,34.202814,-110.017981,Closed
Arizona Diagnostic Radiology,stand-alone imaging center,1840 W Apache Trail,,Apache Junction,85120,,,https://www.arizonadiagnosticradiology.com/?utm_source=GMB_Listing&utm_medium=organic,33.415671,-111.56609,Closed
SIMONMED IMAGING - SAN BERNARDINO,stand-alone imaging center,225 W Hospitality Ln,Suite 100,San Bernadino,92408,949-330-8996,,https://www.simonmed.com/locations/all/simonmed_imaging___san_bernardino,34.065266,-117.288366,Closed
ARIZONA CENTER FOR CANCER CARE,hospital-based,14674 West Mountain View Blvd,Suite 113,Surprise,85374,855-485-4673,,https://www.honorhealth.com/locations/specialty-care/honorhealth-virginia-g-piper-cancer-care-network-surprise?utm_source=GMB&utm_medium=local&utm_campaign=Honorhealth_Virginia_G_Piper_Cancer_Care_Network_Surprise,33.655293,-112.376548,Closed
Banner Imaging Lakes,stand-alone imaging center,10474 W Thunderbird Blvd,Suite 100,Sun City,85351,480 610-7400,,,33.605581,-112.283948,Closed
Western Regional Medical Center,hospital-based,14200 Celebrate Life Way,,Goodyear,85338,623-760-7440,,,33.453974,-112.364512,Closed
SIMONMED IMAGING - PEORIA,stand-alone imaging center,9139 W Thunderbird Rd,Suite 112,Peoria,85381,866-614-8555,,https://www.simonmed.com/locations/all/simonmed_imaging__peoria_plaza,33.608102,-112.255633,Closed
SIMONMED IMAGING - PALM VALLEY,stand-alone imaging center,13657 W McDowell Rd,Suite 111,Goodyear,85395,866-614-8555,,https://www.simonmed.com/locations/all/simonmed_imaging___goodyear_palm_valley,33.463468,-112.35318,Closed
Sun Radiology,stand-alone imaging center,16222 N. 59th Ave,,Glendale,85308,,,https://www.sunradiology.com/,33.632867,-112.18671,Closed
Banner Imaging Paseo,stand-alone imaging center,5605 W Eugie Ave,Suite 110,Glendale,85304,,,https://www.bannerhealth.com/locations/glendale/banner-imaging-eugie-110?utm_source=GMB&utm_medium=Listing&utm_campaign=Imaging+WebCTA&y_source=1_MTI3,33.607108,-112.181491,Closed
SIMONMED IMAGING - THUNDERBIRD,stand-alone imaging center,5410 W Thunderbird Rd,Suite 100,Glendale,85306,866-614-8555,,https://www.simonmed.com/locations/all/simonmed_imaging___thunderbird,33.61115,-112.175905,Closed
Phoenix VA Medical Center,hospital-based,650 East Indian School Rd,,Phoenix,85012,602-277-5551,,https://www.va.gov/phoenix-health-care/,33.495641,-112.065941,Closed
SIMONMED IMAGING - CHANDLER SOUTH,stand-alone imaging center,725 S Dobson Rd Ste,A105,Chandler,85224,866-614-8555,,https://www.simonmed.com/locations/all/simonmed_interventional_radiology___chandler_south,33.293921,-111.875532,Closed
ARIZONA CENTER FOR CANCER CARE - TEMPE,hospital-based,7695 S RESEARCH DR SUITE B,,Tampe,85284,,,,33.348412,-111.895891,Closed
Banner - University Medical Center Phoenix,hospital-based,925 E McDowell Rd,,Phoenix,85006,602 521-3700,,https://www.bannerhealth.com/locations/phoenix/banner-md-anderson-cancer-center-at-banner-university-phoenix?y_source=1_MTI5ODkzMTMtNzE1LWxvY2F0aW9uLn,33.465427,-112.061004,Closed
SIMONMED IMAGING - PHOENIX,stand-alone imaging center,2620 N 3rd St,Suite 101,Phoenix,85004,866-614-8555,,https://www.simonmed.com/locations/all/simonmed_imaging___phoenix,33.477297,-112.0699,Closed
SIMONMED IMAGING - COPPERPOINT,stand-alone imaging center,3570 S Val Vista Dr,Suite 101,Gilbert,85297,866-614-8555,,https://www.simonmed.com/locations/all/simonmed_imaging___copperpoint,33.285531,-111.755923,Closed
SOUTHWEST MEDICAL IMAGING - GILBERT,stand-alone imaging center,3645 South Rome St,Suite 101,Gilbert,85297,480-425-5030,,https://www.esmil.com/,33.284734,-111.750008,Closed
BANNER MD ANDERSON CANCER CENTER,hospital-based,2946  E Banner Gateway Dr,2nd Floor Room 200138,Gilbert,85234,602-256-3334,,https://www.bannerhealth.com/locations/gilbert/banner-md-anderson-cancer-center-gilbert?y_source=1_MTE5MDczMDgtNzE1LWxvY2F0aW9uLmdvb2dsZV93ZWJzaXRlX292ZXJyaWRl,33.382995,-111.725947,Closed
SIMONMED IMAGING - GREENFIELD,stand-alone imaging center,1425 South Greenfield Rd,Suite 114,Mesa,85206,866-614-8555,,https://www.simonmed.com/locations/all/simonmed_imaging___greenfield,33.389872,-111.735988,Closed
SOUTHWEST MEDICAL IMAGING - SCOTTSDALE,stand-alone imaging center,9220 East Mountain View Rd,Suite 100,Scottdale,85258,480-425-5000,,https://www.esmil.com/,33.576421,-111.87981,Closed
SIMONMED IMAGING - SCOTTSDALE,stand-alone imaging center,6740 East Camelback Rd,Suite 100,Scottdale,85251,866-614-8556,,https://www.simonmed.com/locations/all/simonmed_imaging___fashion_square,33.50247,-111.93632,Closed
SIMONMED IMAGING - DESERT RIDGE,stand-alone imaging center,20830 N Tatum Blvd,Suite 190,Phoenix,85050,866-614-8555,,https://www.simonmed.com/locations/all/simonmed_imaging___desert_ridge,33.674303,-111.980475,Closed
MAYO CLINIC ARIZONA,hospital-based,5881  E. Mayo Blvd,,Phoenix,85054,800-446-2279,,https://www.mayoclinic.org/patient-visitor-guide/arizona/,33.658361,-111.954499,Closed
Banner Imaging Paradise Valley,hospital-based,16641 N 40th St,Suite 1A,Phoenix,85032,,,,33.638541,-111.995519,Closed
Arizona Center for Cancer Care - Phoenix,hospital-based,2222 E Highland Ave,Suite 130,Phoenix,85016,,,,33.506413,-112.033385,Closed
Kern Radiology Medical Group,stand-alone imaging center,4500 Morning Dr #202,,Bakersfield,93306,661 324-7000,,https://www.radnet.com/kern-radiology/locations/kern-radiology-rio-bravo,35.393768,-118.91676,Closed
CARE Cancer Center,hospital-based,7130 N Millbrook Ave,,Fresno,93720,,,https://ccare.com/,36.839034,-119.762238,Closed
RADNET- VALLEY METABOLIC IMAGING,stand-alone imaging center,6121 North Thesta Ave,Suite 207,Fresno,93710,559-449-2640,,https://www.radnet.com/central-california/locations/valley-metabolic-imaging,36.824899,-119.783746,Closed
"Modesto Radiology Imaging, Inc.",stand-alone imaging center,1524 McHenry Av,#100,Modesto,95350,209 577-4444,,,37.66569,-120.993502,Closed
Sutter Imaging Roseville PET,hospital-based,2241 Douglas Blvd,#110,Roseville,95661,,,https://www.sutterhealth.org/find-location/facility/sutter-imaging-roseville-pet,38.744678,-121.242999,Closed
Northern California PET Mobile - Roseville,stand-alone imaging center,406 Sunrise Ave,,Roseville,95661,,,,38.73945,-121.272932,Closed
VA Medical Center Sacramento,hospital-based,10535 Hospital Way,,Mather,95655,,,https://www.va.gov/northern-california-health-care/,38.5732,-121.295448,Closed
Adventist Health Cancer Care - Lodi,hospital-based,2407 W Vine St,,Lodi,95630,,,,38.123185,-121.304431,Closed
Dignity Health Advanced Imaging - Carmichael,stand-alone imaging center,6305 Coyle Ave,,Carmichael,95608,,,https://locations.dignityhealth.org/dignity-health-advanced-imaging-carmichael?utm_source=LocalSearch&utm_medium=Facility&utm_campaign=Lisa&utm_term=M,38.668262,-121.318207,Closed
Advanced Imaging - Sacramento,stand-alone imaging center,3301 C St,#500,Sacramento,95816,,,,38.579536,-121.45802,Closed
Sutter Imaging Sacramento,hospital-based,3161 L St,,Sacramento,95816,,,https://www.sutterhealth.org/find-location/facility/sutter-imaging-sacramento,38.57095,-121.464097,Closed
NORTHERN CALIFORNIA PET IMAGING CENTER,stand-alone imaging center,3195 Folsom Blvd,,Sacramento,95816,916-737-3211,,https://www.norcalscans.org/,38.568728,-121.465212,Closed
AKUMIN/ALLIANCE - WOODLAND HEALTHCARE,hospital-based,1325 Cottonwood St,,Woodland,95695,530 662-3961,,,38.664101,-121.792097,Closed
Northern California PET Mobile Vacaville,stand-alone imaging center,1360 Burton Dr,,Vacaville,95687,,,,38.364121,-121.954655,Closed
UCLA Health Santa Clarita Imaging and Intervention,hospital-based,"27235 Tourney Rd, ",suite 1500,Valencia,91355,310-301-6800,,https://www.uclahealth.org/radiology/scic?utm_source=google&utm_medium=Yext,34.417876,-118.578294,Closed
KECK Medical Center of USC,hospital-based,1510 San Pablo St,Suite 350,Los Angeles,90033,,,https://www.keckmedicine.org/locations/1510-san-pablo-st-los-angeles/,34.062383,-118.201994,Closed
LAC & USC Medical Center,hospital-based,1983 Marengo St,,Los Angeles,90033,323 409-1000,,https://dhs.lacounty.gov/lacusc/,34.05769,-118.208312,Closed
United Medical Imaging of Los Angeles,stand-alone imaging center,1127 Wilshire Blvd #100,,Los Angeles,90017,,,,34.052864,-118.264113,Closed
Epic Care - Dublin,stand-alone imaging center,6380 Clark Ave,,Dublin,94568,,,https://epic-care.com/,37.704769,-121.9214,Closed
Magnetic Imaging Affiliates,stand-alone imaging center,5730 Telegraph Ave,,Oakland,94609,,,,37.843525,-122.261046,Closed
PET/CT Imaging of Berkeley,stand-alone imaging center,2855 Telegraph Ave,Suite 100,Berkeley,94705,510-204-9400,,https://petctberkeley.com/,37.858198,-122.258897,Closed
UCSF Medical Center & UCSF,hospital-based,1855 Folsom St,,San Francisco,94143,,,,37.76734,-122.415048,Closed
Sutter California Pacific Medical Center,hospital-based,1101 Van Ness Ave,,San Francisco,94109,,,https://www.sutterhealth.org/find-location/facility/cpmc-van-ness-campus,37.786041,-122.422747,Closed
Eden Medical Center,hospital-based,20103 Lake Chabot Rd,,Castro Valley,94546,,,https://www.sutterhealth.org/find-location/facility/eden-medical-center,37.698269,-122.090313,Closed
SIMONMED IMAGING - DALY CITY,stand-alone imaging center,455 Hickey Blvd,Suite 200,Daly City,94015,866-614-8555,,https://www.simonmed.com/locations/all/simonmed_imaging___daly_city,37.663286,-122.467289,Closed
San Francisco VA Medical Center,hospital-based,4150 Clement St,,San Francisco,94121,,,https://www.va.gov/san-francisco-health-care/,37.783668,-122.503283,Closed
RADNET- NORCAL IMAGING WALNUT CREEK,stand-alone imaging center,114 LA CASA VIA,#100,Walnut Creek,94507,925-937-6100,,https://www.radnet.com/northern-california/locations/walnut-creek,37.911688,-122.04499,Closed
Muir Oncology Imaging & Treatment,stand-alone imaging center,3000 Oak Rd,# 111,Walnut Creek,94597,,,,37.92977,-122.0572,Closed
California Care Imaging Center,stand-alone imaging center,400 Taylor Blvd,#105,Pleasant Hill,94523,,,https://www.johnmuirhealth.com/services/cancer-services.html,37.961832,-122.074048,Closed
MarinHealth PET/CT Imaging,stand-alone imaging center,4000 Civic Center Dr,Suite 110,San Rafael,94903,,,https://www.mymarinhealth.org/,38.00449,-122.538277,Closed
UKIAH Valley Memorial Hospital,hospital-based,245 Hospital Dr,,Ukiah,95482,707 463-7587,,https://www.adventisthealth.org/locations/outpatient-pavilion-lab-ukiah/,39.152157,-123.202524,Closed
Santa Rosa Memorial Hospital,hospital-based,"121 Sotoyome St, ",,Santa Rosa,95405,,,https://www.providence.org/locations/norcal/santa-rosa-memorial-hospital,38.442213,-122.701813,Closed
Queen of the Valley Medical Center,hospital-based,1000 Trancas St,,Napa,94558,,,https://www.providence.org/locations/norcal/queen-of-the-valley?y_source=1_ODI0NjgxOC03MTUtbG9jYXRpb24uZ29vZ2xlX3dlYnNpdGVfb3ZlcnJpZGU=#llaid=9241,38.324482,-122.297109,Closed
United Medical Imaging of Downey,hospital-based,11411 Brookshire Ave,Suite 101,Downey,90241,424-251-1105,,https://www.umih.com/,33.9365,-118.131318,Closed
CEDARS-SINAI MEDICAL CENTER,hospital-based,8700 BEVERLY BLVD,,Los Angeles,90048,310-423-8000,,https://www.cedars-sinai.org/locations/cedars-sinai-main-campus-89.html,34.07611,-118.379999,Closed
Kaiser Permanente West Los Angeles Medical Center,hospital-based,6041 Cadillac Ave,,Los Angeles,90034,833 574-2273,,https://healthy.kaiserpermanente.org/southern-california/facilities/West-Los-Angeles-Medical-Center-100028,34.03888,-118.3751,Closed
SIMONMED IMAGING - LAGUNA HILLS,stand-alone imaging center,24022 Calle De La Plata,Suite 100,Laguna Hills,92653,949-330-8996,,https://www.simonmed.com/locations/all/simonmed_imaging__laguna_hills,33.610231,-117.710854,Closed
CANCER CENTER OF IRVINE,stand-alone imaging center,16100 Sand Canyon Ave,Suite 130,Irvine,92618,949-417-1100,,https://kskcancercenter.com/,33.662882,-117.771707,Closed
Hoag Health Center Irvine - Sand Canyon,hospital-based,16305 Sand Canyon Ave,,Irvine,92618,,,https://www.hoag.org/locations/hoag-health-center-irvine-sand-canyon/?utm_source=google&utm_medium=local&utm_content=hhci-sc-16305,33.66215,-117.774077,Closed
WaveImaging Irvine Barranca,hospital-based,4050 Barranca Pkwy,# 160,Irvine,92604,,,https://www.radnet.com/orange-county/locations/waveimaging-irvine-barranca,33.681772,-117.807939,Closed
ALLIANCE HEALTHCARE SERVICES - CENTRAL ORDERING,hospital-based,18201 Von Karman Ave,Suite 600,Irvine,92623,800-544-3215,,https://www.alliancehealthcareservices-us.com/about-us/locations/,33.677931,-117.853579,Closed
RADNET - BEVERLY TOWER ADVANCED IMAGING CENTER,stand-alone imaging center,8750 Wilshire Blvd.,,Beverly Hills,90211,310-445-2940,,https://www.radnet.com/los-angeles/locations/beverly-tower-wilshire-advanced-imaging,34.06637,-118.382808,Closed
Beverly Hills Cancer Center,stand-alone imaging center,8900 Wilshire Blvd,200,Beverly Hills,90211,424-252-1625,,https://www.bhcancercenter.com/contact/book-an-appointment/,34.06672,-118.385967,Closed
Palo Alto Medical Foundation,hospital-based,795 El Camino Real,,Palo Alto,94301,,,https://www.sutterhealth.org/pamf,37.440078,-122.161352,Closed
Stanford Neuroscience Health Center,hospital-based,213 Quarry Rd,,Stanford,94305,650 723-6469,,,37.441599,-122.169349,Closed
Stanford Healthcare Nuclear Medicine,hospital-based,300 Pasteur Dr Nuclear Medicine,H2200,Stanford,94305,650-723-6855,,https://stanfordhealthcare.org/medical-clinics/nuclear-medicine-molecular-imaging.html?ecid=glocalsearch-ls-google-clinicpage-all-NuclearMedicineandMolecularImaging,37.433075,-122.175049,Closed
University of California Irvine Medical Center,hospital-based,101 The City Drive,Bldg 20,Orange,92868,714-456-6150,,https://www.ucihealth.org/,33.787166,-117.888322,Closed
PROVIDENCE ST JOSEPH HOSPITAL - ORANGE,hospital-based,1140 W La Veta Ave,,Orange,92868,714-744-8705,,https://www.providence.org/locations/st-joseph-hospital-orange,33.778914,-117.865026,Closed
Inglewood Imaging  Center,stand-alone imaging center,211 N Prairie Ave,,Inglewood,90301,,,https://inglewoodimaging.com/,33.964867,-118.344414,Closed
Inglewood Imaging Center,hospital-based,211 North Prairie,Suite E,Inglewood,90301,310 672-9729,,https://www.radnet.com/los-angeles/locations/inglewood-advanced-imaging,33.964867,-118.344414,Closed
Cedar Sinai Tower Hematology and Oncology,stand-alone imaging center,9090 Wilshire Blvd,200,Beverly Hills,90211,310-888-8680,,https://www.cedars-sinai.org/locations/tower-hematology-oncology-medical-group-167.html,34.066642,-118.389381,Closed
Cedars-Sinai Tower Hematology Oncology,hospital-based,9090 Wilshire Blvd,#300,Beverly Hills,90211,,,https://www.cedars-sinai.org/programs/cancer/tower-hematology-oncology.html,34.066642,-118.389381,Closed
Rocky Mountain Cancer Centers - Colorado Springs,hospital-based,"2312 N. Nevada Ave., ",Suite 400,Colorado Springs,80907,779-227-4864,,https://www.rockymountaincancercenters.com/locations/colorado-springs-penrose,38.86599,-104.820543,Closed
UCHealth Memorial Hospital North,hospital-based,"4050 Briargate Pkwy, ",,Colorado Springs,80920,719 364-5000,,https://www.uchealth.org/locations/uchealth-memorial-hospital-north/,38.967042,-104.75492,Closed
University of Colorado Hospital,hospital-based,1635 Aurora Ct,,Aurora,80045,,,https://www.uchealth.org/locations/uchealth-anschutz-outpatient-pavilion/,39.742118,-104.840177,Closed
Community Hospital Grand Junction,hospital-based,2351 G Rd,,Grand Junction,81505,,,https://yourcommunityhospital.com/,39.105115,-108.615113,Closed
St Mary's Medical Center,hospital-based,635 N 7th St,,Grand Junction,81501,970 298-2273,,,39.073099,-108.561462,Closed
Valley View Hospital,hospital-based,1906 Blake Ave,,Gleenwood Spring,81601,,,,39.532654,-107.321862,Closed
Touchstone Imaging PET at Red Rocks,stand-alone imaging center,400 Indiana St,,Golden,80401,720 779-3200,,,39.722308,-105.163555,Closed
St. Anthony's Outpatient Imaging Center,hospital-based,"11700 W 2nd Pl, , CO ",,Lakewood,80228,720 321-0000,,https://www.centura.org/location/st-anthony-hospital?utm_source=yext&utm_medium=organic_google&utm_term=3818557065890446230&utm_content=facilities_lan,39.715489,-105.130116,Closed
Centura Health Physician Group CHPG Primary Care,hospital-based,950 E Harvard Ave,,Denver,80210,,,,39.670442,-104.976444,Closed
Akumin Atlantis,hospital-based,"5051 S Congress Ave, ",,Lake Worth,33461,561 795-5558,,https://akumin.com/?utm_source=Google&utm_medium=Yext&y_source=1_MTg1MDE0OTEtNzE1LWxvY2F0aW9uLndlYnNpdGU%3D,26.602996,-80.090114,Closed
PET IMAGING INSTITUTE OF SOUTH FLORIDA - PEMBROKE,stand-alone imaging center,"603 N Flamingo Rd, ",Suite 155,Permbroke Pines,33028,954-981-6668,,https://www.petimagingflorida.com/pembroke-pines/,26.012508,-80.310409,Closed
PIEDMONT PET/CT IMAGING,hospital-based,20 Francis Way,101,Sharpsburg,30277,678 854-2980,,,33.403058,-84.662216,Closed
Northside Fayetteville Imaging,stand-alone imaging center,1260 Hwy 54 W,#204,Fayetteville,30214,,,https://www.northside.com/locations/northsidefayetteville-imaging,33.449822,-84.508701,Closed
Wellstar Imaging Center,stand-alone imaging center,340 Kennestone Hospital Blvd,Suite 10,Marietta,30060,,,https://www.wellstar.org/maintenancepage?aspxerrorpath=/locations/pages/imaging-center-detail.aspx,33.969387,-84.553422,Closed
Emory University Hospital Midtown-Radiology,hospital-based,550 Peachtree St NE,,Atlanta,30308,,,https://www.emoryhealthcare.org/locations/index.html,33.76889,-84.385694,Closed
Northside Hospital Cherokee,hospital-based,450 Northside Cherokee Blvd,,Canton,30115,,,https://www.northside.com/locations/northside-hospital-cherokee,34.229304,-84.465174,Closed
Northside Hospital Forsyth,hospital-based,1200 Northside Forsyth Drive,,Cumming,30041,770-596-8635,,https://www.northside.com/locations/northside-hospital-forsyth,34.17855,-84.140324,Closed
NORTHSIDE HOSPITAL,hospital-based,1000 Johnson Ferry Rd NE,,Atlanta,30342,404-851-8941,,https://www.northside.com/locations/northside-hospital-atlanta,33.909375,-84.354616,Closed
Emory St. Joseph's Hospital,hospital-based,5671 Peachtree Dunwoody Rd. NE,Suite 100,Atlanta,30342,678-843-6137,,https://www.emoryhealthcare.org/locations/hospitals/emory-saint-josephs-hospital/index.html?hcmacid=a0Z1P00000GmrDb&utm_campaign=locations_fy21&utm_so,33.9097,-84.350285,Closed
Grady Health System,hospital-based,80 Jesse Hill Jr Dr SE,,Atlanta,30303,404 616-1000,,https://www.gradyhealth.org/,33.752031,-84.381105,Closed
Emory Winship Cancer Institute,hospital-based,1365 E Clifton Rd NE,Building C,Atlanta,30322,,,https://winshipcancer.emory.edu/?hcmacid=a0Z1P00000GmrDb&utm_campaign=locations_fy21&utm_source=gmb&utm_medium=referral&utm_content=gmb_locations,33.781234,-84.32255,Closed
Emory Hospital,hospital-based,1364 Clifton Rd,,Atlanta,30322,,,https://www.emoryhealthcare.org/radiology/treatments/index.html#contact,33.792828,-84.319114,Closed
Northeast Georgia Imaging Center,stand-alone imaging center,1315 Jesse Jewell Pkwy,#100,Gainesville,30501,,,https://www.nghs.com/imaging-center-gainesville,34.30525,-83.811251,Closed
Emory Johns Creek Hospital,hospital-based,6325 Hospital Pkwy,,Johns Creek,30097,,,https://www.emoryhealthcare.org/locations/hospitals/emory-johns-creek-hospital/index.html?hcmacid=a0Z1P00000GmrDb&utm_campaign=locations_fy21&utm_sour,34.066701,-84.176432,Closed
Northside Hospital - Outpatient Imaging,hospital-based,631 Professional Dr,#190,Lawrenceville,30046,,,https://www.northside.com/locations/631-outpatient-imaging,33.962468,-84.018477,Closed
Piedmont Athens Regional,hospital-based,1199 Prince Avenue,,Athens,30606,706-475-1000,,https://www.piedmont.org,33.961393,-83.397967,Closed
PIEDMONT ATHENS REGIONAL MEDICAL CENTER,hospital-based,245 Talmadge Dr,,Athens,30606,706 475-7000,,,33.959715,-83.399737,Closed
Meadows Hospital PET/CT,hospital-based,1Meadows Pkwy,,Vidalia,30474,912 535-5555,,https://memorialhealth.com/locations/memorial-health-meadows/?utm_campaign=corp_listings_mgmt&utm_source=google&utm_medium=business_listing,32.209035,-82.375852,Closed
Piedmont Augusta,hospital-based,1350 Walton Way,,Augusta,30901,706 722-9011,,https://www.universityhealth.org/,33.47118,-81.983054,Closed
Augusta University Medical Center,hospital-based,1120 15th Street,,Augusta,30912,706-721-1023,,https://www.augustahealth.org,33.469917,-81.989742,Closed
Eisenhower Army Medical Center,hospital-based,300 E Hospital Rd,,Fort Gordon,30905,706 787-5811,,https://eisenhower.tricare.mil/,33.430562,-82.125714,Closed
Doctors Hospital of Augusta,hospital-based,3624 J Dewey Gray Cir,,Augusta,30909,866-235-7226,,https://doctors-hospital.net/physicians/index.dot?specialty=radiationOncology,33.48636,-82.097307,Closed
Atlanta VA Medical Center,hospital-based,1670 Clairmont Rd,,Decatur,30033,985-873-3786,,https://www.va.gov/atlanta-health-care/,33.801354,-84.3128,Closed
Northside Decatur Imaging,stand-alone imaging center,2545 Lawrenceville Hwy,"#250,",Decatur,30033,,,https://www.northside.com/locations/northside-dekalb-imaging,33.821165,-84.263312,Closed
Ingall‚Äôs Memorial Hospital,hospital-based,6701 W. 159th St.,,Tinley Park,60477,708 915-5630,,https://www.uchicagomedicine.org/find-a-location/uchicago-medicine-at-ingalls-harvey,41.602129,-87.781298,Closed
Advocate Condell Hospital,hospital-based,801 S. Milwaukee Ave.,,Libertyville,60048,847-990-5393,,https://www.advocatehealth.com/condell/,42.27461,-87.957651,Closed
Elmhurst Hospital - Main Campus,hospital-based,155 E Brush Hill Rd,,Elmhurst,60126,,,https://www.eehealth.org/locations/elmhurst/elmhurst-hospital-main-campus/?utm_campaign=gmb-website&utm_medium=organic&utm_source=google,41.86402,-87.935868,Closed
Elmhurst Cancer Center,hospital-based,177 E. Brush Hill Road,,Elmhurst,60126,331-221-0150,,https://www.eehealth.org/locations/elmhurst/nancy-w-knowles-cancer-center/?utm_campaign=gmb-website&utm_medium=organic&utm_source=google,41.863937,-87.93493,Closed
EDWARD HOSPITAL,hospital-based,801 South Washington St,,Naperville,60540,630-527-3200,,https://www.eehealth.org/locations/naperville/edward-hospital-main-campus/?utm_campaign=gmb-website&utm_medium=organic&utm_source=google,41.760659,-88.153422,Closed
NorthShore Highland Park Hospital,hospital-based,777 Park Ave W,,Highland Park,60035,,,https://www.northshore.org/locations/our-hospitals/highland-park-hospital/,42.190626,-87.807787,Closed
Advocate Christ Outpatient Pavilion,hospital-based,4440 W 95th St,,Oak Lawn,60453,,,https://care.advocatehealth.com/locations/advocate-christ-outpatient-pavilion-oak-lawn-il,41.721808,-87.732618,Closed
Advocate High Tech Medical Park,stand-alone imaging center,1800 SW Hwy,,Palos Heights,60463,708-923-3067,,https://care.advocatehealth.com/locations/advocate-high-tech-medical-park-palos-heights,41.719753,-87.768291,Closed
Elizabeth Healthcare ‚Äì Edgewood Radiology,hospital-based,1 Medical Village Dr,,Edgewood,41017,859-301-2682,,https://www.stelizabeth.com/location/details/st-elizabeth-edgewood,39.013471,-84.563001,Closed
MARY BIRD PERKINS CANCER CENTER - GONZALES,stand-alone imaging center,1104 West Highway 30,,Gonzales,70737,225-644-1205,,https://marybird.org/location/gonzales/,30.211866,-90.932246,Closed
MARY BIRD PERKINS CANCER CENTER - HAMMOND,hospital-based,15728 Paul Vega MD Drive,,Hammond,70403,985-542-5000,,https://marybird.org/location/hammond/,30.466094,-90.461294,Closed
Dana-Farber Cancer Institute ‚Äì Merrimack Valley,stand-alone imaging center,5 Branch St,,Methuen,1844,,,https://www.dana-farber.org/about-us/locations/dana-farber-cancer-institute---merrimack-valley/?utm_source=google&utm_medium=organic&utm_content=mvall,42.707157,-71.215308,Closed
Calvert Medical Imaging,stand-alone imaging center,130 Hospital Rd,Suite LL 100,Prince Frederick,20678,,,https://www.radnet.com/american-radiology/locations/calvert-medical-imaging-center?utm_source=GMB&utm_medium=ARS_CMIC_Main&utm_campaign=GMB_ARS_CMIC,38.561438,-76.597854,Closed
RADNET @ AMERICAN RAD SRVS - WALDORF,stand-alone imaging center,3510 Old Wshington Rd,Suite 101,Waldorf,20610,410-298-0454,,https://www.radnet.com/american-radiology/locations/waldorf?utm_source=GMB&utm_medium=ARS_Waldorf_Main&utm_campaign=GMB_ARS_Waldorf,38.615947,-76.915598,Closed
MAINE MEDICAL CENTER,hospital-based,100 Campus Dr,,Scarborough,4074,207-396-7750,,https://www.mainehealth.org/maine-medical-center/locations/scarborough-campus?utm_source=google&utm_medium=local,43.600384,-70.317696,Closed
Harold Alfond Center For Cancer Care,hospital-based,361 Old Belgrade Rd,,Augusta,4330,,,https://www.mainegeneral.org/medical-services/cancer-care/,44.363485,-69.784993,Closed
Akumin/Alliance- Lafayette Family Cancer Institute,hospital-based,33 Whiting Hill Rd,,Brewer,4412,207 973-7478,,,44.770278,-68.728992,Closed
St Mary's Mercy Livonia,hospital-based,36475 Five Mile Rd,,Livonia,48154,,,https://www.stjoeshealth.org/location/trinity-health-livonia-hospital,42.394555,-83.404364,Closed
Mayo Clinic Health System,hospital-based,2200 NW 26th St,,Owatonna,55060,507 451-1120,,https://www.mayoclinichealthsystem.org/locations/owatonna?mc_id=&utm_source=yext&utm_medium=l&utm_content=owatonnaclinicgeneral&utm_campaign=mchsmarke,44.111452,-93.250763,Closed
Midwest Radiology - St. Paul,stand-alone imaging center,"250 Thompson St, ",,St Paul,55102,,,https://www.midwestradiology.com/us/locations-and-hours/downtown-st-paul,44.944086,-93.107023,Closed
SSM Health St. Joseph Hospital - Lake Saint Louis,hospital-based," 100 Medical Plaza, Lake ",,St. Louis,63367,636-498-7949,,https://www.ssmhealth.com/locations/st-joseph-hospital-lake-saint-louis?utm_id=sys-listings-1&linksource=sys_listing_links-gmb_listing&y_source=1_MjMy,38.802821,-90.775751,Closed
Missouri Cancer Associates,hospital-based,"1705 East Broadway, ",Suite 100,Columbia,65201,,,https://missouricancer.com/locations/columbia/?utm_source=GMBSocialClimb&utm_medium=MissouriCancerAssociates,38.950411,-92.31315,Closed
MISSISSIPPI BAPTIST MEMORIAL - JACKSON,hospital-based,501  Marshall St,Ground Floor,Jackson,39202,601-968‚Äì1049,,https://www.baptistonline.org/,32.316028,-90.179571,Closed
University of Mississippi Medical Center,hospital-based,350 West Woodrow Wilson Drive,,Jackson,39213,601-984-2500,,https://www.umc.edu/,32.329379,-90.194872,Closed
"Catawba Valley Imaging Services, LLC",hospital-based,235 18th St SE,,Hickory,28602,828-326-3000,,https://www.catawbavalleyhealth.org/Medical-Center/Services/Imaging/Catawba-Valley-Imaging-Center.aspx,35.730422,-81.30749,Closed
New Hanover Regional Medical Center,hospital-based,2131 S 17th St,,Wilmington,28401,,,https://www.nhrmc.org/?utm_source=maps.google.com&utm_medium=organic&utm_campaign=GMB&utm_content=MC-17&ecid=gmblocamc17,34.207691,-77.921834,Closed
Gibson Cancer Center,hospital-based,1200 Pine Run Dr,,Lumberton,28358,,,https://www.dukehealth.org/locations/gibson-cancer-center-duke-cancer-network?utm_source=google&utm_medium=organic&utm_campaign=Directory%2BManagement,34.658558,-78.992405,Closed
FirstHealth Outpatient Imaging,hospital-based,30 Memorial Dr,,Pinehurst,28374,910 715-1000,,,35.207569,-79.452765,Closed
CarolinaEast Medical Center,hospital-based,2000 Neuse Blvd,,New Bern,28561,252-633-8861,,https://www.carolinaeasthealth.com/?utm_source=GMB&utm_medium=Organic,35.113956,-77.06724,Closed
WAKE PET SERVICES LLC,stand-alone imaging center,210 ASHVILLE AVE. SUITE 100a,,Cary,27518,,,,35.740023,-78.784123,Closed
210 PET Imaging,stand-alone imaging center,210  Ashville Ave,Suite 100a,Ashville,27518,908-268-7797,,https://www.wakemed.org/care-and-services/imaging-services/pet-ct-scan-at-210-pet-imaging,35.740208,-78.784035,Closed
DUKE RALEIGH HOSPITAL,hospital-based,3400 Wake Forest Rd,,Raleigh,27609,919-954-3000,,https://www.dukehealth.org/hospitals/duke-raleigh-hospital,35.827838,-78.618412,Closed
UNC Health Rex-PET Center,hospital-based,4420 Lake Boone Trail,,Raleigh,27607,,,https://www.rexhealth.com/rh/,35.817301,-78.70322,Closed
Novant Health Matthews Medical Center,hospital-based,1500 Matthews Township Pkwy,,Matthews,28105,704 384-6500,,,35.12034,-80.71428,Closed
Durham VA Health Care System,hospital-based,508 Fulton St,,Durham,27705,,,https://www.va.gov/durham-health-care/,36.009012,-78.938653,Closed
DUKE UNIVERSITY MEDICAL CENTER,hospital-based,3000  Erwin Rd,,Durham,27708,919-613-2115,,https://www.dukehealth.org/locations/duke-university-medical-center,36.005131,-78.950073,Closed
Novant Health Mint Hill Medical Center,hospital-based,8201 Healthcare Lp,,Charlotte,28215,,,https://www.novanthealth.org/mint-hill-medical-center.aspx?utm_source=maps.google.com&utm_medium=organic&utm_campaign=GMB&utm_content=MC-10&ecid=gmblo,35.223035,-80.648386,Closed
Novant Health Presbyterian Medical Center,hospital-based,200 Hawthorne Ln,,Charlotte,28204,,,,35.211965,-80.823895,Closed
Atrium Health Carolinas Medical Center,hospital-based,1000 Blythe Blvd,,Charlotte,28203,,,https://atriumhealth.org/locations/detail/carolinas-medical-center,35.203416,-80.838557,Closed
Atrium Health Imaging Center,stand-alone imaging center,1025 Morehead Medical Dr,#100,Charlotte,28204,,,https://atriumhealth.org/locations/detail/atrium-health-imaging-center-morehead,35.20563,-80.838557,Closed
Novant Health Imaging Julian Road,stand-alone imaging center,514 Corporate Cir,,Salisbury,28147,,,https://www.novanthealth.org/home/services/imaging/imaging-locations/novant-health-imaging-julian-road.aspx?utm_source=maps.google.com&utm_medium=orga,35.644628,-80.492176,Closed
CHARLOTTE VA HEALTH CARE CLINIC,hospital-based,3506 West Tyvola Rd,,Charlotte,28208,704-638-9000,3390.0,https://www.va.gov/salisbury-health-care/,35.19675,-80.913011,Closed
Novant Health - Huntersville,hospital-based,10030 Gilead Rd,,Huntersville,28078,,,https://www.novanthealth.org/Huntersville-Medical-Center.aspx?utm_source=maps.google.com&utm_medium=organic&utm_campaign=GMB&utm_content=MC-06&ecid=gm,35.40645,-80.860179,Closed
Iredell Health System,hospital-based,557 Brookdale Dr,,Statesville,28677,,,,35.799687,-80.878616,Closed
Atrium Health - High Point,hospital-based,601 N Elm St,,"High Point,",27262,,,https://www.wakehealth.edu/locations/labs-and-imaging/p/pet-high-point-medical-center?utm_source=GMB&utm_medium=Organic&utm_campaign=AHWFB,35.963001,-80.013492,Closed
CONE HEALTH - ALAMANCE REGIONAL MEDICAL CENTER,hospital-based,1240 Huffman Mill Rd,,Burlington,27216,336-663-4290,,https://www.conehealth.com/locations/alamance-regional/,36.06109,-79.502153,Closed
CONE HEALTH - WESLEY LONG HOSPITAL,hospital-based,2400 W. Friendly Ave,,Greensboro,27403,336-832-1871,,https://www.conehealth.com/locations/wesley-long-hospital/,36.083616,-79.826612,Closed
Novant Health Kernersville Medical Center,hospital-based,1750 Kernersville Medical Pkwy,,Kernersville,27284,336 564-4000,,,36.091313,-80.044411,Closed
Novant Health Forsyth Medical Center,hospital-based,3333 Silas Creek Pkwy,,Winston-Salem,27103,,,https://www.novanthealth.org/Forsyth-Medical-Center.aspx?utm_source=maps.google.com&utm_medium=organic&utm_campaign=GMB&utm_content=MC-04&ecid=gmbloca,36.076444,-80.29657,Closed
Wake Forest University |  NC Baptist Hospital,hospital-based,1 Medical Center Blvd,,Winston-Salem,27157,,,,36.090276,-80.271387,Closed
Annie Penn Hospital,hospital-based,18 S Main St,,Reidsville,27320,336 951-4000,,https://www.conehealth.com/locations/annie-penn-hospital/,36.361558,-79.665894,Closed
Princeton Radiology ‚Äì Freehold Office,hospital-based,901 West Main Street,,Freehold,7728,732-462-4844,,https://www.princetonradiology.com/locations/freehold/,40.236841,-74.313105,Closed
Princeton Radiology ‚Äì Monroe Office,stand-alone imaging center,9 Centre Drive,,Monroe Township,8831,609-655-1448,,https://www.princetonradiology.com/locations/monroe/,40.33986,-74.461997,Closed
JFK Medical Center,hospital-based,"3548 Route 9 South, ",Suite 101,Old Bridge,8857,732 321-7000,,https://www.hackensackmeridianhealth.org/en/Locations/JFK-University-Medical-Center,40.380846,-74.30898,Closed
Sun View Imaging,stand-alone imaging center,2525 S Telshor Blvd,," Las Cruces,",88011,,,https://sunviewlascruces.com/,32.291727,-106.733646,Closed
Personalized Imaging Consultants,stand-alone imaging center,5465 Reno Corporate Dr,Suite #200,Reno,89511,,,,39.467947,-119.765387,Closed
Renown Health,stand-alone imaging center,75 Pringle Way,Suite G-11,Reno,89502,,,https://www.renown.org/locations/renown-health-x-ray-and-imaging-kirman/?utm_source=GMBlisting&utm_medium=organic&utm_campaign=gmb,39.526474,-119.794741,Closed
MEMORIAL SLOAN KETTERING CANCER CENTER,stand-alone imaging center,1275 York Ave,,New York,10021,212-639-7375,,https://www.mskcc.org/locations/directory/memorial-hospital?utm_source=yext&utm_medium=local&utm_content=gmb,40.764453,-73.95702,Closed
NEW YORK PRESBYTERIAN WEILL CORNELL MEDICAL CENTER,hospital-based,520 East 70th St Starr Pavillion,,New York,10065,646-908-0947,,https://wcinyp.org/,40.765111,-73.953837,Closed
UR Medicine Imaging ‚Äì East River Road,stand-alone imaging center,200 E River Rd,,Rochester,14623,,,https://www.urmc.rochester.edu/imaging/locations.aspx,43.111989,-77.628017,Closed
University of Cincinnati ‚Äì West Chester Hospital,hospital-based,7690 Discovery Dr,,West Chester,45069,513 475-8867,,,39.360969,-84.366938,Closed
Greater Dayton Cancer Center,stand-alone imaging center,3120 Governor‚Äôs Place Blvd,,Kettering,45409,937-425-8077,,https://www.daytonphysicians.com/,39.705801,-84.199265,Closed
KETTERING MEDICAL CENTER,hospital-based,3535 Southern Blvd,,Kettering,45429,937-395-8588,,https://ketteringhealth.org/locations/kettering-health-main-campus-mc004/,39.697055,-84.191157,Closed
Mount Carmel ‚Äì West,hospital-based,793 W State St,,Columbus,43222,614 234-7400,,,39.957399,-83.021153,Closed
\Mount Carmel ‚Äì East,hospital-based,6001 E Broad St,,Columbus,43213,614-234-7400,,,39.977112,-82.844453,Closed
Cleveland Clinic Niles STAR Imaging,stand-alone imaging center,652 Youngstown Warren Rd,,Niles,44446,330 505-2280,,,41.193531,-80.727505,Closed
UNC Medical Center-PET Scan Department,hospital-based,101 Manning Dr,,Chapel Hill,27514,984-974-6118,,https://www.uncmedicalcenter.org/uncmc/care-treatment/imaging-radiology/,35.904444,-79.049897,Closed
Trinity Medical Center West,hospital-based,4000 Johnson Rd,,Steubenville,43952,740-283-7440,,https://trinityhealth.com/?utm_source=LocalSearch&utm_medium=Facility&utm_campaign=TrinityHealthSystem&utm_term=TrinityMedicalCenterWest&y_source=1_MT,40.368135,-80.657916,Closed
Akron General Hospital,hospital-based,301 Akron General Ave,,Akron,44307,,,https://my.clevelandclinic.org/locations/directions/416-akron-general,41.078126,-81.530278,Closed
Summa Health System,hospital-based,95 Arch St,Suite 300,Akron,44304,,,https://www.summahealth.org/locations/testing-services/lab-services,41.082049,-81.499347,Closed
Cleveland Clinic - Sports Medicine Center,stand-alone imaging center,5555 Transportation Blvd,,Garfield Heights,44125,,,https://my.clevelandclinic.org/locations/directions/240-sports-medicine-center,41.410869,-81.614544,Closed
Southpoint Cleveland Clinic,hospital-based,4200 Warrensville Center Rd,,Warrensville Heights,44128,216 491-0141,,https://my.clevelandclinic.org/locations/directions/586-south-pointe-medical-office-building-a,41.445783,-81.536544,Closed
MetroHealth Medical Center,hospital-based,2500 Metrohealth Dr,,Cleveland,44109,,,https://www.metrohealth.org/locations/main-campus,41.460775,-81.698786,Closed
University Hospitals of Cleveland,hospital-based,1110 Euclid Ave,,Cleveland,44106,216-844-3101,,,41.500237,-81.685095,Closed
CLEVELAND CLINIC,hospital-based,2035 East 86TH St Nuclear Medicine JB3,,Cleveland,44106,216-444-2200,,https://my.clevelandclinic.org/locations/directions/231-cleveland-clinic-main-campus,41.502931,-81.62683,Closed
SEIDMAN CANCER CENTER,hospital-based,11100 Euclid Ave,,Cleveland,44106,216-699-6709,,https://www.uhhospitals.org/locations/uh-seidman-cancer-center?utm_campaign=UH_Seidman_Cancer_Center_11100_Euclid_Avenue&utm_source=yext&utm_medium=locallisting&utm_content=website_url,41.506353,-81.605612,Closed
LOUIS STOKES CLEVELAND VA MEDICAL CENTER,hospital-based,10701 East Blvd,Basement Rm BC-470 Nuclear Medicine,Cleveland,44106,800-379-8387,,https://www.va.gov/directory/guide/facility.asp?ID=31,41.513271,-81.613697,Closed
University Hospitals Mentor Health Center,hospital-based,9485 Mentor Ave,,Mentor,44060,,,https://lakehealth.org/,41.682418,-81.300655,Closed
OU Health ‚Äì Stephenson Cancer Center in OKC,hospital-based,800 NE 10th St,,Oklahoma City,73104,405-271-8001,,https://www.ouhealth.com/find-a-location/ou-health-stephenson-cancer-center/,35.477308,-97.497484,Closed
Asante Heimann Cancer Center,hospital-based,3011 East Barnett RD,,Medford,97504,541-789-4673,,https://www.asante.org,42.318087,-122.825687,Closed
UPMC Washington Hospital,hospital-based,155 Wilson Ave,,Washington,15301,,,,40.183117,-80.246246,Closed
St. Clair Hospital,hospital-based,1000 Bower Hill Rd,,Pittsburgh,15243,,,https://www.stclair.org/,40.378099,-80.06661,Closed
UPMC / Heritage Valley Cancer Center - Beaver,hospital-based,1000 Dutch Ridge Rd,,Beaver,15009,,,https://www.heritagevalley.org/,40.71214,-80.322183,Closed
Allegheny General Hospital,hospital-based,320 E. North Ave,,Pittsburg,15212,412-359-3492,,https://www.ahn.org/locations.html/?utm_source=GMB&utm_medium=Local&utm_content=Facility&utm_campaign=990940636204059272,40.457032,-80.00337,Closed
UPMC MAGEE - WOMENS HOSPITAL,hospital-based,300 Halket St,,Pittsburgh,15213,412-641-8080,,https://www.upmc.com/locations/hospitals/magee,40.436966,-79.960805,Closed
MUSC Health Florence Medical Center,hospital-based,805 PAMPLICO HIGHWAY,,Florence,29505,843 674-5000,,,34.160097,-79.75201,Closed
MUSC Health Lancaster Medical Center,hospital-based,800 W Meeting St,,Lancaster,29720,803 286-1214,,,34.717607,-80.787879,Closed
AnMed Health North Campus,stand-alone imaging center,2000 E Greenville St,,Anderson,29621,,,https://anmedhealth.org/locations/north-campus,34.545556,-82.629014,Closed
Prisma Health Greenville Memorial,hospital-based,701 Grove Rd,,Greenville,29605,864-455-3068,,https://prismahealth.org/locations/hospitals/prisma-health-greenville-memorial-hospital?utm_source=gmb&utm_medium=Yext,34.819044,-82.412967,Closed
St. Francis Cancer Center,hospital-based,104 Innovation Dr,,Greenville,29607,864 603-6200,,https://www.bonsecours.com/locations/specialty-locations/cancer-care-oncology/st-francis-cancer-center?utm_source=local-listings&utm_medium=organic&ut,34.805609,-82.316107,Closed
Pelham Medical Center,hospital-based,2755 SC-14,,Greer,29650,,,https://www.spartanburgob.com/,34.862282,-82.22055,Closed
Spartanburg Medical Center,hospital-based,101 E Wood St,,Spartanburg,29303,,,https://www.spartanburgregional.com/locations/spartanburg-medical-center/,34.96676,-81.939538,Closed
Prisma Health - Midlands,hospital-based,Marion St,,Columbia,29220,,,https://prismahealth.org/locations/hospitals/baptist-hospital?utm_source=gmb&utm_medium=Yext,34.006278,-81.032125,Closed
South Carolina Oncology Associates,stand-alone imaging center,166 Stoneridge Dr,,Columbia,29210,803-461-3698,,https://www.sconcology.net/,34.013683,-81.072468,Closed
Lexington Medical Center,hospital-based,222 E Medical Ln,Suite 4,West Columbia,29169,,,https://www.lexingtononcology.com/,34.007978,-81.111844,Closed
VANDERBILT UNIVERSITY MED CTR,hospital-based,1301  Medical Center DRRRB1," RM 1276, PET Center",Nashville,37232,615-322-5000,,https://search.vanderbilthealth.com/locations/vanderbilt-clinic,36.142585,-86.801276,Closed
North Texas Cancer Center,hospital-based,5948 W Parker Rd,,Plano,75093,972 378-4114,,https://northdallasurology.com/radiation-oncology/,33.044756,-96.825972,Closed
GENESIS CARE - VERITY PET/CT CENTER OF PLANO,stand-alone imaging center,6957  West Plano Pkway,Suite 1300,Plano,75093,469-364-7880,404.0,https://www.genesiscare.com/us/our-locations/plano-lr9/,33.033271,-96.85026,Closed
GENESIS CARE NORTHPOINT PET/CT CENTER,stand-alone imaging center,12606 Greenville Ave,,Dallas,75243,469-364-7880,404.0,https://www.genesiscare.com/us/our-locations/dallas-lr8/,32.918467,-96.741789,Closed
ONCOLOGY CONSULTANTS,hospital-based,2130   W Holcombe Blvd Life Science Plaza,10th Floor,Houston,77030,713-600-0900,,https://www.oncologyconsultants.com/,29.706385,-95.408281,Closed
Baylor Scott & White Medical Center ‚Äî Temple,hospital-based,2401 S 31st St,,Temple,76508,,,https://www.bswhealth.com/locations/temple?utm_source=google-mybusiness&utm_medium=organic&utm_campaign=9479&y_source=1_MTM0MTE3MDctNzE1LWxvY2F0aW9uLn,31.076525,-97.365282,Closed
HOUSTON MEDICAL IMAGING,stand-alone imaging center,3310  Richmond Ave,,Houston,77098,713-589-5231,,https://www.hmixray.com/,29.734601,-95.426973,Closed
INTERMOUNTAIN HEALTH - ST GEORGE REGIONAL HOSPITAL,hospital-based,1380 E Medical Center Dr,,St. George,84790,,,,37.096802,-113.553971,Closed
St George Regional Hospital,stand-alone imaging center,600 S Medical Center Dr,,St. George,84790,435 251-4900,,https://intermountainhealthcare.org/locations/location-details/st-george-regional-hospital-river-road/intermountain-cancer-center-of-st-george/intermo,37.098059,-113.550995,Closed
Utah Valley Hospital,hospital-based,1034 N. 500 West,,Provo,84604,801-357-2101,,https://intermountainhealthcare.org/locations/utah-valley-hospital/?utm_campaign=gmb-website&utm_medium=organic&utm_source=google,40.248122,-111.665862,Closed
Intermountain Medical Center,hospital-based,5169 S. Cottonwood Street,Building 2,Murray,84107,801-507-3773,,https://intermountainhealthcare.org/locations/intermountain-medical-center/?utm_campaign=gmb-website&utm_medium=organic&utm_source=google,40.659019,-111.891559,Closed
Utah Cancer Specialists,hospital-based,3838 South 700 East,Suite 100,Salt Lake City,84106,801-270-2224,,https://www.utahcancer.com/,40.668881,-111.871908,Closed
Huntsman Cancer Hospital,hospital-based,1950 Circle of Hope Dr,,Salt Lake City,84112,801-587-4716,,https://healthcare.utah.edu/huntsmancancerinstitute/?utm_source=rebrandly,40.773364,-111.834893,Closed
Davis Hospital and Medical Center,hospital-based,1600 W Antelope Dr,,Layton,84041,801 807-1000,,https://www.davishospital.org/,41.089779,-111.994806,Closed
McKay-Dee Hospital,hospital-based,4401 Harrison Blvd,3rd floor,Ogden,84403,801-387-3575,,https://intermountainhealthcare.org/locations/mckay-dee-hospital/?utm_campaign=gmb-website&utm_medium=organic&utm_source=google,41.183242,-111.953039,Closed
LewisGale Hospital,hospital-based,2400 Lee Hwy,,Pulaski,24301,540 994-8100,,https://hcavirginia.com/locations/lewisgale-pulaski/,37.068229,-80.75703,Closed
Lewis-Gale Medical Center,hospital-based,1900 Electric Rd,,Salem,24153,,,https://hcavirginia.com/locations/lewisgale-medical-center/,37.263934,-80.032308,Closed
CARILION ROANOKE MEMORIAL HOSPITAL,hospital-based,1906 Belleview Ave SE 1 South,,Roanoke,24014,540-981-7274,,https://www.carilionclinic.org/locations/carilion-roanoke-memorial-hospital,37.251345,-79.941701,Closed
Sentara Williamsburg Regional Medical Center,hospital-based,100 Sentara Cir,,Williamsburg,23188,,,https://www.sentara.com/hospitalslocations/locations/sentara-williamsburg-regional-medical-center/directions-and-parking.aspx,37.336059,-76.742327,Closed
SENTARA WILLIAMSBURG REGIONAL MEDICAL CENTER,hospital-based,100  Sentara Cir,,Williamsburg,23188,757-984-7890,,https://www.sentara.com/hampton-roads-virginia/medicalservices/services/imaging/services/pet-ct-scan.aspx,37.336059,-76.742327,Closed
SENTARA CAREPLEX HOSPITAL,hospital-based,3000 Coliseum Dr,,Hampton,23666,757-213-5791,,https://www.sentara.com/hampton-roads-virginia/hospitalslocations/locations/sentara-careplex-hospital/directions-parking.aspx,37.056903,-76.389848,Closed
SENTARA BROCK CANCER CENTER,stand-alone imaging center,6251 East Virginia Beach Blvd,Suite 100,Norfolk,23502,757-213-5791,,https://www.sentara.com/hampton-roads-virginia/hospitalslocations/locations/sentara-cancer-center.aspx,36.854256,-76.191048,Closed
FORT BELVOIR COMMUNITY HOSPITAL,hospital-based,9300 Dewitt Loop,,Fort Belvoir,22060,571-231-4305,,https://belvoirhospital.tricare.mil/,38.705255,-77.14334,Closed
Medical Imaging of Fredericksburg,stand-alone imaging center,1201 Sam Perry Blvd,#102,Fredericksburg,22401,,,https://mifimaging.com/locations/fredericksburg/,38.309505,-77.484627,Closed
Chesapeake Regional Medical Center,hospital-based,744 N Battlefield Blvd,,Chesapeake,23320,757 312-3132,,,36.746872,-76.246328,Closed
Sentara Obici Hospital,hospital-based,2800 Godwin Blvd,,Suffolk,23434,,,https://www.sentara.com/hampton-roads-virginia/hospitalslocations/locations/sentara-obici-hospital/directions-parking.aspx,36.773223,-76.580955,Closed
SENTARA GREENBRIER HEALTHPLEX,hospital-based,713 Volvo Pkway,,Chesapeake,23320,757-213-5791,,https://www.sentara.com/hampton-roads-virginia/hospitalslocations/locations/sentara-greenbrier-healthplex/location-and-directions.aspx,36.767197,-76.23391,Closed
SENTARA PRINCESS ANNE HOSPITAL,hospital-based,2025  Glen Mitchell Dr,,Virginia Beach,23456,757-213-5791,,https://www.sentara.com/hampton-roads-virginia/hospitalslocations/locations/sentara-princess-anne-hospital/directions-parking.aspx,36.775989,-76.098328,Closed
Naval Medical Center Portsmouth,hospital-based,620 John Paul Jones Circle,,Portsmouth,23708,,,https://portsmouth.tricare.mil/Health-Services/Laboratory-Radiology/Radiology,36.845645,-76.30538,Closed
SENTARA BELLE HARBOUR ADVANCED IMAGING CENTER,hospital-based,3920  A Bridge Rd,,Suffolk,23435,757-213-5791,,https://www.sentara.com/hampton-roads-virginia/hospitalslocations/locations/advanced-imaging-center-belleharbour.aspx,36.86401,-76.449801,Closed
Sova Health Danville,hospital-based,142 South Main St,,Danville,24541,434-483-5310,,,36.577673,-79.405503,Closed
Sovah Health - Martinsville,hospital-based,320 Hospital Dr,,Martinsville,24112,276666-7200,,https://www.sovahhealth.com/martinsville,36.700021,-79.867034,Closed
John Randolph Medical Center,hospital-based,411 W. Randolph Rd,,Hopewell,23860,804-327-8707,,https://hcavirginia.com/locations/john-randolph/,37.308009,-77.291156,Closed
HUNTER HOLMES MCGUIRE VA MED CTR - RICHMOND,hospital-based,1201  Broad Rock  Blvd,,Rrichmond,23249,804-675-5510,,https://www.va.gov/richmond-health-care/,37.494818,-77.464595,Closed
Johnston-Willis Hospital,hospital-based,1405 Johnston Willis Dr,,Richmond,23235,,,https://hcavirginia.com/locations/johnston-willis/?utm_campaign=corp_listings_mgmt&utm_source=google&utm_medium=business_listing,37.509288,-77.593149,Closed
VCU Medical Center Gateway Building,hospital-based,1200 E Marshall St,,Richmond,23219,,,https://www.vcuhealth.org/locations/location-details?id=13,37.540512,-77.430337,Closed
Bon Secours St. Mary's Hospital,hospital-based,5801 Bremo Rd,,Richmond,23226,,,,37.584289,-77.512619,Closed
Henrico Doctor‚Äôs Hospital,hospital-based,1602 Skipwith Rd.,,Richmond,23229,804-327-8702,,https://hcavirginia.com/locations/henrico-doctors/,37.604044,-77.540061,Closed
Bon Secours - Imaging Center at Reynolds Crossing,hospital-based,6605 W Broad St Suite B,Ground Floor,Richmond,23230,804 287-3500,,,37.603019,-77.520744,Closed
Virginia Urology,hospital-based,8152 Pleasant Grove Rd,,Mechanicsville,23116,804 330-9105,,https://www.uro.com/,37.630101,-77.379725,Closed
UNIVERSITY VERMONT MEDICAL CENTER,hospital-based,111 Colchester Ave,,Burlington,5401,802-847-3593,,https://www.uvmhealth.org/medcenter/location/uvm-medical-center-main-campus?utm_source=google&utm_medium=yext&utm_campaign=website_field&utm_term=UVM_Medical_Center&utm_content=Burlington,44.479763,-73.193944,Closed
Valley Diagnostic Imaging Services ‚Äì Medical Arts,hospital-based,"4033 Talbot Rd S, Suite 360",,Renton,98055,4256906290,,,47.444228,-122.214555,Closed
MARSHFIELD MEDICAL CENTER- RICE LAKE,hospital-based,1700  W Stout St,,Rice Lake,54868,715-236-8484,,marshfieldclinic.org/locations/centers/Rice%20Lake%20-%20Marshfield%20Medical%20Center,45.506532,-91.759512,Closed
